{"type": "FeatureCollection", "crs": {"type": "name", "properties": {"name": "urn:ogc:def:crs:EPSG::5179"}}, "properties": {"scenario": "A_soilmap", "level": "critical", "prob_threshold": 0.7, "fos_threshold": 0.8588, "note": "arrival_hour 로 필터링해 시계열 애니메이션. 미보정 파라미터 (Rsat=200.0, Wmax=0.85, k=6.0)."}, "features": [{"type": "Feature", "properties": {"arrival_hour": 32, "arrival_time": "2025-07-19T08:00:00+09:00", "area_m2": 874.1}, "geometry": {"type": "Polygon", "coordinates": [[[1047674.1262922366, 1712665.2994994903], [1047704.1104066442, 1712645.3100898853], [1047714.1051114467, 1712645.3100898853], [1047734.0945210517, 1712620.323327879], [1047744.0892258543, 1712620.323327879], [1047749.0865782555, 1712605.3312706752], [1047714.1051114467, 1712620.323327879], [1047674.1262922366, 1712665.2994994903]]]}}, {"type": "Feature", "properties": {"arrival_hour": 33, "arrival_time": "2025-07-19T09:00:00+09:00", "area_m2": 7030.0}, "geometry": {"type": "MultiPolygon", "coordinates": [[[[1031437.72834054, 1697208.4885223904], [1031447.7230453425, 1697208.4885223904], [1031422.7362833362, 1697178.5044079828], [1031412.7415785337, 1697178.5044079828], [1031437.72834054, 1697208.4885223904]]], [[[1031482.7045121513, 1697278.451456008], [1031502.6939217563, 1697308.4355704156], [1031562.6621505715, 1697323.4276276194], [1031532.6780361639, 1697303.4382180143], [1031507.6912741576, 1697298.440865613], [1031492.6992169538, 1697278.451456008], [1031482.7045121513, 1697278.451456008]]], [[[1030483.2340318991, 1701776.0686171427], [1030478.2366794979, 1701786.0633219453], [1030493.2287367017, 1701801.055379149], [1030493.2287367017, 1701791.0606743465], [1030483.2340318991, 1701776.0686171427]]], [[[1046584.7034687618, 1707213.1880297146], [1046594.6981735643, 1707213.1880297146], [1046589.700821163, 1707198.1959725108], [1046579.7061163605, 1707193.1986201096], [1046584.7034687618, 1707213.1880297146]]], [[[1046644.6716975769, 1707343.1191921474], [1046654.6664023794, 1707348.1165445487], [1046624.6822879718, 1707268.1589061285], [1046614.6875831693, 1707263.1615537272], [1046619.6849355706, 1707298.143020536], [1046644.6716975769, 1707343.1191921474]]], [[[1031837.5165326409, 1727642.3646460692], [1031832.5191802396, 1727632.3699412667], [1031812.5297706346, 1727632.3699412667], [1031797.5377134308, 1727642.3646460692], [1031827.5218278384, 1727647.3619984705], [1031837.5165326409, 1727642.3646460692]]], [[[1030433.2605078865, 1729096.5941948362], [1030418.2684506827, 1729096.5941948362], [1030423.265803084, 1729106.5888996387], [1030433.2605078865, 1729106.5888996387], [1030433.2605078865, 1729096.5941948362]]], [[[1047938.9859695034, 1705439.127927267], [1047958.9753791085, 1705454.1199844708], [1047973.9674363122, 1705454.1199844708], [1047938.9859695034, 1705439.127927267]]], [[[1046739.6213932008, 1707478.0477069814], [1046774.6028600096, 1707558.0053454016], [1046784.5975648122, 1707563.0026978028], [1046784.5975648122, 1707577.9947550066], [1046799.589622016, 1707587.9894598091], [1046799.589622016, 1707597.9841646117], [1046824.5763840222, 1707627.9682790192], [1046824.5763840222, 1707592.9868122104], [1046804.5869744172, 1707572.9974026054], [1046794.5922696147, 1707528.021230994], [1046749.6160980033, 1707478.0477069814], [1046739.6213932008, 1707478.0477069814]]], [[[1047904.0045026946, 1713234.997673234], [1047904.0045026946, 1713249.9897304378], [1047913.9992074971, 1713259.9844352403], [1047913.9992074971, 1713244.9923780365], [1047904.0045026946, 1713234.997673234]]], [[[1048023.940960325, 1713409.905007278], [1047998.9541983185, 1713374.9235404693], [1047993.9568459173, 1713374.9235404693], [1048003.9515507198, 1713399.9103024756], [1048023.940960325, 1713409.905007278]]], [[[1048798.5305825204, 1714379.3913731228], [1048788.535877718, 1714379.3913731228], [1048798.5305825204, 1714394.3834303266], [1048808.525287323, 1714399.3807827279], [1048803.5279349217, 1714384.388725524], [1048798.5305825204, 1714379.3913731228]]], [[[1048848.504106533, 1714439.359601938], [1048838.5094017305, 1714444.3569543392], [1048858.4988113355, 1714459.349011543], [1048858.4988113355, 1714449.3543067405], [1048848.504106533, 1714439.359601938]]]]}}]}