{"type": "FeatureCollection", "crs": {"type": "name", "properties": {"name": "urn:ogc:def:crs:EPSG::5179"}}, "properties": {"scenario": "A_soilmap", "level": "warning", "prob_threshold": 0.5, "fos_threshold": 1.0, "note": "arrival_hour 로 필터링해 시계열 애니메이션. 미보정 파라미터 (Rsat=200.0, Wmax=0.85, k=6.0)."}, "features": [{"type": "Feature", "properties": {"arrival_hour": 0, "arrival_time": "2025-07-18T00:00:00+09:00", "area_m2": 6842.7}, "geometry": {"type": "MultiPolygon", "coordinates": [[[[1031497.6965693551, 1697283.4488084093], [1031487.7018645526, 1697283.4488084093], [1031487.7018645526, 1697293.4435132118], [1031512.6886265589, 1697313.4329228168], [1031542.6727409664, 1697318.430275218], [1031537.6753885652, 1697308.4355704156], [1031507.6912741576, 1697298.440865613], [1031497.6965693551, 1697283.4488084093]]], [[[1046619.6849355706, 1707298.143020536], [1046639.6743451756, 1707323.1297825424], [1046644.6716975769, 1707343.1191921474], [1046654.6664023794, 1707348.1165445487], [1046629.6796403731, 1707278.153610931], [1046614.6875831693, 1707268.1589061285], [1046619.6849355706, 1707298.143020536]]], [[[1046744.6187456021, 1707478.0477069814], [1046744.6187456021, 1707498.0371165865], [1046769.6055076084, 1707548.010640599], [1046779.6002124109, 1707553.0079930003], [1046789.5949172134, 1707582.992107408], [1046824.5763840222, 1707617.9735742167], [1046824.5763840222, 1707597.9841646117], [1046799.589622016, 1707572.9974026054], [1046794.5922696147, 1707528.021230994], [1046744.6187456021, 1707478.0477069814]]], [[[1047809.0548070706, 1712540.3656894588], [1047794.0627498669, 1712560.3550990638], [1047804.0574546694, 1712560.3550990638], [1047834.041569077, 1712540.3656894588], [1047844.0362738795, 1712525.373632255], [1047809.0548070706, 1712540.3656894588]]], [[[1047779.0706926631, 1712575.3471562676], [1047754.0839306568, 1712590.3392134714], [1047754.0839306568, 1712600.333918274], [1047719.102463848, 1712615.3259754777], [1047674.1262922366, 1712665.2994994903], [1047699.1130542429, 1712655.3047946878], [1047744.0892258543, 1712620.323327879], [1047779.0706926631, 1712585.3418610701], [1047779.0706926631, 1712575.3471562676]]], [[[1048818.5199921255, 1714404.378135129], [1048818.5199921255, 1714419.370192333], [1048833.5120493292, 1714414.3728399316], [1048833.5120493292, 1714409.3754875304], [1048818.5199921255, 1714404.378135129]]], [[[1048853.5014589343, 1714434.3622495367], [1048848.504106533, 1714434.3622495367], [1048843.5067541318, 1714419.370192333], [1048838.5094017305, 1714419.370192333], [1048833.5120493292, 1714434.3622495367], [1048853.5014589343, 1714449.3543067405], [1048853.5014589343, 1714434.3622495367]]]]}}, {"type": "Feature", "properties": {"arrival_hour": 19, "arrival_time": "2025-07-18T19:00:00+09:00", "area_m2": 561.9}, "geometry": {"type": "MultiPolygon", "coordinates": [[[[1031567.6595029727, 1697323.4276276194], [1031562.6621505715, 1697313.4329228168], [1031547.6700933677, 1697313.4329228168], [1031552.667445769, 1697323.4276276194], [1031567.6595029727, 1697323.4276276194]]], [[[1047973.9674363122, 1705449.1226320695], [1047958.9753791085, 1705444.1252796683], [1047958.9753791085, 1705454.1199844708], [1047973.9674363122, 1705454.1199844708], [1047973.9674363122, 1705449.1226320695]]], [[[1046814.5816792197, 1707582.992107408], [1046804.5869744172, 1707553.0079930003], [1046804.5869744172, 1707577.9947550066], [1046814.5816792197, 1707582.992107408]]], [[[1024061.636196279, 1720116.3519297703], [1024066.6335486802, 1720086.3678153628], [1024056.6388438777, 1720096.3625201653], [1024056.6388438777, 1720116.3519297703], [1024061.636196279, 1720116.3519297703]]]]}}, {"type": "Feature", "properties": {"arrival_hour": 23, "arrival_time": "2025-07-18T23:00:00+09:00", "area_m2": 487.0}, "geometry": {"type": "MultiPolygon", "coordinates": [[[[1046729.6266883983, 1694364.995006073], [1046729.6266883983, 1694409.9711776844], [1046739.6213932008, 1694404.973825283], [1046729.6266883983, 1694364.995006073]]], [[[1047854.030978682, 1712500.3868702487], [1047854.030978682, 1712505.38422265], [1047869.0230358858, 1712505.38422265], [1047869.0230358858, 1712495.3895178474], [1047854.030978682, 1712500.3868702487]]], [[[1023536.9141941465, 1723489.5648006215], [1023541.9115465478, 1723489.5648006215], [1023541.9115465478, 1723469.5753910164], [1023531.9168417453, 1723469.5753910164], [1023536.9141941465, 1723489.5648006215]]]]}}, {"type": "Feature", "properties": {"arrival_hour": 31, "arrival_time": "2025-07-19T07:00:00+09:00", "area_m2": 2047.8}, "geometry": {"type": "MultiPolygon", "coordinates": [[[[1023786.7818142095, 1720096.3625201653], [1023796.776519012, 1720096.3625201653], [1023796.776519012, 1720086.3678153628], [1023786.7818142095, 1720076.3731105602], [1023786.7818142095, 1720096.3625201653]]], [[[1024046.6441390751, 1720131.343986974], [1024041.6467866738, 1720151.3333965791], [1024056.6388438777, 1720141.3386917766], [1024046.6441390751, 1720131.343986974]]], [[[1022097.6767025833, 1720970.8991903858], [1022097.6767025833, 1720955.907133182], [1022092.6793501821, 1720955.907133182], [1022087.6819977808, 1720970.8991903858], [1022097.6767025833, 1720970.8991903858]]], [[[1023986.67591026, 1721850.4332130079], [1023966.6865006549, 1721845.4358606066], [1023976.6812054574, 1721860.4279178104], [1023991.6732626612, 1721860.4279178104], [1023986.67591026, 1721850.4332130079]]], [[[1023686.8347661843, 1724094.244441174], [1023691.8321185856, 1724114.233850779], [1023696.8294709868, 1724114.233850779], [1023696.8294709868, 1724099.2417935752], [1023686.8347661843, 1724094.244441174]]], [[[1031807.5324182333, 1727647.3619984705], [1031822.5244754371, 1727647.3619984705], [1031832.5191802396, 1727637.367293668], [1031802.5350658321, 1727637.367293668], [1031807.5324182333, 1727647.3619984705]]], [[[1028614.2242338276, 1728137.102533794], [1028604.229529025, 1728127.1078289915], [1028599.2321766238, 1728132.1051813927], [1028599.2321766238, 1728142.0998861953], [1028614.2242338276, 1728137.102533794]]], [[[1046739.6213932008, 1694409.9711776844], [1046744.6187456021, 1694409.9711776844], [1046744.6187456021, 1694364.995006073], [1046739.6213932008, 1694409.9711776844]]], [[[1046754.6134504046, 1694634.852035741], [1046759.6108028059, 1694599.8705689323], [1046749.6160980033, 1694594.873216531], [1046749.6160980033, 1694624.8573309386], [1046754.6134504046, 1694634.852035741]]], [[[1046749.6160980033, 1694649.8440929449], [1046759.6108028059, 1694649.8440929449], [1046754.6134504046, 1694634.852035741], [1046749.6160980033, 1694634.852035741], [1046749.6160980033, 1694649.8440929449]]], [[[1044400.8604694108, 1699497.2759221678], [1044410.8551742133, 1699497.2759221678], [1044410.8551742133, 1699482.283864964], [1044400.8604694108, 1699482.283864964], [1044400.8604694108, 1699497.2759221678]]], [[[1048178.858884764, 1705519.0855656872], [1048203.8456467703, 1705509.0908608846], [1048163.8668275602, 1705509.0908608846], [1048178.858884764, 1705519.0855656872]]], [[[1047844.0362738795, 1712510.3815750512], [1047854.030978682, 1712505.38422265], [1047864.0256834845, 1712490.3921654462], [1047854.030978682, 1712490.3921654462], [1047844.0362738795, 1712510.3815750512]]]]}}, {"type": "Feature", "properties": {"arrival_hour": 32, "arrival_time": "2025-07-19T08:00:00+09:00", "area_m2": 12361.9}, "geometry": {"type": "MultiPolygon", "coordinates": [[[[1026525.3309301005, 1695649.314573197], [1026515.336225298, 1695649.314573197], [1026515.336225298, 1695664.3066304007], [1026525.3309301005, 1695659.3092779994], [1026525.3309301005, 1695649.314573197]]], [[[1027699.7087443968, 1696059.0974701003], [1027704.7060967981, 1696059.0974701003], [1027704.7060967981, 1696044.1054128965], [1027694.7113919955, 1696044.1054128965], [1027699.7087443968, 1696059.0974701003]]], [[[1020998.259174306, 1703555.1260719916], [1021013.2512315097, 1703555.1260719916], [1021013.2512315097, 1703545.131367189], [1021003.2565267072, 1703545.131367189], [1020998.259174306, 1703555.1260719916]]], [[[1020713.4100874341, 1703630.0863580105], [1020698.4180302303, 1703615.0943008068], [1020708.4127350328, 1703675.0625296219], [1020723.4047922366, 1703675.0625296219], [1020713.4100874341, 1703660.070472418], [1020713.4100874341, 1703630.0863580105]]], [[[1023187.0995260583, 1706793.4104280088], [1023187.0995260583, 1706808.4024852125], [1023197.0942308608, 1706808.4024852125], [1023192.0968784596, 1706793.4104280088], [1023187.0995260583, 1706793.4104280088]]], [[[1022817.2954483649, 1709581.9330679122], [1022817.2954483649, 1709561.9436583072], [1022807.3007435624, 1709561.9436583072], [1022807.3007435624, 1709571.9383631097], [1022817.2954483649, 1709581.9330679122]]], [[[1022017.7190641632, 1716203.424999583], [1022042.7058261695, 1716203.424999583], [1022042.7058261695, 1716193.4302947805], [1022017.7190641632, 1716178.4382375767], [1022012.7217117619, 1716163.446180373], [1021997.7296545581, 1716158.4488279717], [1022007.7243593606, 1716178.4382375767], [1022022.7164165644, 1716188.4329423793], [1022017.7190641632, 1716203.424999583]]], [[[1022087.6819977808, 1720950.9097807808], [1022082.6846453795, 1720950.9097807808], [1022082.6846453795, 1720975.896542787], [1022097.6767025833, 1720975.896542787], [1022087.6819977808, 1720970.8991903858], [1022087.6819977808, 1720950.9097807808]]], [[[1026135.5374428022, 1721370.6873824869], [1026135.5374428022, 1721380.6820872894], [1026155.5268524073, 1721380.6820872894], [1026145.5321476047, 1721370.6873824869], [1026135.5374428022, 1721370.6873824869]]], [[[1023821.7632810184, 1721785.4676317915], [1023846.7500430247, 1721775.472926989], [1023821.7632810184, 1721775.472926989], [1023821.7632810184, 1721785.4676317915]]], [[[1023386.9936221087, 1721835.441155804], [1023367.0042125037, 1721820.4490986003], [1023362.0068601024, 1721830.4438034028], [1023372.0015649049, 1721835.441155804], [1023386.9936221087, 1721835.441155804]]], [[[1023431.96979372, 1723019.813674903], [1023421.9750889175, 1723019.813674903], [1023421.9750889175, 1723049.7977893106], [1023431.96979372, 1723039.803084508], [1023431.96979372, 1723019.813674903]]], [[[1024536.3846743987, 1723749.427125487], [1024536.3846743987, 1723754.4244778883], [1024556.3740840037, 1723754.4244778883], [1024561.371436405, 1723744.4297730858], [1024536.3846743987, 1723749.427125487]]], [[[1023951.6944434511, 1724449.0564616635], [1023946.6970910499, 1724449.0564616635], [1023946.6970910499, 1724454.0538140647], [1023936.7023862473, 1724449.0564616635], [1023936.7023862473, 1724459.051166466], [1023951.6944434511, 1724469.0458712685], [1023951.6944434511, 1724449.0564616635]]], [[[1025275.9928297853, 1724953.789054191], [1025285.9875345879, 1724953.789054191], [1025280.9901821866, 1724933.799644586], [1025275.9928297853, 1724938.7969969872], [1025275.9928297853, 1724953.789054191]]], [[[1027749.6822684094, 1726438.0027173653], [1027754.6796208107, 1726413.015955359], [1027739.6875636069, 1726423.0106601615], [1027739.6875636069, 1726438.0027173653], [1027749.6822684094, 1726438.0027173653]]], [[[1028059.5181172877, 1726942.7353098928], [1028084.504879294, 1726937.7379574915], [1028094.4995840965, 1726907.753843084], [1028069.5128220902, 1726927.743252689], [1028059.5181172877, 1726942.7353098928]]], [[[1026885.1403029913, 1729611.321492166], [1026905.1297125963, 1729616.3188445673], [1026905.1297125963, 1729606.3241397648], [1026885.1403029913, 1729606.3241397648], [1026885.1403029913, 1729611.321492166]]], [[[1028429.3221949809, 1694649.8440929449], [1028434.3195473822, 1694639.8493881423], [1028419.3274901784, 1694644.8467405436], [1028419.3274901784, 1694664.8361501487], [1028429.3221949809, 1694664.8361501487], [1028429.3221949809, 1694649.8440929449]]], [[[1029973.5040869706, 1695019.6481706381], [1029968.5067345693, 1695014.6508182369], [1029963.5093821681, 1695024.6455230394], [1030003.4882013781, 1695019.6481706381], [1030008.4855537794, 1695009.6534658356], [1029978.5014393718, 1695009.6534658356], [1029973.5040869706, 1695019.6481706381]]], [[[1028319.3804421532, 1695079.6163994533], [1028334.372499357, 1695089.6111042558], [1028324.3777945545, 1695059.6269898482], [1028314.3830897519, 1695059.6269898482], [1028319.3804421532, 1695079.6163994533]]], [[[1030233.3664118361, 1695074.619047052], [1030218.3743546323, 1695074.619047052], [1030218.3743546323, 1695084.6137518545], [1030233.3664118361, 1695079.6163994533], [1030233.3664118361, 1695074.619047052]]], [[[1029923.530562958, 1695129.5899234659], [1029928.5279153592, 1695144.5819806696], [1029943.519972563, 1695144.5819806696], [1029938.5226201618, 1695129.5899234659], [1029923.530562958, 1695129.5899234659]]], [[[1030273.3452310462, 1695194.5555046822], [1030258.3531738424, 1695219.5422666885], [1030273.3452310462, 1695214.5449142873], [1030273.3452310462, 1695194.5555046822]]], [[[1028359.3592613633, 1695239.5316762936], [1028349.3645565608, 1695219.5422666885], [1028339.3698517582, 1695224.5396190898], [1028349.3645565608, 1695239.5316762936], [1028359.3592613633, 1695239.5316762936]]], [[[1028384.3460233696, 1696253.9942137497], [1028384.3460233696, 1696243.9995089471], [1028369.3539661658, 1696243.9995089471], [1028374.3513185671, 1696253.9942137497], [1028384.3460233696, 1696253.9942137497]]], [[[1028374.3513185671, 1696808.7003302895], [1028354.361908962, 1696803.7029778883], [1028364.3566137645, 1696828.6897398946], [1028374.3513185671, 1696833.6870922958], [1028374.3513185671, 1696808.7003302895]]], [[[1028619.2215862288, 1696878.6632639072], [1028634.2136434326, 1696888.6579687097], [1028629.2162910313, 1696863.6712067034], [1028614.2242338276, 1696853.676501901], [1028619.2215862288, 1696878.6632639072]]], [[[1028404.3354329746, 1697103.544121964], [1028419.3274901784, 1697118.5361791677], [1028424.3248425797, 1697103.544121964], [1028404.3354329746, 1697103.544121964]]], [[[1028404.3354329746, 1697263.4593988042], [1028384.3460233696, 1697258.462046403], [1028389.3433757708, 1697273.4541036068], [1028404.3354329746, 1697273.4541036068], [1028404.3354329746, 1697263.4593988042]]], [[[1030503.2234415042, 1703934.9248544876], [1030508.2207939054, 1703949.9169116914], [1030513.2181463067, 1703949.9169116914], [1030513.2181463067, 1703934.9248544876], [1030503.2234415042, 1703934.9248544876]]], [[[1028584.24011942, 1727307.5420351848], [1028574.2454146175, 1727312.539387586], [1028579.2427670187, 1727327.5314447898], [1028584.24011942, 1727322.5340923886], [1028584.24011942, 1727307.5420351848]]], [[[1028594.2348242225, 1728157.091943399], [1028609.2268814263, 1728142.0998861953], [1028594.2348242225, 1728137.102533794], [1028594.2348242225, 1728157.091943399]]], [[[1030253.3558214412, 1728796.7530507606], [1030248.3584690399, 1728776.7636411556], [1030238.3637642374, 1728781.7609935568], [1030243.3611166386, 1728796.7530507606], [1030253.3558214412, 1728796.7530507606]]], [[[1030428.2631554853, 1729096.5941948362], [1030428.2631554853, 1729086.5994900337], [1030413.2710982815, 1729086.5994900337], [1030418.2684506827, 1729096.5941948362], [1030428.2631554853, 1729096.5941948362]]], [[[1030153.408773416, 1729511.3744441408], [1030153.408773416, 1729496.382386937], [1030143.4140686134, 1729501.3797393383], [1030138.4167162122, 1729516.371796542], [1030153.408773416, 1729511.3744441408]]], [[[1046754.6134504046, 1694634.852035741], [1046764.6081552071, 1694654.8414453461], [1046764.6081552071, 1694629.8546833398], [1046754.6134504046, 1694634.852035741]]], [[[1042996.6044446564, 1700571.706688439], [1042996.6044446564, 1700576.7040408403], [1043021.5912066627, 1700581.7013932415], [1043036.5832638665, 1700571.706688439], [1042996.6044446564, 1700571.706688439]]], [[[1048013.9462555224, 1705474.1093940758], [1048033.9356651275, 1705489.1014512796], [1048028.9383127262, 1705474.1093940758], [1048013.9462555224, 1705474.1093940758]]], [[[1048163.8668275602, 1705529.0802704897], [1048178.858884764, 1705524.0829180884], [1048163.8668275602, 1705509.0908608846], [1048153.8721227577, 1705509.0908608846], [1048163.8668275602, 1705529.0802704897]]], [[[1046499.7484779403, 1709022.229598971], [1046484.7564207366, 1709042.2190085761], [1046494.7511255391, 1709042.2190085761], [1046514.7405351441, 1709022.229598971], [1046499.7484779403, 1709022.229598971]]], [[[1046064.9788190306, 1709636.9039443263], [1046044.9894094255, 1709651.89600153], [1046049.9867618268, 1709661.8907063326], [1046064.9788190306, 1709646.8986491289], [1046064.9788190306, 1709636.9039443263]]], [[[1048303.7926947955, 1712745.2571379105], [1048318.7847519993, 1712760.2491951142], [1048323.7821044006, 1712745.2571379105], [1048303.7926947955, 1712745.2571379105]]], [[[1048108.8959511464, 1713539.836169711], [1048128.8853607514, 1713549.8308745136], [1048123.8880083502, 1713534.8388173098], [1048108.8959511464, 1713534.8388173098], [1048108.8959511464, 1713539.836169711]]], [[[1037989.257338593, 1720411.1957214447], [1038029.2361578031, 1720406.1983690434], [1038039.2308626056, 1720391.2063118396], [1037999.2520433955, 1720401.2010166422], [1037989.257338593, 1720411.1957214447]]], [[[1050767.4874286172, 1724633.95850051], [1050767.4874286172, 1724638.9558529113], [1050782.479485821, 1724643.9532053126], [1050782.479485821, 1724633.95850051], [1050767.4874286172, 1724633.95850051]]], [[[1046104.9576382408, 1727342.5235019936], [1046099.9602858395, 1727312.539387586], [1046084.9682286356, 1727322.5340923886], [1046089.9655810369, 1727337.5261495924], [1046104.9576382408, 1727342.5235019936]]], [[[1031832.5191802396, 1727637.367293668], [1031822.5244754371, 1727647.3619984705], [1031847.5112374434, 1727652.3593508718], [1031842.5138850422, 1727632.3699412667], [1031802.5350658321, 1727632.3699412667], [1031832.5191802396, 1727637.367293668]]], [[[1031602.6409697816, 1727782.2905133045], [1031632.6250841891, 1727787.2878657058], [1031632.6250841891, 1727782.2905133045], [1031622.6303793866, 1727782.2905133045], [1031607.6383221828, 1727767.2984561007], [1031602.6409697816, 1727782.2905133045]]], [[[1033426.6745962418, 1727882.2375613297], [1033406.6851866368, 1727877.2402089285], [1033411.682539038, 1727887.234913731], [1033426.6745962418, 1727892.2322661323], [1033426.6745962418, 1727882.2375613297]]], [[[1032861.9737748994, 1728127.1078289915], [1032881.9631845044, 1728137.102533794], [1032876.9658321032, 1728122.1104765902], [1032861.9737748994, 1728122.1104765902], [1032861.9737748994, 1728127.1078289915]]], [[[1045630.2091601209, 1729366.4512245043], [1045635.2065125222, 1729351.4591673005], [1045605.2223981146, 1729361.453872103], [1045600.2250457134, 1729371.4485769055], [1045615.2171029171, 1729376.4459293068], [1045615.2171029171, 1729366.4512245043], [1045620.2144553184, 1729361.453872103], [1045630.2091601209, 1729366.4512245043]]], [[[1030603.1704895294, 1729411.4273961156], [1030603.1704895294, 1729386.4406341093], [1030583.1810799243, 1729361.453872103], [1030583.1810799243, 1729396.4353389118], [1030603.1704895294, 1729411.4273961156]]], [[[1030693.1228327521, 1729571.342672956], [1030683.1281279495, 1729541.3585585484], [1030673.133423147, 1729536.3612061471], [1030673.133423147, 1729526.3665013446], [1030658.1413659432, 1729516.371796542], [1030658.1413659432, 1729531.3638537459], [1030678.1307755483, 1729546.3559109496], [1030683.1281279495, 1729566.3453205547], [1030693.1228327521, 1729571.342672956]]]]}}, {"type": "Feature", "properties": {"arrival_hour": 33, "arrival_time": "2025-07-19T09:00:00+09:00", "area_m2": 149291.8}, "geometry": {"type": "MultiPolygon", "coordinates": [[[[1021492.9970620308, 1702285.7985620715], [1021502.9917668334, 1702280.8012096703], [1021497.9944144321, 1702270.8065048677], [1021487.9997096296, 1702270.8065048677], [1021492.9970620308, 1702285.7985620715]]], [[[1022282.5787414301, 1703285.2690423236], [1022272.5840366276, 1703280.2716899223], [1022277.5813890288, 1703300.2610995274], [1022282.5787414301, 1703300.2610995274], [1022282.5787414301, 1703285.2690423236]]], [[[1022347.5443226465, 1703375.2213855463], [1022347.5443226465, 1703350.23462354], [1022332.5522654427, 1703320.2505091324], [1022332.5522654427, 1703335.2425663362], [1022332.5522654427, 1703350.23462354], [1022347.5443226465, 1703375.2213855463]]], [[[1021882.7905493291, 1703465.173728769], [1021882.7905493291, 1703475.1684335715], [1021902.7799589342, 1703475.1684335715], [1021902.7799589342, 1703470.1710811702], [1021882.7905493291, 1703465.173728769]]], [[[1020998.259174306, 1703605.0995960042], [1021008.2538791085, 1703590.1075388005], [1021013.2512315097, 1703570.1181291954], [1020998.259174306, 1703570.1181291954], [1020998.259174306, 1703605.0995960042]]], [[[1020768.380963848, 1703595.1048912017], [1020758.3862590455, 1703605.0995960042], [1020763.3836114467, 1703615.0943008068], [1020768.380963848, 1703615.0943008068], [1020768.380963848, 1703595.1048912017]]], [[[1020713.4100874341, 1703615.0943008068], [1020733.3994970392, 1703635.0837104118], [1020733.3994970392, 1703625.0890056093], [1020743.3942018417, 1703620.091653208], [1020718.4074398354, 1703595.1048912017], [1020708.4127350328, 1703595.1048912017], [1020713.4100874341, 1703615.0943008068]], [[1020728.4021446379, 1703620.091653208], [1020733.3994970392, 1703620.091653208], [1020733.3994970392, 1703625.0890056093], [1020728.4021446379, 1703620.091653208]], [[1020723.4047922366, 1703615.0943008068], [1020723.4047922366, 1703610.0969484055], [1020728.4021446379, 1703615.0943008068], [1020723.4047922366, 1703615.0943008068]]], [[[1020713.4100874341, 1703630.0863580105], [1020713.4100874341, 1703660.070472418], [1020718.4074398354, 1703660.070472418], [1020718.4074398354, 1703630.0863580105], [1020713.4100874341, 1703630.0863580105]]], [[[1020773.3783162492, 1703645.0784152143], [1020773.3783162492, 1703660.070472418], [1020783.3730210518, 1703660.070472418], [1020783.3730210518, 1703640.081062813], [1020773.3783162492, 1703645.0784152143]]], [[[1021757.8567392976, 1703680.0598820231], [1021772.8487965014, 1703670.0651772206], [1021772.8487965014, 1703650.0757676156], [1021742.8646820938, 1703685.0572344244], [1021747.8620344951, 1703700.0492916282], [1021757.8567392976, 1703680.0598820231]]], [[[1020738.3968494404, 1703740.0281108383], [1020758.3862590455, 1703755.020168042], [1020763.3836114467, 1703735.030758437], [1020748.3915542429, 1703715.041348832], [1020743.3942018417, 1703680.0598820231], [1020718.4074398354, 1703660.070472418], [1020723.4047922366, 1703675.0625296219], [1020708.4127350328, 1703680.0598820231], [1020723.4047922366, 1703685.0572344244], [1020723.4047922366, 1703695.051939227], [1020733.3994970392, 1703700.0492916282], [1020738.3968494404, 1703740.0281108383]]], [[[1022832.2875055687, 1706463.5851695256], [1022847.2795627725, 1706463.5851695256], [1022842.2822103712, 1706443.5957599205], [1022832.2875055687, 1706448.5931123218], [1022832.2875055687, 1706463.5851695256]]], [[[1023167.1101164533, 1706673.4739703785], [1023157.1154116507, 1706663.479265576], [1023162.112764052, 1706688.4660275823], [1023167.1101164533, 1706688.4660275823], [1023167.1101164533, 1706673.4739703785]]], [[[1023182.102173657, 1706778.418370805], [1023192.0968784596, 1706803.4051328113], [1023197.0942308608, 1706803.4051328113], [1023197.0942308608, 1706788.4130756075], [1023182.102173657, 1706778.418370805]]], [[[1023202.0915832621, 1706803.4051328113], [1023187.0995260583, 1706813.3998376138], [1023187.0995260583, 1706828.3918948176], [1023202.0915832621, 1706818.397190015], [1023202.0915832621, 1706803.4051328113]]], [[[1023212.0862880646, 1706978.3124668554], [1023197.0942308608, 1706973.3151144541], [1023197.0942308608, 1706988.307171658], [1023217.0836404659, 1706988.307171658], [1023212.0862880646, 1706978.3124668554]]], [[[1023187.0995260583, 1707163.214505702], [1023177.1048212558, 1707153.2198008995], [1023172.1074688545, 1707168.2118581033], [1023182.102173657, 1707173.2092105045], [1023187.0995260583, 1707163.214505702]]], [[[1022702.3563431359, 1709427.0151434732], [1022682.3669335309, 1709427.0151434732], [1022682.3669335309, 1709452.0019054795], [1022697.3589907347, 1709452.0019054795], [1022707.3536955372, 1709461.996610282], [1022702.3563431359, 1709427.0151434732]]], [[[1022732.3404575435, 1709521.964839097], [1022742.335162346, 1709536.956896301], [1022757.3272195498, 1709536.956896301], [1022747.3325147473, 1709521.964839097], [1022732.3404575435, 1709521.964839097]]], [[[1022827.2901531674, 1709556.946305906], [1022822.2928007662, 1709546.9516011034], [1022807.3007435624, 1709561.9436583072], [1022817.2954483649, 1709561.9436583072], [1022817.2954483649, 1709581.9330679122], [1022807.3007435624, 1709571.9383631097], [1022807.3007435624, 1709586.9304203135], [1022817.2954483649, 1709591.9277727148], [1022827.2901531674, 1709576.935715511], [1022827.2901531674, 1709556.946305906]]], [[[1022922.2398487914, 1709661.8907063326], [1022917.2424963901, 1709646.8986491289], [1022907.2477915876, 1709646.8986491289], [1022912.2451439889, 1709661.8907063326], [1022922.2398487914, 1709661.8907063326]]], [[[1022922.2398487914, 1709671.8854111352], [1022902.2504391863, 1709671.8854111352], [1022917.2424963901, 1709691.8748207402], [1022922.2398487914, 1709671.8854111352]]], [[[1022622.3987047158, 1711001.1811498704], [1022637.3907619196, 1711001.1811498704], [1022642.3881143208, 1710976.194387864], [1022622.3987047158, 1710986.1890926666], [1022622.3987047158, 1711001.1811498704]]], [[[1022052.700530972, 1716198.4276471818], [1022032.7111213669, 1716173.4408851755], [1022022.7164165644, 1716173.4408851755], [1022007.7243593606, 1716153.4514755704], [1022012.7217117619, 1716173.4408851755], [1022042.7058261695, 1716193.4302947805], [1022042.7058261695, 1716203.424999583], [1022022.7164165644, 1716208.4223519843], [1022052.700530972, 1716213.4197043856], [1022052.700530972, 1716198.4276471818]]], [[[1022147.650226596, 1716273.3879332007], [1022167.6396362011, 1716273.3879332007], [1022167.6396362011, 1716263.3932283982], [1022147.650226596, 1716258.395875997], [1022147.650226596, 1716273.3879332007]]], [[[1022252.5946270225, 1718392.2653513353], [1022262.589331825, 1718397.2627037365], [1022257.5919794238, 1718377.2732941315], [1022247.5972746213, 1718382.2706465328], [1022252.5946270225, 1718392.2653513353]]], [[[1022892.2557343838, 1719611.619337243], [1022887.2583819826, 1719596.6272800392], [1022867.2689723775, 1719606.6219848418], [1022867.2689723775, 1719626.6113944468], [1022877.26367718, 1719626.6113944468], [1022892.2557343838, 1719611.619337243]]], [[[1023172.1074688545, 1719636.6060992493], [1023172.1074688545, 1719651.598156453], [1023197.0942308608, 1719646.6008040518], [1023192.0968784596, 1719631.608746848], [1023172.1074688545, 1719636.6060992493]]], [[[1022977.2107252053, 1720256.2777970056], [1022962.2186680015, 1720251.2804446043], [1022962.2186680015, 1720266.2725018081], [1022977.2107252053, 1720281.264559012], [1022987.2054300078, 1720281.264559012], [1022977.2107252053, 1720256.2777970056]]], [[[1022997.2001348103, 1720321.243378222], [1023007.1948396128, 1720326.2407306232], [1023007.1948396128, 1720301.253968617], [1022997.2001348103, 1720301.253968617], [1022997.2001348103, 1720321.243378222]]], [[[1023047.1736588229, 1720341.232787827], [1023032.1816016191, 1720341.232787827], [1023037.1789540204, 1720356.2248450308], [1023047.1736588229, 1720356.2248450308], [1023057.1683636254, 1720361.222197432], [1023047.1736588229, 1720341.232787827]]], [[[1024366.4746927558, 1720561.1162934825], [1024376.4693975584, 1720561.1162934825], [1024381.4667499596, 1720546.1242362787], [1024376.4693975584, 1720546.1242362787], [1024366.4746927558, 1720561.1162934825]]], [[[1021927.7667209405, 1720850.9627327556], [1021927.7667209405, 1720865.9547899594], [1021947.7561305455, 1720865.9547899594], [1021927.7667209405, 1720850.9627327556]]], [[[1022242.59992222, 1720890.9415519657], [1022252.5946270225, 1720880.9468471631], [1022252.5946270225, 1720870.9521423606], [1022242.59992222, 1720875.9494947619], [1022242.59992222, 1720890.9415519657]]], [[[1021273.1135563754, 1721100.8303528188], [1021288.1056135792, 1721105.82770522], [1021293.1029659804, 1721090.8356480163], [1021283.1082611779, 1721080.8409432138], [1021273.1135563754, 1721100.8303528188]]], [[[1021478.005004827, 1721190.7826960415], [1021453.0182428207, 1721195.7800484428], [1021438.026185617, 1721225.7641628503], [1021448.0208904195, 1721225.7641628503], [1021463.0129476233, 1721210.7721056466], [1021492.9970620308, 1721205.7747532453], [1021492.9970620308, 1721195.7800484428], [1021478.005004827, 1721190.7826960415]], [[1021468.0103000245, 1721205.7747532453], [1021478.005004827, 1721200.777400844], [1021478.005004827, 1721205.7747532453], [1021468.0103000245, 1721205.7747532453]]], [[[1021872.7958445266, 1721305.7218012705], [1021882.7905493291, 1721285.7323916655], [1021882.7905493291, 1721265.7429820604], [1021872.7958445266, 1721270.7403344617], [1021872.7958445266, 1721305.7218012705]]], [[[1023461.9539081276, 1721335.705915678], [1023466.9512605289, 1721315.716506073], [1023451.9592033251, 1721325.7112108755], [1023446.9618509238, 1721320.7138584743], [1023441.9644985226, 1721330.7085632768], [1023461.9539081276, 1721335.705915678]]], [[[1023701.8268233881, 1721540.5973641297], [1023721.8162329932, 1721535.6000117285], [1023721.8162329932, 1721525.605306926], [1023696.8294709868, 1721525.605306926], [1023701.8268233881, 1721540.5973641297]]], [[[1023651.8532993755, 1721560.5867737348], [1023661.848004178, 1721560.5867737348], [1023671.8427089805, 1721550.5920689323], [1023646.8559469742, 1721545.594716531], [1023651.8532993755, 1721560.5867737348]]], [[[1023861.7421002284, 1721775.472926989], [1023836.7553382221, 1721770.4755745877], [1023846.7500430247, 1721780.4702793902], [1023836.7553382221, 1721785.4676317915], [1023856.7447478272, 1721785.4676317915], [1023861.7421002284, 1721775.472926989]]], [[[1023801.7738714133, 1721790.4649841927], [1023836.7553382221, 1721790.4649841927], [1023811.7685762158, 1721780.4702793902], [1023801.7738714133, 1721790.4649841927]]], [[[1022202.6211030099, 1721825.4464510016], [1022212.6158078124, 1721825.4464510016], [1022217.6131602137, 1721810.4543937978], [1022212.6158078124, 1721810.4543937978], [1022202.6211030099, 1721825.4464510016]]], [[[1023961.6891482536, 1721845.4358606066], [1023926.7076814448, 1721850.4332130079], [1023926.7076814448, 1721855.4305654091], [1023966.6865006549, 1721860.4279178104], [1023961.6891482536, 1721845.4358606066]]], [[[1021478.005004827, 1722405.1393295478], [1021483.0023572283, 1722390.147272344], [1021468.0103000245, 1722390.147272344], [1021468.0103000245, 1722405.1393295478], [1021478.005004827, 1722405.1393295478]]], [[[1023436.9671461213, 1723014.8163225017], [1023426.9724413188, 1723004.8216176992], [1023431.96979372, 1723039.803084508], [1023421.9750889175, 1723059.792494113], [1023436.9671461213, 1723054.7951417118], [1023436.9671461213, 1723014.8163225017]]], [[[1024571.3661412075, 1723739.4324206845], [1024546.3793792012, 1723739.4324206845], [1024561.371436405, 1723749.427125487], [1024556.3740840037, 1723754.4244778883], [1024531.3873219974, 1723749.427125487], [1024516.3952647937, 1723764.4191826908], [1024561.371436405, 1723759.4218302895], [1024576.3634936088, 1723749.427125487], [1024571.3661412075, 1723739.4324206845]]], [[[1024436.4376263735, 1723849.3741735122], [1024421.4455691697, 1723834.3821163084], [1024436.4376263735, 1723864.366230716], [1024436.4376263735, 1723849.3741735122]]], [[[1023771.7897570058, 1724264.1544228168], [1023781.7844618083, 1724254.1597180143], [1023781.7844618083, 1724229.172956008], [1023771.7897570058, 1724244.1650132118], [1023771.7897570058, 1724264.1544228168]]], [[[1021497.9944144321, 1729211.5333000652], [1021497.9944144321, 1729196.5412428614], [1021487.9997096296, 1729196.5412428614], [1021487.9997096296, 1729206.535947664], [1021497.9944144321, 1729211.5333000652]]], [[[1027874.6160784409, 1694569.8864545247], [1027874.6160784409, 1694554.894397321], [1027864.6213736384, 1694544.8996925184], [1027829.6399068296, 1694539.9023401171], [1027834.6372592308, 1694559.8917497222], [1027874.6160784409, 1694569.8864545247]]], [[[1027754.6796208107, 1694624.8573309386], [1027754.6796208107, 1694639.8493881423], [1027769.6716780144, 1694639.8493881423], [1027779.666382817, 1694629.8546833398], [1027784.6637352182, 1694604.8679213335], [1027769.6716780144, 1694604.8679213335], [1027769.6716780144, 1694614.862626136], [1027754.6796208107, 1694624.8573309386]]], [[[1027829.6399068296, 1694629.8546833398], [1027819.645202027, 1694629.8546833398], [1027824.6425544283, 1694669.83350255], [1027834.6372592308, 1694669.83350255], [1027839.6346116321, 1694639.8493881423], [1027829.6399068296, 1694629.8546833398]]], [[[1027684.716687193, 1694709.81232176], [1027699.7087443968, 1694699.8176169575], [1027689.7140395943, 1694689.822912155], [1027689.7140395943, 1694669.83350255], [1027664.727277588, 1694684.8255597537], [1027664.727277588, 1694699.8176169575], [1027684.716687193, 1694709.81232176]]], [[[1027259.9417330859, 1694699.8176169575], [1027259.9417330859, 1694679.8282073524], [1027254.9443806846, 1694679.8282073524], [1027249.9470282834, 1694694.8202645562], [1027259.9417330859, 1694699.8176169575]]], [[[1027804.6531448233, 1694729.801731365], [1027804.6531448233, 1694674.8308549512], [1027789.6610876195, 1694684.8255597537], [1027784.6637352182, 1694714.8096741613], [1027774.6690304157, 1694719.8070265625], [1027774.6690304157, 1694779.7752553776], [1027789.6610876195, 1694779.7752553776], [1027789.6610876195, 1694744.7937885688], [1027804.6531448233, 1694729.801731365]]], [[[1027909.5975452499, 1694719.8070265625], [1027904.6001928486, 1694749.79114097], [1027914.5948976511, 1694749.79114097], [1027929.5869548549, 1694734.7990837663], [1027934.5843072562, 1694714.8096741613], [1027919.5922500524, 1694709.81232176], [1027909.5975452499, 1694719.8070265625]]], [[[1027105.0238086468, 1694734.7990837663], [1027095.0291038443, 1694734.7990837663], [1027095.0291038443, 1694774.7779029764], [1027110.0211610481, 1694779.7752553776], [1027115.0185134494, 1694744.7937885688], [1027105.0238086468, 1694734.7990837663]]], [[[1027239.9523234809, 1694769.7805505751], [1027269.9364378884, 1694769.7805505751], [1027269.9364378884, 1694759.7858457726], [1027239.9523234809, 1694754.7884933713], [1027239.9523234809, 1694769.7805505751]]], [[[1027869.6187260397, 1694774.7779029764], [1027864.6213736384, 1694759.7858457726], [1027849.6293164346, 1694759.7858457726], [1027854.6266688359, 1694774.7779029764], [1027869.6187260397, 1694774.7779029764]]], [[[1027194.9761518695, 1694774.7779029764], [1027189.9787994683, 1694809.7593697852], [1027199.9735042708, 1694819.7540745877], [1027204.970856672, 1694769.7805505751], [1027194.9761518695, 1694774.7779029764]]], [[[1027679.7193347918, 1694819.7540745877], [1027659.7299251867, 1694814.7567221865], [1027659.7299251867, 1694824.751426989], [1027669.7246299892, 1694829.7487793902], [1027679.7193347918, 1694819.7540745877]]], [[[1027844.6319640334, 1694819.7540745877], [1027829.6399068296, 1694799.7646649827], [1027814.6478496258, 1694794.7673125814], [1027814.6478496258, 1694814.7567221865], [1027829.6399068296, 1694834.7461317915], [1027824.6425544283, 1694884.719655804], [1027834.6372592308, 1694884.719655804], [1027839.6346116321, 1694854.7355413965], [1027849.6293164346, 1694844.740836594], [1027844.6319640334, 1694819.7540745877]], [[1027834.6372592308, 1694829.7487793902], [1027839.6346116321, 1694819.7540745877], [1027839.6346116321, 1694829.7487793902], [1027834.6372592308, 1694829.7487793902]]], [[[1027484.8225911426, 1694874.7249510016], [1027489.8199435439, 1694859.7328937978], [1027469.8305339388, 1694854.7355413965], [1027469.8305339388, 1694864.730246199], [1027484.8225911426, 1694874.7249510016]]], [[[1027794.6584400208, 1694904.7090654091], [1027774.6690304157, 1694924.6984750142], [1027759.6769732119, 1694924.6984750142], [1027759.6769732119, 1694939.690532218], [1027794.6584400208, 1694939.690532218], [1027804.6531448233, 1694929.6958274154], [1027804.6531448233, 1694914.7037702117], [1027794.6584400208, 1694904.7090654091]]], [[[1027734.6902112056, 1694999.658761033], [1027729.6928588044, 1695009.6534658356], [1027764.6743256132, 1695009.6534658356], [1027764.6743256132, 1695004.6561134344], [1027734.6902112056, 1694999.658761033]]], [[[1027494.8172959451, 1695104.6031614596], [1027504.8120007477, 1695094.608456657], [1027494.8172959451, 1695089.6111042558], [1027484.8225911426, 1695099.6058090583], [1027494.8172959451, 1695104.6031614596]]], [[[1026515.336225298, 1695649.314573197], [1026510.3388728967, 1695664.3066304007], [1026495.346815693, 1695649.314573197], [1026495.346815693, 1695664.3066304007], [1026505.3415204955, 1695674.3013352032], [1026520.3335776993, 1695674.3013352032], [1026530.3282825018, 1695654.3119255982], [1026520.3335776993, 1695664.3066304007], [1026515.336225298, 1695649.314573197]]], [[[1027714.7008016006, 1695734.2695640184], [1027724.6955064031, 1695734.2695640184], [1027719.6981540018, 1695719.2775068146], [1027709.7034491993, 1695719.2775068146], [1027714.7008016006, 1695734.2695640184]]], [[[1027604.7590487729, 1695784.243088031], [1027594.7643439703, 1695794.2377928335], [1027574.7749343653, 1695794.2377928335], [1027569.777581964, 1695809.2298500373], [1027604.7590487729, 1695799.2351452347], [1027629.7458107792, 1695804.232497636], [1027624.7484583779, 1695789.2404404322], [1027604.7590487729, 1695784.243088031]]], [[[1027629.7458107792, 1695864.2007264511], [1027619.7511059766, 1695864.2007264511], [1027619.7511059766, 1695919.171602865], [1027644.7378679829, 1695899.18219326], [1027644.7378679829, 1695884.1901360562], [1027629.7458107792, 1695874.1954312536], [1027629.7458107792, 1695864.2007264511]]], [[[1027604.7590487729, 1695934.1636600688], [1027619.7511059766, 1695919.171602865], [1027589.7669915691, 1695924.1689552662], [1027589.7669915691, 1695934.1636600688], [1027604.7590487729, 1695934.1636600688]]], [[[1027674.7219823905, 1696044.1054128965], [1027694.7113919955, 1696054.100117699], [1027704.7060967981, 1696034.110708094], [1027689.7140395943, 1696024.1160032914], [1027674.7219823905, 1696044.1054128965]]], [[[1027704.7060967981, 1696109.0709941129], [1027704.7060967981, 1696094.078936909], [1027694.7113919955, 1696089.0815845078], [1027684.716687193, 1696099.0762893104], [1027689.7140395943, 1696119.0656989154], [1027704.7060967981, 1696109.0709941129]]], [[[1027669.7246299892, 1696129.060403718], [1027654.7325727855, 1696149.0498133232], [1027674.7219823905, 1696144.0524609217], [1027679.7193347918, 1696129.060403718], [1027669.7246299892, 1696129.060403718]]], [[[1027779.666382817, 1696169.0392229282], [1027769.6716780144, 1696154.0471657244], [1027754.6796208107, 1696169.0392229282], [1027779.666382817, 1696169.0392229282]]], [[[1027484.8225911426, 1696673.7718154555], [1027474.8278863401, 1696673.7718154555], [1027474.8278863401, 1696688.7638726593], [1027484.8225911426, 1696688.7638726593], [1027484.8225911426, 1696673.7718154555]]], [[[1027634.7431631804, 1699262.4003593086], [1027644.7378679829, 1699262.4003593086], [1027639.7405155817, 1699247.4083021048], [1027629.7458107792, 1699247.4083021048], [1027634.7431631804, 1699262.4003593086]]], [[[1027614.7537535754, 1699267.3977117098], [1027629.7458107792, 1699267.3977117098], [1027629.7458107792, 1699257.4030069073], [1027614.7537535754, 1699257.4030069073], [1027614.7537535754, 1699267.3977117098]]], [[[1027614.7537535754, 1699322.3685881237], [1027629.7458107792, 1699357.3500549325], [1027654.7325727855, 1699372.3421121363], [1027704.7060967981, 1699372.3421121363], [1027714.7008016006, 1699362.3474073338], [1027714.7008016006, 1699342.3579977287], [1027704.7060967981, 1699337.3606453275], [1027704.7060967981, 1699347.35535013], [1027679.7193347918, 1699342.3579977287], [1027674.7219823905, 1699352.3527025313], [1027654.7325727855, 1699352.3527025313], [1027649.7352203842, 1699332.3632929262], [1027634.7431631804, 1699317.3712357224], [1027614.7537535754, 1699322.3685881237]], [[1027649.7352203842, 1699362.3474073338], [1027649.7352203842, 1699357.3500549325], [1027654.7325727855, 1699362.3474073338], [1027649.7352203842, 1699362.3474073338]]], [[[1025310.9742965942, 1720311.2486734195], [1025325.9663537979, 1720311.2486734195], [1025325.9663537979, 1720301.253968617], [1025305.9769441929, 1720301.253968617], [1025310.9742965942, 1720311.2486734195]]], [[[1027384.8755431174, 1721060.8515336085], [1027399.8676003212, 1721060.8515336085], [1027399.8676003212, 1721050.856828806], [1027379.8781907161, 1721055.8541812073], [1027384.8755431174, 1721060.8515336085]]], [[[1027429.8517147287, 1721060.8515336085], [1027404.8649527224, 1721070.846238411], [1027414.859657525, 1721085.838295615], [1027429.8517147287, 1721075.8435908123], [1027429.8517147287, 1721060.8515336085]]], [[[1027454.838476735, 1721125.8171148251], [1027444.8437719325, 1721120.8197624239], [1027449.8411243338, 1721140.809172029], [1027454.838476735, 1721140.809172029], [1027454.838476735, 1721125.8171148251]]], [[[1026120.5453855984, 1721375.6847348881], [1026120.5453855984, 1721385.6794396907], [1026175.5162620123, 1721385.6794396907], [1026135.5374428022, 1721380.6820872894], [1026135.5374428022, 1721370.6873824869], [1026120.5453855984, 1721375.6847348881]]], [[[1026140.5347952035, 1721415.6635540982], [1026175.5162620123, 1721435.6529637033], [1026195.5056716173, 1721435.6529637033], [1026185.5109668148, 1721415.6635540982], [1026140.5347952035, 1721415.6635540982]]], [[[1024661.3184844302, 1722904.8745696738], [1024656.3211320289, 1722869.893102865], [1024636.3317224239, 1722854.9010456612], [1024661.3184844302, 1722904.8745696738]]], [[[1024681.3078940352, 1722924.8639792788], [1024686.3052464365, 1722899.8772172725], [1024671.3131892327, 1722859.8983980624], [1024661.3184844302, 1722859.8983980624], [1024666.3158368315, 1722924.8639792788], [1024681.3078940352, 1722924.8639792788]]], [[[1025265.9981249828, 1724938.7969969872], [1025270.9954773841, 1724998.7652258023], [1025290.9848869891, 1724968.7811113948], [1025290.9848869891, 1724918.8075873822], [1025280.9901821866, 1724918.8075873822], [1025265.9981249828, 1724938.7969969872]], [[1025285.9875345879, 1724933.799644586], [1025285.9875345879, 1724953.789054191], [1025275.9928297853, 1724953.789054191], [1025275.9928297853, 1724938.7969969872], [1025285.9875345879, 1724933.799644586]]], [[[1025236.0140105753, 1725053.7361022162], [1025221.0219533715, 1725063.7308070187], [1025221.0219533715, 1725083.7202166237], [1025231.016658174, 1725078.7228642225], [1025236.0140105753, 1725053.7361022162]]], [[[1027604.7590487729, 1726218.1192117098], [1027614.7537535754, 1726193.1324497035], [1027604.7590487729, 1726193.1324497035], [1027604.7590487729, 1726203.127154506], [1027589.7669915691, 1726213.1218593086], [1027589.7669915691, 1726223.116564111], [1027604.7590487729, 1726218.1192117098]]], [[[1026990.0847034178, 1726403.0212505565], [1027005.0767606216, 1726398.0238981552], [1027005.0767606216, 1726388.0291933527], [1026990.0847034178, 1726393.026545754], [1026990.0847034178, 1726403.0212505565]]], [[[1027764.6743256132, 1726413.015955359], [1027754.6796208107, 1726413.015955359], [1027754.6796208107, 1726433.005364964], [1027764.6743256132, 1726428.0080125628], [1027764.6743256132, 1726413.015955359]]], [[[1027724.6955064031, 1726452.994774569], [1027739.6875636069, 1726452.994774569], [1027749.6822684094, 1726438.0027173653], [1027739.6875636069, 1726438.0027173653], [1027739.6875636069, 1726423.0106601615], [1027729.6928588044, 1726423.0106601615], [1027724.6955064031, 1726443.0000697665], [1027684.716687193, 1726443.0000697665], [1027684.716687193, 1726452.994774569], [1027714.7008016006, 1726462.9894793716], [1027724.6955064031, 1726452.994774569]]], [[[1027914.5948976511, 1726512.9630033842], [1027924.5896024536, 1726507.965650983], [1027924.5896024536, 1726492.9735937791], [1027914.5948976511, 1726497.9709461804], [1027914.5948976511, 1726512.9630033842]]], [[[1025925.6486419492, 1726847.7856142689], [1025925.6486419492, 1726857.7803190714], [1025940.640699153, 1726862.7776714726], [1025940.640699153, 1726857.7803190714], [1025925.6486419492, 1726847.7856142689]]], [[[1026805.1826645711, 1729421.4221009181], [1026800.1853121698, 1729416.4247485169], [1026765.203845361, 1729416.4247485169], [1026775.1985501635, 1729426.4194533194], [1026805.1826645711, 1729421.4221009181]]], [[[1026860.153540985, 1729581.3373777585], [1026865.1508933862, 1729596.3294349622], [1026875.1455981887, 1729581.3373777585], [1026860.153540985, 1729581.3373777585]]], [[[1026915.1244173988, 1729611.321492166], [1026905.1297125963, 1729606.3241397648], [1026900.132360195, 1729621.3161969685], [1026915.1244173988, 1729621.3161969685], [1026915.1244173988, 1729611.321492166]]], [[[1027774.6690304157, 1729646.3029589748], [1027774.6690304157, 1729636.3082541723], [1027759.6769732119, 1729641.3056065736], [1027734.6902112056, 1729666.29236858], [1027759.6769732119, 1729661.2950161786], [1027774.6690304157, 1729646.3029589748]]], [[[1028304.3883849494, 1694429.9605872894], [1028279.4016229431, 1694404.973825283], [1028279.4016229431, 1694419.965882487], [1028309.3857373507, 1694454.9473492957], [1028304.3883849494, 1694429.9605872894]]], [[[1028419.3274901784, 1694464.9420540982], [1028419.3274901784, 1694454.9473492957], [1028434.3195473822, 1694439.955292092], [1028429.3221949809, 1694424.9632348882], [1028399.3380805734, 1694429.9605872894], [1028409.3327853759, 1694409.9711776844], [1028389.3433757708, 1694409.9711776844], [1028369.3539661658, 1694429.9605872894], [1028369.3539661658, 1694444.9526444932], [1028389.3433757708, 1694449.9499968945], [1028399.3380805734, 1694464.9420540982], [1028419.3274901784, 1694464.9420540982]]], [[[1028414.3301377771, 1694514.9155781108], [1028414.3301377771, 1694524.9102829134], [1028429.3221949809, 1694539.9023401171], [1028444.3142521847, 1694529.9076353146], [1028444.3142521847, 1694494.9261685058], [1028469.301014191, 1694499.923520907], [1028484.2930713948, 1694474.9367589008], [1028484.2930713948, 1694459.944701697], [1028474.2983665923, 1694454.9473492957], [1028469.301014191, 1694464.9420540982], [1028444.3142521847, 1694469.9394064995], [1028429.3221949809, 1694504.9208733083], [1028414.3301377771, 1694514.9155781108]]], [[[1028349.3645565608, 1694514.9155781108], [1028354.361908962, 1694504.9208733083], [1028344.3672041595, 1694499.923520907], [1028339.3698517582, 1694514.9155781108], [1028349.3645565608, 1694514.9155781108]]], [[[1028264.4095657393, 1694549.8970449197], [1028279.4016229431, 1694549.8970449197], [1028269.4069181406, 1694514.9155781108], [1028259.4122133381, 1694519.912930512], [1028264.4095657393, 1694549.8970449197]]], [[[1028334.372499357, 1694564.8891021234], [1028354.361908962, 1694564.8891021234], [1028364.3566137645, 1694544.8996925184], [1028364.3566137645, 1694534.9049877159], [1028344.3672041595, 1694529.9076353146], [1028324.3777945545, 1694544.8996925184], [1028334.372499357, 1694564.8891021234]]], [[[1028494.2877761973, 1694554.894397321], [1028479.2957189935, 1694554.894397321], [1028449.311604586, 1694584.8785117285], [1028449.311604586, 1694599.8705689323], [1028474.2983665923, 1694609.8652737348], [1028519.2745382036, 1694609.8652737348], [1028524.2718906049, 1694589.8758641297], [1028494.2877761973, 1694554.894397321]]], [[[1028414.3301377771, 1694594.873216531], [1028434.3195473822, 1694594.873216531], [1028444.3142521847, 1694574.883806926], [1028429.3221949809, 1694574.883806926], [1028424.3248425797, 1694584.8785117285], [1028414.3301377771, 1694584.8785117285], [1028414.3301377771, 1694594.873216531]]], [[[1028484.2930713948, 1694654.8414453461], [1028504.2824809998, 1694654.8414453461], [1028464.3036617897, 1694629.8546833398], [1028419.3274901784, 1694634.852035741], [1028384.3460233696, 1694719.8070265625], [1028404.3354329746, 1694714.8096741613], [1028424.3248425797, 1694679.8282073524], [1028444.3142521847, 1694689.822912155], [1028454.3089569872, 1694659.8387977474], [1028474.2983665923, 1694664.8361501487], [1028484.2930713948, 1694654.8414453461]], [[1028449.311604586, 1694649.8440929449], [1028444.3142521847, 1694664.8361501487], [1028439.3168997834, 1694654.8414453461], [1028449.311604586, 1694649.8440929449]], [[1028434.3195473822, 1694639.8493881423], [1028429.3221949809, 1694664.8361501487], [1028419.3274901784, 1694664.8361501487], [1028419.3274901784, 1694644.8467405436], [1028434.3195473822, 1694639.8493881423]]], [[[1028134.4784033066, 1694684.8255597537], [1028139.4757557078, 1694709.81232176], [1028149.4704605103, 1694694.8202645562], [1028139.4757557078, 1694674.8308549512], [1028104.494288899, 1694684.8255597537], [1028104.494288899, 1694694.8202645562], [1028134.4784033066, 1694684.8255597537]]], [[[1028009.5445932751, 1694709.81232176], [1027999.5498884725, 1694714.8096741613], [1027999.5498884725, 1694764.7831981739], [1028024.5366504788, 1694784.772607779], [1028014.5419456763, 1694674.8308549512], [1028004.5472408738, 1694689.822912155], [1028009.5445932751, 1694709.81232176]]], [[[1028529.2692430061, 1694749.79114097], [1028514.2771858023, 1694724.8043789638], [1028449.311604586, 1694724.8043789638], [1028449.311604586, 1694744.7937885688], [1028439.3168997834, 1694744.7937885688], [1028439.3168997834, 1694754.7884933713], [1028474.2983665923, 1694754.7884933713], [1028494.2877761973, 1694769.7805505751], [1028524.2718906049, 1694769.7805505751], [1028529.2692430061, 1694749.79114097]]], [[[1027984.5578312688, 1694794.7673125814], [1027989.55518367, 1694804.762017384], [1027999.5498884725, 1694804.762017384], [1028004.5472408738, 1694824.751426989], [1028019.5392980776, 1694814.7567221865], [1027999.5498884725, 1694794.7673125814], [1027984.5578312688, 1694794.7673125814]]], [[[1028459.3063093885, 1694829.7487793902], [1028459.3063093885, 1694819.7540745877], [1028429.3221949809, 1694824.751426989], [1028459.3063093885, 1694829.7487793902]]], [[[1028119.4863461028, 1694844.740836594], [1028134.4784033066, 1694849.7381889953], [1028139.4757557078, 1694814.7567221865], [1028119.4863461028, 1694824.751426989], [1028119.4863461028, 1694844.740836594]]], [[[1028309.3857373507, 1694794.7673125814], [1028309.3857373507, 1694849.7381889953], [1028284.3989753444, 1694869.7275986003], [1028284.3989753444, 1694879.7223034028], [1028304.3883849494, 1694889.7170082054], [1028319.3804421532, 1694874.7249510016], [1028319.3804421532, 1694859.7328937978], [1028329.3751469557, 1694854.7355413965], [1028329.3751469557, 1694829.7487793902], [1028339.3698517582, 1694829.7487793902], [1028339.3698517582, 1694844.740836594], [1028354.361908962, 1694844.740836594], [1028354.361908962, 1694829.7487793902], [1028339.3698517582, 1694824.751426989], [1028334.372499357, 1694804.762017384], [1028309.3857373507, 1694794.7673125814]]], [[[1028164.4625177141, 1694889.7170082054], [1028149.4704605103, 1694884.719655804], [1028154.4678129116, 1694914.7037702117], [1028164.4625177141, 1694914.7037702117], [1028164.4625177141, 1694889.7170082054]]], [[[1028464.3036617897, 1694964.6772942243], [1028449.311604586, 1694959.679941823], [1028444.3142521847, 1694974.6719990268], [1028454.3089569872, 1694984.6667038293], [1028469.301014191, 1694979.669351428], [1028464.3036617897, 1694964.6772942243]]], [[[1028119.4863461028, 1694974.6719990268], [1028119.4863461028, 1694984.6667038293], [1028134.4784033066, 1694984.6667038293], [1028134.4784033066, 1694974.6719990268], [1028119.4863461028, 1694974.6719990268]]], [[[1028364.3566137645, 1694984.6667038293], [1028369.3539661658, 1694994.6614086318], [1028394.3407281721, 1694994.6614086318], [1028394.3407281721, 1694984.6667038293], [1028364.3566137645, 1694984.6667038293]]], [[[1028064.5154696889, 1694999.658761033], [1028084.504879294, 1695004.6561134344], [1028084.504879294, 1694994.6614086318], [1028069.5128220902, 1694989.6640562306], [1028069.5128220902, 1694974.6719990268], [1028059.5181172877, 1694974.6719990268], [1028054.5207648864, 1694989.6640562306], [1028064.5154696889, 1694999.658761033]]], [[[1027954.5737168612, 1695004.6561134344], [1027959.5710692625, 1694994.6614086318], [1027904.6001928486, 1694999.658761033], [1027904.6001928486, 1695009.6534658356], [1027954.5737168612, 1695004.6561134344]]], [[[1028359.3592613633, 1695034.640227842], [1028369.3539661658, 1695039.6375802432], [1028369.3539661658, 1695024.6455230394], [1028359.3592613633, 1695024.6455230394], [1028359.3592613633, 1695034.640227842]]], [[[1028334.372499357, 1695089.6111042558], [1028324.3777945545, 1695084.6137518545], [1028324.3777945545, 1695094.608456657], [1028329.3751469557, 1695109.6005138608], [1028344.3672041595, 1695119.5952186633], [1028344.3672041595, 1695074.619047052], [1028329.3751469557, 1695064.6243422495], [1028314.3830897519, 1695004.6561134344], [1028299.3910325482, 1695009.6534658356], [1028304.3883849494, 1695064.6243422495], [1028314.3830897519, 1695074.619047052], [1028314.3830897519, 1695059.6269898482], [1028324.3777945545, 1695059.6269898482], [1028334.372499357, 1695079.6163994533], [1028334.372499357, 1695089.6111042558]]], [[[1028354.361908962, 1695074.619047052], [1028384.3460233696, 1695079.6163994533], [1028379.3486709683, 1695064.6243422495], [1028364.3566137645, 1695064.6243422495], [1028359.3592613633, 1695054.629637447], [1028344.3672041595, 1695064.6243422495], [1028354.361908962, 1695074.619047052]]], [[[1028414.3301377771, 1695084.6137518545], [1028404.3354329746, 1695044.6349326444], [1028394.3407281721, 1695044.6349326444], [1028399.3380805734, 1695104.6031614596], [1028409.3327853759, 1695104.6031614596], [1028414.3301377771, 1695084.6137518545]]], [[[1028344.3672041595, 1695119.5952186633], [1028344.3672041595, 1695139.5846282684], [1028354.361908962, 1695139.5846282684], [1028359.3592613633, 1695119.5952186633], [1028344.3672041595, 1695119.5952186633]]], [[[1028409.3327853759, 1695119.5952186633], [1028404.3354329746, 1695134.5872758671], [1028414.3301377771, 1695149.579333071], [1028424.3248425797, 1695144.5819806696], [1028419.3274901784, 1695119.5952186633], [1028409.3327853759, 1695119.5952186633]]], [[[1028429.3221949809, 1695159.5740378734], [1028414.3301377771, 1695159.5740378734], [1028414.3301377771, 1695164.5713902747], [1028429.3221949809, 1695169.568742676], [1028429.3221949809, 1695159.5740378734]]], [[[1028384.3460233696, 1695179.5634474785], [1028414.3301377771, 1695174.5660950772], [1028414.3301377771, 1695164.5713902747], [1028384.3460233696, 1695169.568742676], [1028384.3460233696, 1695179.5634474785]]], [[[1028344.3672041595, 1695234.5343238923], [1028339.3698517582, 1695224.5396190898], [1028349.3645565608, 1695219.5422666885], [1028359.3592613633, 1695229.536971491], [1028359.3592613633, 1695239.5316762936], [1028349.3645565608, 1695244.5290286948], [1028369.3539661658, 1695244.5290286948], [1028364.3566137645, 1695214.5449142873], [1028379.3486709683, 1695214.5449142873], [1028394.3407281721, 1695234.5343238923], [1028399.3380805734, 1695224.5396190898], [1028414.3301377771, 1695229.536971491], [1028399.3380805734, 1695209.547561886], [1028354.361908962, 1695209.547561886], [1028339.3698517582, 1695194.5555046822], [1028334.372499357, 1695209.547561886], [1028314.3830897519, 1695204.5502094848], [1028314.3830897519, 1695219.5422666885], [1028304.3883849494, 1695219.5422666885], [1028304.3883849494, 1695229.536971491], [1028344.3672041595, 1695234.5343238923]]], [[[1028414.3301377771, 1695229.536971491], [1028419.3274901784, 1695239.5316762936], [1028409.3327853759, 1695244.5290286948], [1028439.3168997834, 1695249.526381096], [1028444.3142521847, 1695264.5184383], [1028464.3036617897, 1695264.5184383], [1028434.3195473822, 1695229.536971491], [1028414.3301377771, 1695229.536971491]]], [[[1028464.3036617897, 1695259.5210858986], [1028479.2957189935, 1695259.5210858986], [1028484.2930713948, 1695244.5290286948], [1028469.301014191, 1695249.526381096], [1028464.3036617897, 1695259.5210858986]]], [[[1028169.4598701154, 1696154.0471657244], [1028199.443984523, 1696149.0498133232], [1028209.4386893255, 1696159.0445181257], [1028219.433394128, 1696149.0498133232], [1028204.4413369242, 1696134.0577561192], [1028154.4678129116, 1696134.0577561192], [1028154.4678129116, 1696144.0524609217], [1028169.4598701154, 1696154.0471657244]]], [[[1028339.3698517582, 1696169.0392229282], [1028339.3698517582, 1696154.0471657244], [1028309.3857373507, 1696159.0445181257], [1028314.3830897519, 1696169.0392229282], [1028339.3698517582, 1696169.0392229282]]], [[[1028289.3963277456, 1696199.0233373358], [1028299.3910325482, 1696199.0233373358], [1028314.3830897519, 1696179.0339277308], [1028294.3936801469, 1696179.0339277308], [1028289.3963277456, 1696199.0233373358]]], [[[1028189.4492797204, 1696204.020689737], [1028204.4413369242, 1696209.0180421383], [1028204.4413369242, 1696179.0339277308], [1028189.4492797204, 1696169.0392229282], [1028189.4492797204, 1696204.020689737]]], [[[1028374.3513185671, 1696154.0471657244], [1028359.3592613633, 1696169.0392229282], [1028374.3513185671, 1696184.031280132], [1028374.3513185671, 1696194.0259849345], [1028364.3566137645, 1696194.0259849345], [1028359.3592613633, 1696179.0339277308], [1028344.3672041595, 1696174.0365753295], [1028349.3645565608, 1696209.0180421383], [1028339.3698517582, 1696204.020689737], [1028329.3751469557, 1696209.0180421383], [1028329.3751469557, 1696219.0127469408], [1028359.3592613633, 1696229.0074517434], [1028369.3539661658, 1696263.9889185522], [1028409.3327853759, 1696263.9889185522], [1028414.3301377771, 1696239.0021565459], [1028404.3354329746, 1696224.010099342], [1028394.3407281721, 1696243.9995089471], [1028379.3486709683, 1696234.0048041446], [1028384.3460233696, 1696209.0180421383], [1028399.3380805734, 1696204.020689737], [1028399.3380805734, 1696194.0259849345], [1028389.3433757708, 1696189.0286325333], [1028384.3460233696, 1696154.0471657244], [1028374.3513185671, 1696154.0471657244]], [[1028384.3460233696, 1696243.9995089471], [1028384.3460233696, 1696253.9942137497], [1028369.3539661658, 1696248.9968613484], [1028369.3539661658, 1696243.9995089471], [1028384.3460233696, 1696243.9995089471]], [[1028369.3539661658, 1696229.0074517434], [1028369.3539661658, 1696224.010099342], [1028374.3513185671, 1696229.0074517434], [1028369.3539661658, 1696229.0074517434]]], [[[1028124.483698504, 1696214.0153945396], [1028104.494288899, 1696214.0153945396], [1028104.494288899, 1696224.010099342], [1028124.483698504, 1696224.010099342], [1028124.483698504, 1696214.0153945396]]], [[[1028264.4095657393, 1696219.0127469408], [1028219.433394128, 1696219.0127469408], [1028189.4492797204, 1696224.010099342], [1028184.4519273192, 1696234.0048041446], [1028194.4466321217, 1696243.9995089471], [1028224.4307465293, 1696248.9968613484], [1028264.4095657393, 1696229.0074517434], [1028264.4095657393, 1696219.0127469408]]], [[[1027964.5684216637, 1696253.9942137497], [1027974.5631264662, 1696258.991566151], [1027979.5604788675, 1696243.9995089471], [1027974.5631264662, 1696224.010099342], [1027964.5684216637, 1696219.0127469408], [1027964.5684216637, 1696253.9942137497]]], [[[1028379.3486709683, 1696808.7003302895], [1028374.3513185671, 1696833.6870922958], [1028364.3566137645, 1696833.6870922958], [1028349.3645565608, 1696803.7029778883], [1028359.3592613633, 1696848.6791494996], [1028399.3380805734, 1696848.6791494996], [1028394.3407281721, 1696838.684444697], [1028404.3354329746, 1696838.684444697], [1028404.3354329746, 1696848.6791494996], [1028414.3301377771, 1696853.676501901], [1028409.3327853759, 1696833.6870922958], [1028384.3460233696, 1696828.6897398946], [1028379.3486709683, 1696808.7003302895]]], [[[1028484.2930713948, 1696838.684444697], [1028479.2957189935, 1696813.6976826908], [1028444.3142521847, 1696803.7029778883], [1028444.3142521847, 1696853.676501901], [1028454.3089569872, 1696868.6685591047], [1028489.290423796, 1696863.6712067034], [1028499.2851285986, 1696853.676501901], [1028484.2930713948, 1696838.684444697]], [[1028464.3036617897, 1696843.6817970984], [1028464.3036617897, 1696833.6870922958], [1028469.301014191, 1696833.6870922958], [1028474.2983665923, 1696848.6791494996], [1028464.3036617897, 1696843.6817970984]]], [[[1028374.3513185671, 1697253.4646940017], [1028364.3566137645, 1697268.4567512055], [1028384.3460233696, 1697278.451456008], [1028419.3274901784, 1697278.451456008], [1028414.3301377771, 1697258.462046403], [1028399.3380805734, 1697258.462046403], [1028389.3433757708, 1697248.4673416005], [1028374.3513185671, 1697253.4646940017]], [[1028384.3460233696, 1697268.4567512055], [1028384.3460233696, 1697258.462046403], [1028404.3354329746, 1697263.4593988042], [1028404.3354329746, 1697273.4541036068], [1028384.3460233696, 1697268.4567512055]]], [[[1028399.3380805734, 1697348.4143896257], [1028409.3327853759, 1697338.4196848231], [1028409.3327853759, 1697328.4249800206], [1028399.3380805734, 1697333.4223324219], [1028399.3380805734, 1697348.4143896257]]], [[[1028409.3327853759, 1697358.4090944282], [1028444.3142521847, 1697363.4064468294], [1028444.3142521847, 1697358.4090944282], [1028419.3274901784, 1697348.4143896257], [1028409.3327853759, 1697358.4090944282]]], [[[1028379.3486709683, 1724149.2153175878], [1028384.3460233696, 1724164.2073747916], [1028404.3354329746, 1724154.212669989], [1028394.3407281721, 1724129.2259079828], [1028379.3486709683, 1724149.2153175878]]], [[[1028404.3354329746, 1724329.1200040332], [1028424.3248425797, 1724344.112061237], [1028439.3168997834, 1724334.1173564345], [1028419.3274901784, 1724304.133242027], [1028404.3354329746, 1724304.133242027], [1028404.3354329746, 1724329.1200040332]]], [[[1028109.4916413003, 1726677.8756326258], [1028119.4863461028, 1726687.8703374283], [1028124.483698504, 1726667.8809278233], [1028114.4889937015, 1726662.883575422], [1028109.4916413003, 1726677.8756326258]]], [[[1028054.5207648864, 1726942.7353098928], [1028049.5234124851, 1726952.7300146953], [1028069.5128220902, 1726952.7300146953], [1028084.504879294, 1726937.7379574915], [1028054.5207648864, 1726942.7353098928]]], [[[1028494.2877761973, 1694799.7646649827], [1028494.2877761973, 1694829.7487793902], [1028504.2824809998, 1694829.7487793902], [1028509.2798334011, 1694804.762017384], [1028494.2877761973, 1694799.7646649827]]], [[[1028504.2824809998, 1694834.7461317915], [1028489.290423796, 1694839.7434841928], [1028499.2851285986, 1694869.7275986003], [1028514.2771858023, 1694854.7355413965], [1028504.2824809998, 1694834.7461317915]]], [[[1029808.591457729, 1694874.7249510016], [1029833.5782197353, 1694874.7249510016], [1029818.5861625315, 1694864.730246199], [1029808.591457729, 1694874.7249510016]]], [[[1029893.5464485504, 1695034.640227842], [1029893.5464485504, 1695024.6455230394], [1029883.5517437479, 1695024.6455230394], [1029883.5517437479, 1695039.6375802432], [1029893.5464485504, 1695044.6349326444], [1029903.5411533529, 1695044.6349326444], [1029908.5385057542, 1695034.640227842], [1029893.5464485504, 1695034.640227842]]], [[[1028784.1342154704, 1695524.3807631654], [1028784.1342154704, 1695534.375467968], [1028794.1289202729, 1695534.375467968], [1028799.1262726742, 1695544.3701727705], [1028809.1209774767, 1695544.3701727705], [1028814.118329878, 1695524.3807631654], [1028784.1342154704, 1695524.3807631654]]], [[[1028914.0653779033, 1695644.3172207957], [1028894.0759682982, 1695674.3013352032], [1028904.0706731008, 1695674.3013352032], [1028924.0600827058, 1695644.3172207957], [1028914.0653779033, 1695644.3172207957]]], [[[1029683.6576476974, 1695989.1345364826], [1029688.6550000986, 1696034.110708094], [1029703.6470573024, 1696034.110708094], [1029693.6523524999, 1695969.1451268776], [1029683.6576476974, 1695989.1345364826]]], [[[1029498.7556088507, 1696069.0921749028], [1029508.7503136533, 1696069.0921749028], [1029513.7476660545, 1696059.0974701003], [1029503.752961252, 1696054.100117699], [1029498.7556088507, 1696069.0921749028]]], [[[1028949.0468447121, 1696104.0736417116], [1028929.0574351071, 1696089.0815845078], [1028934.0547875083, 1696114.0683465141], [1028919.0627303045, 1696134.0577561192], [1028924.0600827058, 1696154.0471657244], [1028934.0547875083, 1696154.0471657244], [1028939.0521399096, 1696134.0577561192], [1028949.0468447121, 1696134.0577561192], [1028949.0468447121, 1696104.0736417116]]], [[[1028724.1659866553, 1696318.959794966], [1028749.1527486616, 1696318.959794966], [1028749.1527486616, 1696308.9650901635], [1028724.1659866553, 1696303.9677377623], [1028724.1659866553, 1696318.959794966]]], [[[1028839.1050918843, 1696423.9041953925], [1028824.1130346805, 1696423.9041953925], [1028824.1130346805, 1696428.9015477938], [1028839.1050918843, 1696438.8962525963], [1028839.1050918843, 1696423.9041953925]]], [[[1028879.0839110945, 1696628.7956438442], [1028874.0865586932, 1696648.7850534492], [1028884.0812634957, 1696663.777110653], [1028884.0812634957, 1696693.7612250606], [1028904.0706731008, 1696723.7453394681], [1028894.0759682982, 1696738.737396672], [1028904.0706731008, 1696738.737396672], [1028934.0547875083, 1696698.7585774618], [1028929.0574351071, 1696673.7718154555], [1028919.0627303045, 1696668.7744630543], [1028919.0627303045, 1696658.7797582517], [1028899.0733206995, 1696648.7850534492], [1028904.0706731008, 1696638.7903486467], [1028894.0759682982, 1696628.7956438442], [1028879.0839110945, 1696628.7956438442]], [[1028914.0653779033, 1696708.7532822643], [1028914.0653779033, 1696718.7479870669], [1028904.0706731008, 1696718.7479870669], [1028904.0706731008, 1696708.7532822643], [1028914.0653779033, 1696708.7532822643]]], [[[1028804.1236250754, 1696713.7506346656], [1028789.1315678717, 1696728.7426918694], [1028814.118329878, 1696728.7426918694], [1028819.1156822792, 1696718.7479870669], [1028804.1236250754, 1696713.7506346656]]], [[[1028739.1580438591, 1696713.7506346656], [1028749.1527486616, 1696728.7426918694], [1028744.1553962603, 1696743.7347490732], [1028769.1421582666, 1696743.7347490732], [1028779.1368630691, 1696758.726806277], [1028789.1315678717, 1696758.726806277], [1028784.1342154704, 1696728.7426918694], [1028769.1421582666, 1696713.7506346656], [1028739.1580438591, 1696713.7506346656]], [[1028774.1395106679, 1696728.7426918694], [1028779.1368630691, 1696738.737396672], [1028769.1421582666, 1696738.737396672], [1028764.1448058654, 1696733.7400442706], [1028774.1395106679, 1696728.7426918694]]], [[[1028884.0812634957, 1696748.7321014744], [1028864.0918538907, 1696738.737396672], [1028869.089206292, 1696758.726806277], [1028879.0839110945, 1696758.726806277], [1028884.0812634957, 1696748.7321014744]]], [[[1028769.1421582666, 1696773.7188634807], [1028759.1474534641, 1696768.7215110795], [1028754.1501010628, 1696788.7109206845], [1028769.1421582666, 1696788.7109206845], [1028769.1421582666, 1696773.7188634807]]], [[[1028569.2480622162, 1696783.7135682832], [1028559.2533574137, 1696793.7082730858], [1028559.2533574137, 1696808.7003302895], [1028584.24011942, 1696813.6976826908], [1028584.24011942, 1696788.7109206845], [1028569.2480622162, 1696783.7135682832]]], [[[1028509.2798334011, 1696823.6923874933], [1028504.2824809998, 1696843.6817970984], [1028524.2718906049, 1696838.684444697], [1028519.2745382036, 1696818.695035092], [1028509.2798334011, 1696823.6923874933]]], [[[1028769.1421582666, 1696843.6817970984], [1028789.1315678717, 1696848.6791494996], [1028789.1315678717, 1696833.6870922958], [1028774.1395106679, 1696813.6976826908], [1028769.1421582666, 1696843.6817970984]], [[1028774.1395106679, 1696838.684444697], [1028774.1395106679, 1696828.6897398946], [1028779.1368630691, 1696838.684444697], [1028774.1395106679, 1696838.684444697]]], [[[1028839.1050918843, 1696843.6817970984], [1028814.118329878, 1696818.695035092], [1028804.1236250754, 1696818.695035092], [1028819.1156822792, 1696853.676501901], [1028839.1050918843, 1696858.6738543021], [1028849.0997966869, 1696878.6632639072], [1028864.0918538907, 1696878.6632639072], [1028869.089206292, 1696848.6791494996], [1028839.1050918843, 1696843.6817970984]]], [[[1028599.2321766238, 1696883.6606163085], [1028619.2215862288, 1696878.6632639072], [1028614.2242338276, 1696848.6791494996], [1028599.2321766238, 1696828.6897398946], [1028589.2374718213, 1696838.684444697], [1028599.2321766238, 1696883.6606163085]]], [[[1028914.0653779033, 1696888.6579687097], [1028924.0600827058, 1696888.6579687097], [1028924.0600827058, 1696873.665911506], [1028904.0706731008, 1696868.6685591047], [1028914.0653779033, 1696888.6579687097]]], [[[1028639.2109958339, 1696878.6632639072], [1028634.2136434326, 1696878.6632639072], [1028629.2162910313, 1696893.655321111], [1028644.2083482351, 1696893.655321111], [1028639.2109958339, 1696878.6632639072]]], [[[1029113.9594739537, 1696913.644730716], [1029123.9541787562, 1696923.6394355185], [1029123.9541787562, 1696938.6314927223], [1029133.9488835587, 1696938.6314927223], [1029138.94623596, 1696918.6420831173], [1029123.9541787562, 1696903.6500259135], [1029113.9594739537, 1696903.6500259135], [1029113.9594739537, 1696913.644730716]]], [[[1028984.0283115209, 1697138.5255887727], [1028979.0309591197, 1697153.5176459765], [1028974.0336067184, 1697158.5149983778], [1028994.0230163235, 1697148.5202935752], [1028984.0283115209, 1697138.5255887727]]], [[[1029068.9833023424, 1697153.5176459765], [1029058.9885975398, 1697153.5176459765], [1029053.9912451386, 1697178.5044079828], [1029088.9727119474, 1697168.5097031803], [1029078.9780071449, 1697138.5255887727], [1029068.9833023424, 1697138.5255887727], [1029068.9833023424, 1697153.5176459765]]], [[[1028704.1765770502, 1697178.5044079828], [1028714.1712818528, 1697193.4964651866], [1028729.1633390565, 1697193.4964651866], [1028719.168634254, 1697178.5044079828], [1028704.1765770502, 1697178.5044079828]]], [[[1029143.9435883613, 1697188.4991127853], [1029163.9329979663, 1697188.4991127853], [1029173.9277027688, 1697208.4885223904], [1029193.9171123739, 1697213.4858747916], [1029193.9171123739, 1697193.4964651866], [1029163.9329979663, 1697183.501760384], [1029138.94623596, 1697163.512350779], [1029143.9435883613, 1697188.4991127853]]], [[[1028739.1580438591, 1697183.501760384], [1028769.1421582666, 1697198.4938175878], [1028764.1448058654, 1697183.501760384], [1028739.1580438591, 1697183.501760384]]], [[[1028789.1315678717, 1697203.491169989], [1028789.1315678717, 1697218.483227193], [1028809.1209774767, 1697218.483227193], [1028804.1236250754, 1697203.491169989], [1028829.1103870817, 1697213.4858747916], [1028824.1130346805, 1697178.5044079828], [1028809.1209774767, 1697178.5044079828], [1028789.1315678717, 1697203.491169989]]], [[[1028659.2004054389, 1697288.4461608105], [1028659.2004054389, 1697278.451456008], [1028649.2057006364, 1697273.4541036068], [1028669.1951102414, 1697268.4567512055], [1028634.2136434326, 1697263.4593988042], [1028639.2109958339, 1697283.4488084093], [1028659.2004054389, 1697288.4461608105]]], [[[1028629.2162910313, 1697313.4329228168], [1028624.2189386301, 1697333.4223324219], [1028634.2136434326, 1697338.4196848231], [1028644.2083482351, 1697323.4276276194], [1028634.2136434326, 1697323.4276276194], [1028629.2162910313, 1697313.4329228168]]], [[[1028559.2533574137, 1697323.4276276194], [1028549.2586526112, 1697323.4276276194], [1028544.2613002099, 1697338.4196848231], [1028554.2560050124, 1697338.4196848231], [1028559.2533574137, 1697323.4276276194]]], [[[1028514.2771858023, 1697353.411742027], [1028514.2771858023, 1697363.4064468294], [1028544.2613002099, 1697348.4143896257], [1028544.2613002099, 1697338.4196848231], [1028514.2771858023, 1697353.411742027]]], [[[1028594.2348242225, 1697363.4064468294], [1028599.2321766238, 1697388.3932088357], [1028614.2242338276, 1697403.3852660395], [1028629.2162910313, 1697403.3852660395], [1028609.2268814263, 1697388.3932088357], [1028609.2268814263, 1697368.4037992307], [1028594.2348242225, 1697363.4064468294]]], [[[1028584.24011942, 1697423.3746756446], [1028584.24011942, 1697383.3958564345], [1028574.2454146175, 1697378.3985040332], [1028564.250709815, 1697398.3879136383], [1028564.250709815, 1697413.379970842], [1028584.24011942, 1697423.3746756446]]], [[[1028704.1765770502, 1697398.3879136383], [1028699.179224649, 1697418.3773232433], [1028684.1871674452, 1697418.3773232433], [1028679.1898150439, 1697428.3720280458], [1028734.1606914578, 1697433.369380447], [1028719.168634254, 1697408.3826184408], [1028734.1606914578, 1697408.3826184408], [1028744.1553962603, 1697418.3773232433], [1028774.1395106679, 1697418.3773232433], [1028779.1368630691, 1697388.3932088357], [1028769.1421582666, 1697383.3958564345], [1028749.1527486616, 1697398.3879136383], [1028704.1765770502, 1697398.3879136383]]], [[[1028894.0759682982, 1697403.3852660395], [1028864.0918538907, 1697413.379970842], [1028859.0945014894, 1697423.3746756446], [1028899.0733206995, 1697423.3746756446], [1028894.0759682982, 1697403.3852660395]]], [[[1028899.0733206995, 1697443.3640852496], [1028914.0653779033, 1697448.3614376509], [1028914.0653779033, 1697433.369380447], [1028899.0733206995, 1697433.369380447], [1028899.0733206995, 1697443.3640852496]]], [[[1028849.0997966869, 1697438.3667328483], [1028824.1130346805, 1697443.3640852496], [1028824.1130346805, 1697458.3561424534], [1028854.0971490882, 1697453.3587900521], [1028849.0997966869, 1697438.3667328483]]], [[[1028794.1289202729, 1724384.090880447], [1028799.1262726742, 1724364.101470842], [1028794.1289202729, 1724354.1067660395], [1028784.1342154704, 1724354.1067660395], [1028794.1289202729, 1724384.090880447]]], [[[1028994.0230163235, 1726767.8279758485], [1028994.0230163235, 1726787.8173854535], [1029004.017721126, 1726782.8200330522], [1029014.0124259285, 1726742.8412138422], [1028994.0230163235, 1726767.8279758485]]], [[[1029593.7053044747, 1727207.5949871596], [1029603.7000092772, 1727207.5949871596], [1029588.7079520734, 1727187.6055775546], [1029568.7185424684, 1727192.6029299558], [1029593.7053044747, 1727207.5949871596]]], [[[1029653.6735332898, 1727207.5949871596], [1029663.6682380923, 1727217.589691962], [1029678.6602952961, 1727217.589691962], [1029683.6576476974, 1727197.600282357], [1029668.6655904936, 1727177.610872752], [1029653.6735332898, 1727177.610872752], [1029653.6735332898, 1727207.5949871596]]], [[[1028584.24011942, 1727322.5340923886], [1028614.2242338276, 1727272.560568376], [1028604.229529025, 1727272.560568376], [1028584.24011942, 1727297.5473303823], [1028584.24011942, 1727322.5340923886]]], [[[1029318.8509224054, 1727977.1872569537], [1029318.8509224054, 1727967.1925521512], [1029303.8588652016, 1727967.1925521512], [1029303.8588652016, 1727977.1872569537], [1029318.8509224054, 1727977.1872569537]]], [[[1029038.9991879348, 1728017.1660761638], [1029063.9859499411, 1728022.163428565], [1029058.9885975398, 1728002.17401896], [1029038.9991879348, 1727997.1766665587], [1029038.9991879348, 1728017.1660761638]]], [[[1029398.8085608255, 1728047.1501905713], [1029398.8085608255, 1728037.1554857688], [1029383.8165036218, 1728022.163428565], [1029373.8217988192, 1728022.163428565], [1029373.8217988192, 1728032.1581333675], [1029388.813856023, 1728047.1501905713], [1029398.8085608255, 1728047.1501905713]]], [[[1029068.9833023424, 1728032.1581333675], [1029078.9780071449, 1728062.142247775], [1029093.9700643487, 1728072.1369525776], [1029078.9780071449, 1728027.1607809663], [1029068.9833023424, 1728032.1581333675]]], [[[1029908.5385057542, 1729016.636556416], [1029903.5411533529, 1729001.6444992123], [1029923.530562958, 1728976.657737206], [1029913.5358581555, 1728976.657737206], [1029853.5676293403, 1729041.6233184224], [1029873.5570389454, 1729046.6206708236], [1029883.5517437479, 1729031.6286136198], [1029908.5385057542, 1729016.636556416]]], [[[1030013.4829061807, 1695019.6481706381], [1030018.4802585819, 1695004.6561134344], [1030008.4855537794, 1694999.658761033], [1029978.5014393718, 1695009.6534658356], [1030008.4855537794, 1695009.6534658356], [1030003.4882013781, 1695019.6481706381], [1030013.4829061807, 1695019.6481706381]]], [[[1030348.3055170651, 1695034.640227842], [1030353.3028694664, 1695019.6481706381], [1030338.3108122626, 1695024.6455230394], [1030333.3134598613, 1695034.640227842], [1030348.3055170651, 1695034.640227842]]], [[[1029953.5146773655, 1695024.6455230394], [1029963.5093821681, 1695034.640227842], [1029963.5093821681, 1695049.6322850457], [1029978.5014393718, 1695054.629637447], [1029983.4987917731, 1695024.6455230394], [1029953.5146773655, 1695024.6455230394]]], [[[1030278.3425834475, 1695084.6137518545], [1030278.3425834475, 1695069.6216946507], [1030268.3478786449, 1695064.6243422495], [1030268.3478786449, 1695074.619047052], [1030278.3425834475, 1695084.6137518545]]], [[[1029918.5332105567, 1695074.619047052], [1029913.5358581555, 1695094.608456657], [1029928.5279153592, 1695094.608456657], [1029928.5279153592, 1695079.6163994533], [1029918.5332105567, 1695074.619047052]]], [[[1029948.5173249643, 1695134.5872758671], [1029938.5226201618, 1695114.597866262], [1029928.5279153592, 1695114.597866262], [1029918.5332105567, 1695124.5925710646], [1029923.530562958, 1695144.5819806696], [1029923.530562958, 1695129.5899234659], [1029938.5226201618, 1695129.5899234659], [1029943.519972563, 1695144.5819806696], [1029948.5173249643, 1695134.5872758671]]], [[[1030273.3452310462, 1695209.547561886], [1030308.326697855, 1695184.5607998797], [1030303.3293454538, 1695174.5660950772], [1030273.3452310462, 1695194.5555046822], [1030273.3452310462, 1695209.547561886]], [[1030288.33728825, 1695194.5555046822], [1030288.33728825, 1695189.558152281], [1030293.3346406512, 1695194.5555046822], [1030288.33728825, 1695194.5555046822]]], [[[1030273.3452310462, 1695214.5449142873], [1030253.3558214412, 1695219.5422666885], [1030253.3558214412, 1695229.536971491], [1030238.3637642374, 1695239.5316762936], [1030238.3637642374, 1695254.5237334974], [1030258.3531738424, 1695229.536971491], [1030268.3478786449, 1695229.536971491], [1030273.3452310462, 1695214.5449142873]]], [[[1029923.530562958, 1695254.5237334974], [1029938.5226201618, 1695259.5210858986], [1029938.5226201618, 1695244.5290286948], [1029923.530562958, 1695244.5290286948], [1029923.530562958, 1695254.5237334974]]], [[[1030718.1095947584, 1695729.272211617], [1030703.1175375546, 1695734.2695640184], [1030703.1175375546, 1695754.2589736234], [1030708.1148899558, 1695754.2589736234], [1030718.1095947584, 1695744.2642688209], [1030718.1095947584, 1695729.272211617]]], [[[1030893.0169288026, 1695759.2563260247], [1030903.0116336051, 1695769.2510308272], [1030918.0036908089, 1695764.253678426], [1030913.0063384076, 1695754.2589736234], [1030903.0116336051, 1695754.2589736234], [1030908.0089860064, 1695739.2669164196], [1030893.0169288026, 1695744.2642688209], [1030893.0169288026, 1695759.2563260247]]], [[[1030598.1731371281, 1696189.0286325333], [1030608.1678419306, 1696194.0259849345], [1030613.1651943319, 1696179.0339277308], [1030598.1731371281, 1696179.0339277308], [1030588.1784323256, 1696199.0233373358], [1030598.1731371281, 1696189.0286325333]]], [[[1031572.656855374, 1697308.4355704156], [1031587.6489125778, 1697318.430275218], [1031597.6436173803, 1697308.4355704156], [1031572.656855374, 1697308.4355704156]]], [[[1030723.1069471596, 1723284.6733521698], [1030738.0990043634, 1723269.681294966], [1030703.1175375546, 1723274.6786473673], [1030698.1201851533, 1723284.6733521698], [1030723.1069471596, 1723284.6733521698]]], [[[1030883.0222240001, 1724414.0749948546], [1030893.0169288026, 1724404.080290052], [1030893.0169288026, 1724374.0961756445], [1030883.0222240001, 1724359.1041184408], [1030883.0222240001, 1724414.0749948546]]], [[[1033146.8228617712, 1727587.3937696554], [1033156.8175665737, 1727577.3990648529], [1033151.8202141725, 1727567.4043600503], [1033106.8440425611, 1727572.4017124516], [1033136.8281569687, 1727572.4017124516], [1033131.8308045674, 1727587.3937696554], [1033146.8228617712, 1727587.3937696554]]], [[[1031842.5138850422, 1727632.3699412667], [1031847.5112374434, 1727652.3593508718], [1031867.5006470485, 1727677.346112878], [1031852.5085898447, 1727632.3699412667], [1031842.5138850422, 1727632.3699412667]]], [[[1031607.6383221828, 1727767.2984561007], [1031622.6303793866, 1727782.2905133045], [1031642.6197889916, 1727777.2931609033], [1031617.6330269853, 1727762.3011036995], [1031607.6383221828, 1727767.2984561007]]], [[[1031617.6330269853, 1727782.2905133045], [1031602.6409697816, 1727782.2905133045], [1031602.6409697816, 1727792.285218107], [1031627.6277317879, 1727792.285218107], [1031617.6330269853, 1727782.2905133045]]], [[[1031912.4768186598, 1727812.274627712], [1031917.4741710611, 1727812.274627712], [1031917.4741710611, 1727797.2825705083], [1031907.4794662585, 1727797.2825705083], [1031912.4768186598, 1727812.274627712]]], [[[1033136.8281569687, 1727812.274627712], [1033161.814918975, 1727857.2507993234], [1033161.814918975, 1727842.2587421197], [1033141.82550937, 1727807.2772753108], [1033106.8440425611, 1727772.295808502], [1033111.8413949624, 1727792.285218107], [1033136.8281569687, 1727812.274627712]]], [[[1031827.5218278384, 1727932.2110853423], [1031822.5244754371, 1727922.2163805398], [1031782.545656227, 1727912.2216757373], [1031792.5403610296, 1727927.213732941], [1031832.5191802396, 1727942.2057901449], [1031847.5112374434, 1727957.1978473486], [1031877.495351851, 1727957.1978473486], [1031827.5218278384, 1727932.2110853423]]], [[[1030288.33728825, 1727962.19519975], [1030303.3293454538, 1727962.19519975], [1030308.326697855, 1727947.2031425461], [1030283.3399358487, 1727952.2004949474], [1030288.33728825, 1727962.19519975]]], [[[1029983.4987917731, 1728072.1369525776], [1029968.5067345693, 1728092.1263621827], [1029953.5146773655, 1728097.123714584], [1029953.5146773655, 1728107.1184193864], [1029968.5067345693, 1728102.1210669852], [1030003.4882013781, 1728067.1396001764], [1029983.4987917731, 1728072.1369525776]]], [[[1032127.362971914, 1728097.123714584], [1032127.362971914, 1728127.1078289915], [1032137.3576767165, 1728102.1210669852], [1032127.362971914, 1728097.123714584]]], [[[1030203.3822974286, 1728267.0336962268], [1030213.3770022311, 1728267.0336962268], [1030203.3822974286, 1728242.0469342205], [1030203.3822974286, 1728267.0336962268]]], [[[1031922.4715234623, 1728312.0098678381], [1031912.4768186598, 1728351.9886870482], [1031927.4688758636, 1728351.9886870482], [1031937.4635806661, 1728361.9833918507], [1031922.4715234623, 1728312.0098678381]]], [[[1031622.6303793866, 1728506.9066114873], [1031607.6383221828, 1728531.8933734936], [1031632.6250841891, 1728541.888078296], [1031642.6197889916, 1728506.9066114873], [1031622.6303793866, 1728506.9066114873]]], [[[1031087.9136724517, 1728726.7901171427], [1031087.9136724517, 1728701.8033551364], [1031067.9242628467, 1728706.8007075377], [1031077.9189676492, 1728726.7901171427], [1031087.9136724517, 1728726.7901171427]]], [[[1030962.9798624202, 1728756.7742315505], [1030982.9692720253, 1728756.7742315505], [1030982.9692720253, 1728746.779526748], [1030962.9798624202, 1728746.779526748], [1030942.9904528152, 1728766.768936353], [1030957.982510019, 1728766.768936353], [1030962.9798624202, 1728756.7742315505]]], [[[1029908.5385057542, 1729006.6418516135], [1029918.5332105567, 1729006.6418516135], [1029968.5067345693, 1728956.668327601], [1029948.5173249643, 1728966.6630324034], [1029933.5252677605, 1728961.6656800022], [1029923.530562958, 1728971.6603848047], [1029928.5279153592, 1728976.657737206], [1029908.5385057542, 1729006.6418516135]]], [[[1031452.7203977437, 1728981.6550896072], [1031457.717750145, 1729026.6312612186], [1031477.70715975, 1729036.625966021], [1031467.7124549475, 1728981.6550896072], [1031452.7203977437, 1728981.6550896072]]], [[[1031317.7918829097, 1729056.6153756261], [1031317.7918829097, 1729036.625966021], [1031302.7998257059, 1729036.625966021], [1031292.8051209034, 1729061.6127280274], [1031307.7971781072, 1729071.60743283], [1031317.7918829097, 1729056.6153756261]]], [[[1031542.6727409664, 1729076.6047852312], [1031517.6859789601, 1729081.6021376324], [1031537.6753885652, 1729086.5994900337], [1031567.6595029727, 1729076.6047852312], [1031567.6595029727, 1729061.6127280274], [1031542.6727409664, 1729066.6100804287], [1031542.6727409664, 1729076.6047852312]]], [[[1031672.6039033992, 1729111.58625204], [1031667.6065509979, 1729126.5783092438], [1031677.6012558005, 1729146.5677188488], [1031687.595960603, 1729146.5677188488], [1031687.595960603, 1729126.5783092438], [1031702.5880178068, 1729111.58625204], [1031702.5880178068, 1729096.5941948362], [1031672.6039033992, 1729111.58625204]]], [[[1031792.5403610296, 1729146.5677188488], [1031792.5403610296, 1729131.575661645], [1031782.545656227, 1729121.5809568425], [1031757.5588942207, 1729126.5783092438], [1031757.5588942207, 1729136.5730140463], [1031777.5483038258, 1729146.5677188488], [1031792.5403610296, 1729146.5677188488]]], [[[1030463.2446222941, 1729181.5491856576], [1030483.2340318991, 1729181.5491856576], [1030473.2393270966, 1729166.5571284539], [1030463.2446222941, 1729166.5571284539], [1030463.2446222941, 1729181.5491856576]]], [[[1031707.5853702081, 1729181.5491856576], [1031707.5853702081, 1729201.5385952627], [1031727.5747798132, 1729206.535947664], [1031727.5747798132, 1729166.5571284539], [1031687.595960603, 1729146.5677188488], [1031687.595960603, 1729161.5597760526], [1031707.5853702081, 1729181.5491856576]]], [[[1031782.545656227, 1729216.5306524665], [1031802.5350658321, 1729211.5333000652], [1031802.5350658321, 1729201.5385952627], [1031787.5430086283, 1729196.5412428614], [1031787.5430086283, 1729176.5518332564], [1031777.5483038258, 1729191.5438904602], [1031782.545656227, 1729216.5306524665]]], [[[1031727.5747798132, 1729241.5174144728], [1031737.5694846157, 1729241.5174144728], [1031732.5721322144, 1729221.5280048677], [1031722.5774274119, 1729226.525357269], [1031727.5747798132, 1729241.5174144728]]], [[[1030223.3717070336, 1729216.5306524665], [1030218.3743546323, 1729241.5174144728], [1030233.3664118361, 1729251.5121192753], [1030238.3637642374, 1729231.5227096702], [1030233.3664118361, 1729231.5227096702], [1030233.3664118361, 1729221.5280048677], [1030228.3690594349, 1729221.5280048677], [1030228.3690594349, 1729216.5306524665], [1030223.3717070336, 1729216.5306524665]]], [[[1030553.1969655168, 1729316.4777004917], [1030558.194317918, 1729301.485643288], [1030543.2022607143, 1729286.493586084], [1030543.2022607143, 1729301.485643288], [1030553.1969655168, 1729316.4777004917]]], [[[1030283.3399358487, 1729361.453872103], [1030273.3452310462, 1729376.4459293068], [1030283.3399358487, 1729376.4459293068], [1030293.3346406512, 1729361.453872103], [1030283.3399358487, 1729361.453872103]]], [[[1030593.1757847269, 1729411.4273961156], [1030593.1757847269, 1729421.4221009181], [1030603.1704895294, 1729426.4194533194], [1030603.1704895294, 1729411.4273961156], [1030588.1784323256, 1729396.4353389118], [1030583.1810799243, 1729396.4353389118], [1030583.1810799243, 1729406.4300437144], [1030593.1757847269, 1729411.4273961156]]], [[[1030093.4405446008, 1729426.4194533194], [1030093.4405446008, 1729436.414158122], [1030103.4352494034, 1729441.4115105232], [1030113.4299542059, 1729441.4115105232], [1030108.4326018046, 1729436.414158122], [1030113.4299542059, 1729426.4194533194], [1030093.4405446008, 1729426.4194533194]]], [[[1030133.4193638109, 1729456.403567727], [1030143.4140686134, 1729451.4062153257], [1030133.4193638109, 1729441.4115105232], [1030128.4220114097, 1729441.4115105232], [1030133.4193638109, 1729456.403567727]]], [[[1030648.1466611407, 1729471.3956249307], [1030633.154603937, 1729436.414158122], [1030613.1651943319, 1729431.4168057207], [1030653.144013542, 1729486.3876821345], [1030653.144013542, 1729526.3665013446], [1030658.1413659432, 1729516.371796542], [1030668.1360707458, 1729521.3691489433], [1030658.1413659432, 1729476.392977332], [1030648.1466611407, 1729471.3956249307]]], [[[1030143.4140686134, 1729521.3691489433], [1030143.4140686134, 1729501.3797393383], [1030118.4273066071, 1729521.3691489433], [1030118.4273066071, 1729531.3638537459], [1030143.4140686134, 1729521.3691489433]]], [[[1030698.1201851533, 1729566.3453205547], [1030688.1254803508, 1729571.342672956], [1030703.1175375546, 1729591.332082561], [1030698.1201851533, 1729566.3453205547]]], [[[1030718.1095947584, 1729606.3241397648], [1030713.1122423571, 1729606.3241397648], [1030713.1122423571, 1729601.3267873635], [1030708.1148899558, 1729601.3267873635], [1030713.1122423571, 1729621.3161969685], [1030723.1069471596, 1729626.3135493698], [1030718.1095947584, 1729606.3241397648]]], [[[1044795.6513091103, 1700286.8576015672], [1044785.6566043078, 1700281.860249166], [1044785.6566043078, 1700296.8523063697], [1044795.6513091103, 1700296.8523063697], [1044795.6513091103, 1700286.8576015672]]], [[[1043036.5832638665, 1700576.7040408403], [1043046.577968669, 1700566.7093360377], [1043011.5965018602, 1700566.7093360377], [1043036.5832638665, 1700576.7040408403]]], [[[1047998.9541983185, 1705459.117336872], [1047998.9541983185, 1705474.1093940758], [1048013.9462555224, 1705479.106746477], [1048003.9515507198, 1705464.1146892733], [1048023.940960325, 1705459.117336872], [1047998.9541983185, 1705459.117336872]]], [[[1048058.9224271338, 1705484.1040988783], [1048058.9224271338, 1705479.106746477], [1048048.9277223313, 1705479.106746477], [1048048.9277223313, 1705494.0988036809], [1048063.919779535, 1705494.0988036809], [1048073.9144843376, 1705484.1040988783], [1048058.9224271338, 1705484.1040988783]]], [[[1048088.9065415413, 1705529.0802704897], [1048088.9065415413, 1705509.0908608846], [1048058.9224271338, 1705514.088213286], [1048088.9065415413, 1705529.0802704897]]], [[[1046459.7696587302, 1709047.2163609774], [1046474.761715934, 1709052.2137133786], [1046489.7537731378, 1709042.2190085761], [1046479.7590683353, 1709037.2216561749], [1046459.7696587302, 1709047.2163609774]]], [[[1046444.7776015265, 1709052.2137133786], [1046419.7908395202, 1709057.21106578], [1046419.7908395202, 1709062.2084181812], [1046434.782896724, 1709062.2084181812], [1046444.7776015265, 1709052.2137133786]]], [[[1039128.6536860805, 1719901.4657765161], [1039128.6536860805, 1719916.45783372], [1039138.648390883, 1719921.4551861212], [1039138.648390883, 1719901.4657765161], [1039103.6669240742, 1719871.4816621086], [1039103.6669240742, 1719886.4737193123], [1039128.6536860805, 1719901.4657765161]]], [[[1037999.2520433955, 1720401.2010166422], [1037979.2626337905, 1720401.2010166422], [1037964.2705765867, 1720416.193073846], [1037964.2705765867, 1720426.1877786485], [1038024.2388054018, 1720406.1983690434], [1037989.257338593, 1720411.1957214447], [1037999.2520433955, 1720401.2010166422]]], [[[1038548.9608075343, 1720661.0633415077], [1038588.9396267444, 1720621.0845222976], [1038583.9422743431, 1720611.089817495], [1038548.9608075343, 1720651.0686367052], [1038548.9608075343, 1720661.0633415077]]], [[[1038823.8151896036, 1720805.9865611442], [1038838.8072468074, 1720820.978618348], [1038853.7993040112, 1720835.9706755518], [1038853.7993040112, 1720810.9839135455], [1038823.8151896036, 1720805.9865611442]]], [[[1038938.7542948326, 1720900.9362567682], [1038928.7595900301, 1720890.9415519657], [1038918.7648852275, 1720890.9415519657], [1038918.7648852275, 1720915.928313972], [1038938.7542948326, 1720915.928313972], [1038938.7542948326, 1720900.9362567682]]], [[[1038828.8125420049, 1720985.8912475896], [1038813.8204848011, 1720995.8859523921], [1038813.8204848011, 1721010.878009596], [1038823.8151896036, 1721005.8806571946], [1038828.8125420049, 1720985.8912475896]]], [[[1038818.8178372023, 1721030.867419201], [1038838.8072468074, 1721030.867419201], [1038838.8072468074, 1721025.8700667997], [1038818.8178372023, 1721010.878009596], [1038818.8178372023, 1721030.867419201]]], [[[1038548.9608075343, 1721555.5894213335], [1038543.963455133, 1721540.5973641297], [1038528.9713979292, 1721540.5973641297], [1038528.9713979292, 1721555.5894213335], [1038548.9608075343, 1721555.5894213335]]], [[[1043106.5461974841, 1722025.340547052], [1043111.5435498854, 1722060.3220138608], [1043131.5329594904, 1722050.3273090583], [1043126.5356070892, 1722020.3431946507], [1043106.5461974841, 1722025.340547052]], [[1043116.5409022867, 1722040.3326042558], [1043121.5382546879, 1722045.329956657], [1043116.5409022867, 1722045.329956657], [1043116.5409022867, 1722040.3326042558]]], [[[1038733.8628463809, 1722155.2717094847], [1038748.8549035847, 1722155.2717094847], [1038758.8496083872, 1722130.2849474784], [1038738.8601987822, 1722135.2822998797], [1038733.8628463809, 1722155.2717094847]]], [[[1038673.8946175658, 1722160.269061886], [1038703.8787319734, 1722155.2717094847], [1038703.8787319734, 1722150.2743570835], [1038678.891969967, 1722150.2743570835], [1038673.8946175658, 1722160.269061886]]], [[[1038648.9078555595, 1722205.2452334973], [1038643.9105031582, 1722200.247881096], [1038613.9263887507, 1722200.247881096], [1038618.9237411519, 1722210.2425858986], [1038648.9078555595, 1722205.2452334973]]], [[[1036480.0569134122, 1722325.1816911276], [1036495.048970616, 1722325.1816911276], [1036500.0463230172, 1722310.1896339238], [1036490.0516182147, 1722310.1896339238], [1036480.0569134122, 1722325.1816911276]]], [[[1043051.5753210703, 1722380.1525675415], [1043041.5806162677, 1722380.1525675415], [1043041.5806162677, 1722395.1446247452], [1043046.577968669, 1722395.1446247452], [1043051.5753210703, 1722380.1525675415]]], [[[1042127.065126837, 1723079.7819037181], [1042127.065126837, 1723104.7686657244], [1042137.0598316395, 1723084.7792561194], [1042127.065126837, 1723079.7819037181]]], [[[1050352.7071793124, 1723809.3953543021], [1050367.6992365161, 1723809.3953543021], [1050362.7018841149, 1723789.405944697], [1050347.709826911, 1723794.4032970984], [1050352.7071793124, 1723809.3953543021]]], [[[1050352.7071793124, 1723834.3821163084], [1050352.7071793124, 1723844.376821111], [1050367.6992365161, 1723849.3741735122], [1050367.6992365161, 1723834.3821163084], [1050352.7071793124, 1723834.3821163084]]], [[[1050462.6489321403, 1724319.1252992307], [1050482.6383417454, 1724319.1252992307], [1050482.6383417454, 1724314.1279468294], [1050467.6462845416, 1724309.1305944282], [1050462.6489321403, 1724319.1252992307]]], [[[1050732.5059618084, 1724499.029985676], [1050747.4980190122, 1724484.0379284723], [1050727.508609407, 1724484.0379284723], [1050717.5139046046, 1724494.0326332748], [1050732.5059618084, 1724499.029985676]]], [[[1050867.4344766424, 1725378.564008298], [1050867.4344766424, 1725393.5560655019], [1050882.4265338462, 1725383.5613606994], [1050867.4344766424, 1725378.564008298]]], [[[1050867.4344766424, 1725408.5481227057], [1050862.4371242411, 1725393.5560655019], [1050837.4503622348, 1725408.5481227057], [1050837.4503622348, 1725418.5428275082], [1050867.4344766424, 1725408.5481227057]], [[1050852.4424194386, 1725408.5481227057], [1050852.4424194386, 1725403.5507703044], [1050857.4397718399, 1725408.5481227057], [1050852.4424194386, 1725408.5481227057]]], [[[1050832.4530098336, 1725478.5110563233], [1050817.4609526298, 1725478.5110563233], [1050817.4609526298, 1725488.5057611258], [1050827.4556574323, 1725488.5057611258], [1050832.4530098336, 1725478.5110563233]]], [[[1033491.6401774582, 1725758.3627907939], [1033466.6534154519, 1725758.3627907939], [1033461.6560630506, 1725773.3548479977], [1033486.6428250569, 1725773.3548479977], [1033491.6401774582, 1725758.3627907939]]], [[[1050522.6171609554, 1725888.2939532266], [1050532.611865758, 1725868.3045436216], [1050517.6198085542, 1725868.3045436216], [1050512.622456153, 1725878.2992484241], [1050512.622456153, 1725918.2780676342], [1050522.6171609554, 1725918.2780676342], [1050522.6171609554, 1725888.2939532266]]], [[[1039358.5318965386, 1725963.2542392456], [1039368.5266013411, 1725968.2515916468], [1039368.5266013411, 1725953.259534443], [1039353.5345441372, 1725938.2674772392], [1039358.5318965386, 1725963.2542392456]]], [[[1050492.6330465479, 1726018.2251156594], [1050512.622456153, 1725963.2542392456], [1050502.6277513504, 1725968.2515916468], [1050497.6303989491, 1726003.2330584556], [1050472.6436369428, 1726008.230410857], [1050467.6462845416, 1726033.2171728632], [1050477.640989344, 1726033.2171728632], [1050477.640989344, 1726023.2224680607], [1050492.6330465479, 1726018.2251156594]]], [[[1038563.9528647381, 1726173.1430400985], [1038563.9528647381, 1726163.148335296], [1038533.9687503305, 1726173.1430400985], [1038528.9713979292, 1726193.1324497035], [1038543.963455133, 1726193.1324497035], [1038563.9528647381, 1726173.1430400985]]], [[[1046079.9708762344, 1727327.5314447898], [1046099.9602858395, 1727312.539387586], [1046084.9682286356, 1727282.5552731785], [1046084.9682286356, 1727297.5473303823], [1046074.9735238331, 1727302.5446827835], [1046079.9708762344, 1727327.5314447898]]], [[[1033191.7990333826, 1727592.3911220566], [1033206.7910905863, 1727592.3911220566], [1033216.7857953889, 1727582.396417254], [1033201.7937381851, 1727572.4017124516], [1033161.814918975, 1727572.4017124516], [1033166.8122713763, 1727582.396417254], [1033191.7990333826, 1727592.3911220566]], [[1033196.7963857838, 1727587.3937696554], [1033186.8016809813, 1727582.396417254], [1033186.8016809813, 1727577.3990648529], [1033196.7963857838, 1727577.3990648529], [1033196.7963857838, 1727587.3937696554]]], [[[1033371.7037198279, 1727852.2534469222], [1033351.7143102229, 1727827.2666849159], [1033331.7249006178, 1727817.2719801133], [1033311.7354910128, 1727817.2719801133], [1033316.7328434141, 1727832.2640373171], [1033326.7275482166, 1727832.2640373171], [1033331.7249006178, 1727842.2587421197], [1033356.7116626241, 1727842.2587421197], [1033361.7090150254, 1727852.2534469222], [1033371.7037198279, 1727852.2534469222]]], [[[1051087.3179822979, 1728242.0469342205], [1051102.3100395016, 1728252.041639023], [1051102.3100395016, 1728242.0469342205], [1051087.3179822979, 1728232.052229418], [1051087.3179822979, 1728242.0469342205]]], [[[1045485.2859404844, 1728951.6709751997], [1045500.2779976882, 1728946.6736227984], [1045505.2753500894, 1728931.6815655946], [1045495.2806452869, 1728931.6815655946], [1045485.2859404844, 1728951.6709751997]]], [[[1045655.1959221272, 1729341.464462498], [1045660.1932745285, 1729341.464462498], [1045670.187979331, 1729316.4777004917], [1045655.1959221272, 1729321.475052893], [1045655.1959221272, 1729341.464462498]]], [[[1045635.2065125222, 1729351.4591673005], [1045640.2038649234, 1729361.453872103], [1045650.198569726, 1729346.4618148992], [1045625.2118077197, 1729346.4618148992], [1045635.2065125222, 1729351.4591673005]]], [[[1045570.2409313058, 1729376.4459293068], [1045580.2356361083, 1729386.4406341093], [1045595.2276933121, 1729386.4406341093], [1045595.2276933121, 1729376.4459293068], [1045610.2197505159, 1729381.443281708], [1045600.2250457134, 1729366.4512245043], [1045570.2409313058, 1729376.4459293068]]], [[[1045815.1111989676, 1729371.4485769055], [1045805.116494165, 1729386.4406341093], [1045825.1059037701, 1729381.443281708], [1045835.1006085726, 1729366.4512245043], [1045815.1111989676, 1729371.4485769055]]], [[[1045850.0926657764, 1729391.4379865106], [1045860.0873705789, 1729391.4379865106], [1045850.0926657764, 1729376.4459293068], [1045840.0979609739, 1729376.4459293068], [1045850.0926657764, 1729391.4379865106]]], [[[1045800.1191417638, 1729396.4353389118], [1045780.1297321587, 1729401.432691313], [1045775.1323797575, 1729416.4247485169], [1045790.1244369613, 1729421.4221009181], [1045800.1191417638, 1729411.4273961156], [1045800.1191417638, 1729396.4353389118]]]]}}]}