{"type": "FeatureCollection", "features": [{"type": "Feature", "geometry": {"type": "Polygon", "coordinates": [[[1030700.0, 1722300.0], [1030700.0, 1722250.0], [1030650.0, 1722250.0], [1030650.0, 1722150.0], [1030600.0, 1722150.0], [1030600.0, 1722100.0], [1030550.0, 1722100.0], [1030550.0, 1722000.0], [1030500.0, 1722000.0], [1030500.0, 1721900.0], [1030400.0, 1721900.0], [1030400.0, 1721950.0], [1030350.0, 1721950.0], [1030350.0, 1722000.0], [1030300.0, 1722000.0], [1030300.0, 1722050.0], [1030250.0, 1722050.0], [1030250.0, 1722100.0], [1030200.0, 1722100.0], [1030200.0, 1722150.0], [1030150.0, 1722150.0], [1030150.0, 1722050.0], [1030200.0, 1722050.0], [1030200.0, 1722000.0], [1030250.0, 1722000.0], [1030250.0, 1721950.0], [1030300.0, 1721950.0], [1030300.0, 1721900.0], [1030150.0, 1721900.0], [1030150.0, 1721850.0], [1030100.0, 1721850.0], [1030100.0, 1721750.0], [1029800.0, 1721750.0], [1029800.0, 1721700.0], [1029500.0, 1721700.0], [1029500.0, 1721650.0], [1029350.0, 1721650.0], [1029350.0, 1721700.0], [1029150.0, 1721700.0], [1029150.0, 1721650.0], [1029100.0, 1721650.0], [1029100.0, 1721600.0], [1029050.0, 1721600.0], [1029050.0, 1721550.0], [1028950.0, 1721550.0], [1028950.0, 1721500.0], [1028850.0, 1721500.0], [1028850.0, 1721450.0], [1028750.0, 1721450.0], [1028750.0, 1721400.0], [1028700.0, 1721400.0], [1028700.0, 1721350.0], [1028600.0, 1721350.0], [1028600.0, 1721300.0], [1028550.0, 1721300.0], [1028550.0, 1721250.0], [1028450.0, 1721250.0], [1028450.0, 1721200.0], [1028400.0, 1721200.0], [1028400.0, 1721150.0], [1028300.0, 1721150.0], [1028300.0, 1721100.0], [1028250.0, 1721100.0], [1028250.0, 1721050.0], [1028150.0, 1721050.0], [1028150.0, 1721000.0], [1028100.0, 1721000.0], [1028100.0, 1720950.0], [1028000.0, 1720950.0], [1028000.0, 1720500.0], [1028050.0, 1720500.0], [1028050.0, 1720600.0], [1028100.0, 1720600.0], [1028100.0, 1720700.0], [1028150.0, 1720700.0], [1028150.0, 1720750.0], [1028250.0, 1720750.0], [1028250.0, 1720800.0], [1028350.0, 1720800.0], [1028350.0, 1720850.0], [1028400.0, 1720850.0], [1028400.0, 1720900.0], [1028450.0, 1720900.0], [1028450.0, 1720950.0], [1028550.0, 1720950.0], [1028550.0, 1721000.0], [1028600.0, 1721000.0], [1028600.0, 1721050.0], [1028700.0, 1721050.0], [1028700.0, 1721100.0], [1028800.0, 1721100.0], [1028800.0, 1721150.0], [1028850.0, 1721150.0], [1028850.0, 1721200.0], [1028950.0, 1721200.0], [1028950.0, 1721250.0], [1029050.0, 1721250.0], [1029050.0, 1721300.0], [1029150.0, 1721300.0], [1029150.0, 1721350.0], [1029250.0, 1721350.0], [1029250.0, 1721400.0], [1029350.0, 1721400.0], [1029350.0, 1721350.0], [1029300.0, 1721350.0], [1029300.0, 1721300.0], [1029400.0, 1721300.0], [1029400.0, 1721350.0], [1029450.0, 1721350.0], [1029450.0, 1721450.0], [1029700.0, 1721450.0], [1029700.0, 1721400.0], [1029800.0, 1721400.0], [1029800.0, 1721450.0], [1029900.0, 1721450.0], [1029900.0, 1721500.0], [1029950.0, 1721500.0], [1029950.0, 1721450.0], [1030050.0, 1721450.0], [1030050.0, 1721400.0], [1030100.0, 1721400.0], [1030100.0, 1721500.0], [1030150.0, 1721500.0], [1030150.0, 1721400.0], [1030200.0, 1721400.0], [1030200.0, 1721350.0], [1030250.0, 1721350.0], [1030250.0, 1721300.0], [1030350.0, 1721300.0], [1030350.0, 1721250.0], [1030400.0, 1721250.0], [1030400.0, 1721200.0], [1030500.0, 1721200.0], [1030500.0, 1721150.0], [1030550.0, 1721150.0], [1030550.0, 1721100.0], [1030800.0, 1721100.0], [1030800.0, 1721050.0], [1030900.0, 1721050.0], [1030900.0, 1721000.0], [1030950.0, 1721000.0], [1030950.0, 1720900.0], [1030850.0, 1720900.0], [1030850.0, 1720850.0], [1030800.0, 1720850.0], [1030800.0, 1720800.0], [1030750.0, 1720800.0], [1030750.0, 1720700.0], [1030800.0, 1720700.0], [1030800.0, 1720650.0], [1030900.0, 1720650.0], [1030900.0, 1720550.0], [1030950.0, 1720550.0], [1030950.0, 1720450.0], [1031000.0, 1720450.0], [1031000.0, 1720250.0], [1031050.0, 1720250.0], [1031050.0, 1720300.0], [1031150.0, 1720300.0], [1031150.0, 1720200.0], [1031300.0, 1720200.0], [1031300.0, 1720150.0], [1031350.0, 1720150.0], [1031350.0, 1720100.0], [1031400.0, 1720100.0], [1031400.0, 1720050.0], [1031450.0, 1720050.0], [1031450.0, 1720000.0], [1031500.0, 1720000.0], [1031500.0, 1719950.0], [1031550.0, 1719950.0], [1031550.0, 1719900.0], [1031600.0, 1719900.0], [1031600.0, 1719850.0], [1031650.0, 1719850.0], [1031650.0, 1719800.0], [1031700.0, 1719800.0], [1031700.0, 1719750.0], [1031800.0, 1719750.0], [1031800.0, 1719700.0], [1031850.0, 1719700.0], [1031850.0, 1719600.0], [1031900.0, 1719600.0], [1031900.0, 1719500.0], [1031950.0, 1719500.0], [1031950.0, 1719450.0], [1032050.0, 1719450.0], [1032050.0, 1719400.0], [1032100.0, 1719400.0], [1032100.0, 1719350.0], [1032150.0, 1719350.0], [1032150.0, 1719300.0], [1032200.0, 1719300.0], [1032200.0, 1719250.0], [1032250.0, 1719250.0], [1032250.0, 1719200.0], [1032300.0, 1719200.0], [1032300.0, 1719150.0], [1032350.0, 1719150.0], [1032350.0, 1719050.0], [1032400.0, 1719050.0], [1032400.0, 1718900.0], [1032450.0, 1718900.0], [1032450.0, 1718800.0], [1032400.0, 1718800.0], [1032400.0, 1718600.0], [1032300.0, 1718600.0], [1032300.0, 1718700.0], [1032200.0, 1718700.0], [1032200.0, 1718750.0], [1032100.0, 1718750.0], [1032100.0, 1718550.0], [1032150.0, 1718550.0], [1032150.0, 1718450.0], [1032100.0, 1718450.0], [1032100.0, 1718400.0], [1031900.0, 1718400.0], [1031900.0, 1718100.0], [1031850.0, 1718100.0], [1031850.0, 1718000.0], [1031800.0, 1718000.0], [1031800.0, 1717850.0], [1031750.0, 1717850.0], [1031750.0, 1717700.0], [1031850.0, 1717700.0], [1031850.0, 1717800.0], [1031900.0, 1717800.0], [1031900.0, 1717750.0], [1031950.0, 1717750.0], [1031950.0, 1717700.0], [1032050.0, 1717700.0], [1032050.0, 1717650.0], [1032550.0, 1717650.0], [1032550.0, 1717600.0], [1032900.0, 1717600.0], [1032900.0, 1717550.0], [1032950.0, 1717550.0], [1032950.0, 1717450.0], [1033000.0, 1717450.0], [1033000.0, 1717350.0], [1032950.0, 1717350.0], [1032950.0, 1717300.0], [1032750.0, 1717300.0], [1032750.0, 1717250.0], [1032100.0, 1717250.0], [1032100.0, 1717200.0], [1032000.0, 1717200.0], [1032000.0, 1717150.0], [1031950.0, 1717150.0], [1031950.0, 1717100.0], [1031900.0, 1717100.0], [1031900.0, 1716950.0], [1031850.0, 1716950.0], [1031850.0, 1716700.0], [1031800.0, 1716700.0], [1031800.0, 1716650.0], [1031850.0, 1716650.0], [1031850.0, 1716550.0], [1031800.0, 1716550.0], [1031800.0, 1716450.0], [1031900.0, 1716450.0], [1031900.0, 1716400.0], [1031950.0, 1716400.0], [1031950.0, 1716300.0], [1032000.0, 1716300.0], [1032000.0, 1716200.0], [1032050.0, 1716200.0], [1032050.0, 1716100.0], [1032200.0, 1716100.0], [1032200.0, 1716050.0], [1032250.0, 1716050.0], [1032250.0, 1716000.0], [1032350.0, 1716000.0], [1032350.0, 1715950.0], [1032400.0, 1715950.0], [1032400.0, 1715900.0], [1032450.0, 1715900.0], [1032450.0, 1715850.0], [1032500.0, 1715850.0], [1032500.0, 1715800.0], [1032550.0, 1715800.0], [1032550.0, 1715700.0], [1032600.0, 1715700.0], [1032600.0, 1715650.0], [1032650.0, 1715650.0], [1032650.0, 1715550.0], [1032700.0, 1715550.0], [1032700.0, 1715400.0], [1032750.0, 1715400.0], [1032750.0, 1715350.0], [1032700.0, 1715350.0], [1032700.0, 1715250.0], [1032750.0, 1715250.0], [1032750.0, 1715200.0], [1032800.0, 1715200.0], [1032800.0, 1715150.0], [1032850.0, 1715150.0], [1032850.0, 1715100.0], [1032900.0, 1715100.0], [1032900.0, 1715000.0], [1032950.0, 1715000.0], [1032950.0, 1714950.0], [1032900.0, 1714950.0], [1032900.0, 1714800.0], [1033000.0, 1714800.0], [1033000.0, 1714700.0], [1033100.0, 1714700.0], [1033100.0, 1714650.0], [1033150.0, 1714650.0], [1033150.0, 1714600.0], [1033250.0, 1714600.0], [1033250.0, 1714550.0], [1033300.0, 1714550.0], [1033300.0, 1714500.0], [1033400.0, 1714500.0], [1033400.0, 1714450.0], [1033450.0, 1714450.0], [1033450.0, 1714400.0], [1033500.0, 1714400.0], [1033500.0, 1714350.0], [1033650.0, 1714350.0], [1033650.0, 1714300.0], [1033700.0, 1714300.0], [1033700.0, 1714250.0], [1033800.0, 1714250.0], [1033800.0, 1714200.0], [1033900.0, 1714200.0], [1033900.0, 1714150.0], [1033950.0, 1714150.0], [1033950.0, 1714100.0], [1034000.0, 1714100.0], [1034000.0, 1714050.0], [1034050.0, 1714050.0], [1034050.0, 1713850.0], [1034000.0, 1713850.0], [1034000.0, 1713800.0], [1033950.0, 1713800.0], [1033950.0, 1713750.0], [1033850.0, 1713750.0], [1033850.0, 1713700.0], [1033750.0, 1713700.0], [1033750.0, 1713650.0], [1033600.0, 1713650.0], [1033600.0, 1713600.0], [1033500.0, 1713600.0], [1033500.0, 1713550.0], [1033200.0, 1713550.0], [1033200.0, 1713500.0], [1033050.0, 1713500.0], [1033050.0, 1713450.0], [1033000.0, 1713450.0], [1033000.0, 1713400.0], [1032850.0, 1713400.0], [1032850.0, 1713450.0], [1032750.0, 1713450.0], [1032750.0, 1713500.0], [1032600.0, 1713500.0], [1032600.0, 1713400.0], [1032750.0, 1713400.0], [1032750.0, 1713350.0], [1032800.0, 1713350.0], [1032800.0, 1713250.0], [1032850.0, 1713250.0], [1032850.0, 1713200.0], [1032900.0, 1713200.0], [1032900.0, 1713150.0], [1032950.0, 1713150.0], [1032950.0, 1712850.0], [1033000.0, 1712850.0], [1033000.0, 1712750.0], [1033050.0, 1712750.0], [1033050.0, 1712700.0], [1033100.0, 1712700.0], [1033100.0, 1712650.0], [1033150.0, 1712650.0], [1033150.0, 1712600.0], [1033250.0, 1712600.0], [1033250.0, 1712550.0], [1033400.0, 1712550.0], [1033400.0, 1712500.0], [1033500.0, 1712500.0], [1033500.0, 1712450.0], [1033700.0, 1712450.0], [1033700.0, 1712400.0], [1033800.0, 1712400.0], [1033800.0, 1712350.0], [1034050.0, 1712350.0], [1034050.0, 1712300.0], [1034300.0, 1712300.0], [1034300.0, 1712250.0], [1034400.0, 1712250.0], [1034400.0, 1712200.0], [1034450.0, 1712200.0], [1034450.0, 1712150.0], [1034550.0, 1712150.0], [1034550.0, 1712100.0], [1034650.0, 1712100.0], [1034650.0, 1712050.0], [1034750.0, 1712050.0], [1034750.0, 1712000.0], [1034800.0, 1712000.0], [1034800.0, 1711950.0], [1034900.0, 1711950.0], [1034900.0, 1711900.0], [1035000.0, 1711900.0], [1035000.0, 1711850.0], [1035050.0, 1711850.0], [1035050.0, 1711750.0], [1035100.0, 1711750.0], [1035100.0, 1711650.0], [1035150.0, 1711650.0], [1035150.0, 1711550.0], [1035100.0, 1711550.0], [1035100.0, 1711400.0], [1035150.0, 1711400.0], [1035150.0, 1711350.0], [1035200.0, 1711350.0], [1035200.0, 1711000.0], [1035150.0, 1711000.0], [1035150.0, 1710900.0], [1035250.0, 1710900.0], [1035250.0, 1710850.0], [1035300.0, 1710850.0], [1035300.0, 1710750.0], [1035350.0, 1710750.0], [1035350.0, 1710650.0], [1035400.0, 1710650.0], [1035400.0, 1710600.0], [1035450.0, 1710600.0], [1035450.0, 1710550.0], [1035500.0, 1710550.0], [1035500.0, 1710500.0], [1035700.0, 1710500.0], [1035700.0, 1710450.0], [1035800.0, 1710450.0], [1035800.0, 1710400.0], [1035950.0, 1710400.0], [1035950.0, 1710350.0], [1036050.0, 1710350.0], [1036050.0, 1710300.0], [1036300.0, 1710300.0], [1036300.0, 1710250.0], [1036500.0, 1710250.0], [1036500.0, 1710200.0], [1036650.0, 1710200.0], [1036650.0, 1710150.0], [1036750.0, 1710150.0], [1036750.0, 1710100.0], [1036800.0, 1710100.0], [1036800.0, 1710050.0], [1036850.0, 1710050.0], [1036850.0, 1710000.0], [1036900.0, 1710000.0], [1036900.0, 1709950.0], [1036950.0, 1709950.0], [1036950.0, 1709800.0], [1037000.0, 1709800.0], [1037000.0, 1709750.0], [1037050.0, 1709750.0], [1037050.0, 1709650.0], [1037100.0, 1709650.0], [1037100.0, 1709450.0], [1037150.0, 1709450.0], [1037150.0, 1709250.0], [1037100.0, 1709250.0], [1037100.0, 1709000.0], [1037150.0, 1709000.0], [1037150.0, 1708850.0], [1037200.0, 1708850.0], [1037200.0, 1708600.0], [1037250.0, 1708600.0], [1037250.0, 1708450.0], [1037300.0, 1708450.0], [1037300.0, 1708400.0], [1037350.0, 1708400.0], [1037350.0, 1708350.0], [1037400.0, 1708350.0], [1037400.0, 1708250.0], [1037450.0, 1708250.0], [1037450.0, 1708200.0], [1037500.0, 1708200.0], [1037500.0, 1708150.0], [1037550.0, 1708150.0], [1037550.0, 1708100.0], [1037600.0, 1708100.0], [1037600.0, 1707800.0], [1037650.0, 1707800.0], [1037650.0, 1707500.0], [1037700.0, 1707500.0], [1037700.0, 1707400.0], [1037750.0, 1707400.0], [1037750.0, 1707150.0], [1037800.0, 1707150.0], [1037800.0, 1707050.0], [1037850.0, 1707050.0], [1037850.0, 1707000.0], [1037800.0, 1707000.0], [1037800.0, 1706900.0], [1037850.0, 1706900.0], [1037850.0, 1706750.0], [1037900.0, 1706750.0], [1037900.0, 1706700.0], [1037950.0, 1706700.0], [1037950.0, 1706650.0], [1038000.0, 1706650.0], [1038000.0, 1706600.0], [1038050.0, 1706600.0], [1038050.0, 1706550.0], [1038100.0, 1706550.0], [1038100.0, 1706500.0], [1038250.0, 1706500.0], [1038250.0, 1706450.0], [1038400.0, 1706450.0], [1038400.0, 1706400.0], [1038550.0, 1706400.0], [1038550.0, 1706350.0], [1038600.0, 1706350.0], [1038600.0, 1706300.0], [1038750.0, 1706300.0], [1038750.0, 1706250.0], [1038800.0, 1706250.0], [1038800.0, 1706200.0], [1038850.0, 1706200.0], [1038850.0, 1706150.0], [1038900.0, 1706150.0], [1038900.0, 1706100.0], [1038950.0, 1706100.0], [1038950.0, 1706050.0], [1039050.0, 1706050.0], [1039050.0, 1706000.0], [1039100.0, 1706000.0], [1039100.0, 1705950.0], [1039150.0, 1705950.0], [1039150.0, 1705900.0], [1039250.0, 1705900.0], [1039250.0, 1705800.0], [1039300.0, 1705800.0], [1039300.0, 1705750.0], [1039350.0, 1705750.0], [1039350.0, 1705700.0], [1039400.0, 1705700.0], [1039400.0, 1705650.0], [1039450.0, 1705650.0], [1039450.0, 1705600.0], [1039500.0, 1705600.0], [1039500.0, 1705500.0], [1039550.0, 1705500.0], [1039550.0, 1705400.0], [1039600.0, 1705400.0], [1039600.0, 1705300.0], [1039650.0, 1705300.0], [1039650.0, 1705150.0], [1039700.0, 1705150.0], [1039700.0, 1705000.0], [1039750.0, 1705000.0], [1039750.0, 1704700.0], [1039800.0, 1704700.0], [1039800.0, 1704500.0], [1039850.0, 1704500.0], [1039850.0, 1704400.0], [1039900.0, 1704400.0], [1039900.0, 1704150.0], [1040000.0, 1704150.0], [1040000.0, 1704100.0], [1039950.0, 1704100.0], [1039950.0, 1704000.0], [1039900.0, 1704000.0], [1039900.0, 1703900.0], [1039950.0, 1703900.0], [1039950.0, 1703850.0], [1040000.0, 1703850.0], [1040000.0, 1703450.0], [1040050.0, 1703450.0], [1040050.0, 1703350.0], [1040100.0, 1703350.0], [1040100.0, 1703200.0], [1040050.0, 1703200.0], [1040050.0, 1703150.0], [1040100.0, 1703150.0], [1040100.0, 1703100.0], [1040050.0, 1703100.0], [1040050.0, 1703050.0], [1040000.0, 1703050.0], [1040000.0, 1703000.0], [1040700.0, 1703000.0], [1040700.0, 1703100.0], [1040750.0, 1703100.0], [1040750.0, 1703200.0], [1040650.0, 1703200.0], [1040650.0, 1703150.0], [1040600.0, 1703150.0], [1040600.0, 1703300.0], [1040650.0, 1703300.0], [1040650.0, 1703500.0], [1040600.0, 1703500.0], [1040600.0, 1703600.0], [1040700.0, 1703600.0], [1040700.0, 1703750.0], [1040650.0, 1703750.0], [1040650.0, 1703800.0], [1040600.0, 1703800.0], [1040600.0, 1703900.0], [1040650.0, 1703900.0], [1040650.0, 1704100.0], [1040600.0, 1704100.0], [1040600.0, 1704200.0], [1040550.0, 1704200.0], [1040550.0, 1704300.0], [1040450.0, 1704300.0], [1040450.0, 1704250.0], [1040400.0, 1704250.0], [1040400.0, 1704300.0], [1040350.0, 1704300.0], [1040350.0, 1704350.0], [1040250.0, 1704350.0], [1040250.0, 1704200.0], [1040200.0, 1704200.0], [1040200.0, 1704400.0], [1040150.0, 1704400.0], [1040150.0, 1704550.0], [1040100.0, 1704550.0], [1040100.0, 1704750.0], [1040050.0, 1704750.0], [1040050.0, 1704900.0], [1040000.0, 1704900.0], [1040000.0, 1705050.0], [1039950.0, 1705050.0], [1039950.0, 1705400.0], [1039900.0, 1705400.0], [1039900.0, 1705550.0], [1039850.0, 1705550.0], [1039850.0, 1705650.0], [1039800.0, 1705650.0], [1039800.0, 1705700.0], [1039750.0, 1705700.0], [1039750.0, 1705750.0], [1039700.0, 1705750.0], [1039700.0, 1705800.0], [1039650.0, 1705800.0], [1039650.0, 1705850.0], [1039600.0, 1705850.0], [1039600.0, 1705900.0], [1039550.0, 1705900.0], [1039550.0, 1705950.0], [1039500.0, 1705950.0], [1039500.0, 1706000.0], [1039450.0, 1706000.0], [1039450.0, 1706050.0], [1039350.0, 1706050.0], [1039350.0, 1706100.0], [1039300.0, 1706100.0], [1039300.0, 1706150.0], [1039200.0, 1706150.0], [1039200.0, 1706200.0], [1039150.0, 1706200.0], [1039150.0, 1706250.0], [1039100.0, 1706250.0], [1039100.0, 1706300.0], [1039050.0, 1706300.0], [1039050.0, 1706350.0], [1039000.0, 1706350.0], [1039000.0, 1706400.0], [1038900.0, 1706400.0], [1038900.0, 1706450.0], [1038850.0, 1706450.0], [1038850.0, 1706500.0], [1038700.0, 1706500.0], [1038700.0, 1706550.0], [1038600.0, 1706550.0], [1038600.0, 1706600.0], [1038450.0, 1706600.0], [1038450.0, 1706650.0], [1038350.0, 1706650.0], [1038350.0, 1706700.0], [1038200.0, 1706700.0], [1038200.0, 1706750.0], [1038150.0, 1706750.0], [1038150.0, 1706800.0], [1038100.0, 1706800.0], [1038100.0, 1706850.0], [1038050.0, 1706850.0], [1038050.0, 1706950.0], [1038000.0, 1706950.0], [1038000.0, 1707400.0], [1037950.0, 1707400.0], [1037950.0, 1707500.0], [1037900.0, 1707500.0], [1037900.0, 1707650.0], [1037850.0, 1707650.0], [1037850.0, 1707850.0], [1037800.0, 1707850.0], [1037800.0, 1708000.0], [1037750.0, 1708000.0], [1037750.0, 1708250.0], [1037700.0, 1708250.0], [1037700.0, 1708400.0], [1037600.0, 1708400.0], [1037600.0, 1708500.0], [1037550.0, 1708500.0], [1037550.0, 1708550.0], [1037500.0, 1708550.0], [1037500.0, 1708650.0], [1037450.0, 1708650.0], [1037450.0, 1708700.0], [1037400.0, 1708700.0], [1037400.0, 1709050.0], [1037350.0, 1709050.0], [1037350.0, 1709550.0], [1037300.0, 1709550.0], [1037300.0, 1709700.0], [1037250.0, 1709700.0], [1037250.0, 1709850.0], [1037200.0, 1709850.0], [1037200.0, 1709950.0], [1037150.0, 1709950.0], [1037150.0, 1710050.0], [1037100.0, 1710050.0], [1037100.0, 1710150.0], [1037050.0, 1710150.0], [1037050.0, 1710250.0], [1037000.0, 1710250.0], [1037000.0, 1710300.0], [1036950.0, 1710300.0], [1036950.0, 1710350.0], [1036850.0, 1710350.0], [1036850.0, 1710400.0], [1036800.0, 1710400.0], [1036800.0, 1710450.0], [1036650.0, 1710450.0], [1036650.0, 1710700.0], [1036550.0, 1710700.0], [1036550.0, 1710750.0], [1036500.0, 1710750.0], [1036500.0, 1710650.0], [1036450.0, 1710650.0], [1036450.0, 1710600.0], [1036100.0, 1710600.0], [1036100.0, 1710650.0], [1035800.0, 1710650.0], [1035800.0, 1710700.0], [1035650.0, 1710700.0], [1035650.0, 1710850.0], [1035600.0, 1710850.0], [1035600.0, 1710800.0], [1035550.0, 1710800.0], [1035550.0, 1710850.0], [1035500.0, 1710850.0], [1035500.0, 1710950.0], [1035450.0, 1710950.0], [1035450.0, 1711000.0], [1035400.0, 1711000.0], [1035400.0, 1711400.0], [1035350.0, 1711400.0], [1035350.0, 1711600.0], [1035300.0, 1711600.0], [1035300.0, 1711900.0], [1035250.0, 1711900.0], [1035250.0, 1711950.0], [1035200.0, 1711950.0], [1035200.0, 1712000.0], [1035150.0, 1712000.0], [1035150.0, 1712100.0], [1035050.0, 1712100.0], [1035050.0, 1712150.0], [1035000.0, 1712150.0], [1035000.0, 1712200.0], [1034900.0, 1712200.0], [1034900.0, 1712250.0], [1034750.0, 1712250.0], [1034750.0, 1712300.0], [1034650.0, 1712300.0], [1034650.0, 1712350.0], [1034550.0, 1712350.0], [1034550.0, 1712400.0], [1034450.0, 1712400.0], [1034450.0, 1712450.0], [1034350.0, 1712450.0], [1034350.0, 1712500.0], [1034200.0, 1712500.0], [1034200.0, 1712550.0], [1034000.0, 1712550.0], [1034000.0, 1712600.0], [1033750.0, 1712600.0], [1033750.0, 1712650.0], [1033600.0, 1712650.0], [1033600.0, 1712700.0], [1033450.0, 1712700.0], [1033450.0, 1712750.0], [1033300.0, 1712750.0], [1033300.0, 1712800.0], [1033250.0, 1712800.0], [1033250.0, 1712850.0], [1033200.0, 1712850.0], [1033200.0, 1712900.0], [1033150.0, 1712900.0], [1033150.0, 1713150.0], [1033200.0, 1713150.0], [1033200.0, 1713200.0], [1033250.0, 1713200.0], [1033250.0, 1713250.0], [1033300.0, 1713250.0], [1033300.0, 1713300.0], [1033400.0, 1713300.0], [1033400.0, 1713350.0], [1033550.0, 1713350.0], [1033550.0, 1713400.0], [1033750.0, 1713400.0], [1033750.0, 1713450.0], [1033950.0, 1713450.0], [1033950.0, 1713500.0], [1034000.0, 1713500.0], [1034000.0, 1713550.0], [1034050.0, 1713550.0], [1034050.0, 1713600.0], [1034100.0, 1713600.0], [1034100.0, 1713700.0], [1034150.0, 1713700.0], [1034150.0, 1713750.0], [1034200.0, 1713750.0], [1034200.0, 1713800.0], [1034250.0, 1713800.0], [1034250.0, 1713850.0], [1034300.0, 1713850.0], [1034300.0, 1713900.0], [1034350.0, 1713900.0], [1034350.0, 1713950.0], [1034400.0, 1713950.0], [1034400.0, 1714000.0], [1034450.0, 1714000.0], [1034450.0, 1714050.0], [1034500.0, 1714050.0], [1034500.0, 1714100.0], [1034550.0, 1714100.0], [1034550.0, 1714150.0], [1034400.0, 1714150.0], [1034400.0, 1714100.0], [1034350.0, 1714100.0], [1034350.0, 1714050.0], [1034300.0, 1714050.0], [1034300.0, 1714100.0], [1034250.0, 1714100.0], [1034250.0, 1714200.0], [1034200.0, 1714200.0], [1034200.0, 1714250.0], [1034150.0, 1714250.0], [1034150.0, 1714300.0], [1034050.0, 1714300.0], [1034050.0, 1714350.0], [1033950.0, 1714350.0], [1033950.0, 1714400.0], [1033900.0, 1714400.0], [1033900.0, 1714450.0], [1033850.0, 1714450.0], [1033850.0, 1714500.0], [1033750.0, 1714500.0], [1033750.0, 1714550.0], [1033700.0, 1714550.0], [1033700.0, 1714600.0], [1033550.0, 1714600.0], [1033550.0, 1714650.0], [1033450.0, 1714650.0], [1033450.0, 1714700.0], [1033500.0, 1714700.0], [1033500.0, 1714750.0], [1033450.0, 1714750.0], [1033450.0, 1714800.0], [1033400.0, 1714800.0], [1033400.0, 1714850.0], [1033350.0, 1714850.0], [1033350.0, 1715050.0], [1033300.0, 1715050.0], [1033300.0, 1715000.0], [1033200.0, 1715000.0], [1033200.0, 1715050.0], [1033150.0, 1715050.0], [1033150.0, 1715150.0], [1033100.0, 1715150.0], [1033100.0, 1715250.0], [1033050.0, 1715250.0], [1033050.0, 1715300.0], [1033000.0, 1715300.0], [1033000.0, 1715400.0], [1032950.0, 1715400.0], [1032950.0, 1715500.0], [1032900.0, 1715500.0], [1032900.0, 1715650.0], [1032950.0, 1715650.0], [1032950.0, 1715850.0], [1032850.0, 1715850.0], [1032850.0, 1715750.0], [1032800.0, 1715750.0], [1032800.0, 1715800.0], [1032750.0, 1715800.0], [1032750.0, 1715850.0], [1032700.0, 1715850.0], [1032700.0, 1715950.0], [1032650.0, 1715950.0], [1032650.0, 1716000.0], [1032600.0, 1716000.0], [1032600.0, 1716050.0], [1032550.0, 1716050.0], [1032550.0, 1716150.0], [1032450.0, 1716150.0], [1032450.0, 1716200.0], [1032400.0, 1716200.0], [1032400.0, 1716250.0], [1032350.0, 1716250.0], [1032350.0, 1716350.0], [1032300.0, 1716350.0], [1032300.0, 1716400.0], [1032250.0, 1716400.0], [1032250.0, 1716450.0], [1032300.0, 1716450.0], [1032300.0, 1716600.0], [1032250.0, 1716600.0], [1032250.0, 1716550.0], [1032200.0, 1716550.0], [1032200.0, 1716600.0], [1032100.0, 1716600.0], [1032100.0, 1716650.0], [1032050.0, 1716650.0], [1032050.0, 1716900.0], [1032100.0, 1716900.0], [1032100.0, 1716950.0], [1032150.0, 1716950.0], [1032150.0, 1717000.0], [1032350.0, 1717000.0], [1032350.0, 1717050.0], [1032900.0, 1717050.0], [1032900.0, 1717100.0], [1032950.0, 1717100.0], [1032950.0, 1717150.0], [1033050.0, 1717150.0], [1033050.0, 1717200.0], [1033150.0, 1717200.0], [1033150.0, 1717250.0], [1033200.0, 1717250.0], [1033200.0, 1717350.0], [1033250.0, 1717350.0], [1033250.0, 1717600.0], [1033200.0, 1717600.0], [1033200.0, 1717700.0], [1033100.0, 1717700.0], [1033100.0, 1717800.0], [1033000.0, 1717800.0], [1033000.0, 1717850.0], [1032750.0, 1717850.0], [1032750.0, 1717950.0], [1032800.0, 1717950.0], [1032800.0, 1718000.0], [1032850.0, 1718000.0], [1032850.0, 1718100.0], [1032800.0, 1718100.0], [1032800.0, 1718050.0], [1032750.0, 1718050.0], [1032750.0, 1718000.0], [1032650.0, 1718000.0], [1032650.0, 1717950.0], [1032600.0, 1717950.0], [1032600.0, 1717900.0], [1032550.0, 1717900.0], [1032550.0, 1717850.0], [1032200.0, 1717850.0], [1032200.0, 1717900.0], [1032100.0, 1717900.0], [1032100.0, 1718000.0], [1032150.0, 1718000.0], [1032150.0, 1718050.0], [1032250.0, 1718050.0], [1032250.0, 1718150.0], [1032350.0, 1718150.0], [1032350.0, 1718200.0], [1032400.0, 1718200.0], [1032400.0, 1718250.0], [1032450.0, 1718250.0], [1032450.0, 1718300.0], [1032550.0, 1718300.0], [1032550.0, 1718400.0], [1032600.0, 1718400.0], [1032600.0, 1718450.0], [1032650.0, 1718450.0], [1032650.0, 1718500.0], [1032700.0, 1718500.0], [1032700.0, 1718600.0], [1032750.0, 1718600.0], [1032750.0, 1718700.0], [1032800.0, 1718700.0], [1032800.0, 1718800.0], [1032850.0, 1718800.0], [1032850.0, 1718850.0], [1032800.0, 1718850.0], [1032800.0, 1719000.0], [1032750.0, 1719000.0], [1032750.0, 1719100.0], [1032700.0, 1719100.0], [1032700.0, 1719150.0], [1032650.0, 1719150.0], [1032650.0, 1719300.0], [1032600.0, 1719300.0], [1032600.0, 1719350.0], [1032550.0, 1719350.0], [1032550.0, 1719450.0], [1032500.0, 1719450.0], [1032500.0, 1719500.0], [1032450.0, 1719500.0], [1032450.0, 1719550.0], [1032400.0, 1719550.0], [1032400.0, 1719650.0], [1032350.0, 1719650.0], [1032350.0, 1719750.0], [1032300.0, 1719750.0], [1032300.0, 1719900.0], [1032250.0, 1719900.0], [1032250.0, 1720000.0], [1032200.0, 1720000.0], [1032200.0, 1720100.0], [1032150.0, 1720100.0], [1032150.0, 1720300.0], [1032100.0, 1720300.0], [1032100.0, 1720350.0], [1032050.0, 1720350.0], [1032050.0, 1720400.0], [1032100.0, 1720400.0], [1032100.0, 1720550.0], [1032150.0, 1720550.0], [1032150.0, 1720750.0], [1032100.0, 1720750.0], [1032100.0, 1720800.0], [1032150.0, 1720800.0], [1032150.0, 1720950.0], [1032050.0, 1720950.0], [1032050.0, 1721150.0], [1031950.0, 1721150.0], [1031950.0, 1720950.0], [1031900.0, 1720950.0], [1031900.0, 1720850.0], [1031850.0, 1720850.0], [1031850.0, 1720800.0], [1031800.0, 1720800.0], [1031800.0, 1720750.0], [1031750.0, 1720750.0], [1031750.0, 1720650.0], [1031700.0, 1720650.0], [1031700.0, 1720600.0], [1031650.0, 1720600.0], [1031650.0, 1720650.0], [1031600.0, 1720650.0], [1031600.0, 1720700.0], [1031550.0, 1720700.0], [1031550.0, 1720750.0], [1031500.0, 1720750.0], [1031500.0, 1720800.0], [1031450.0, 1720800.0], [1031450.0, 1720850.0], [1031400.0, 1720850.0], [1031400.0, 1720900.0], [1031350.0, 1720900.0], [1031350.0, 1720950.0], [1031300.0, 1720950.0], [1031300.0, 1721000.0], [1031250.0, 1721000.0], [1031250.0, 1721050.0], [1031200.0, 1721050.0], [1031200.0, 1721100.0], [1031150.0, 1721100.0], [1031150.0, 1721150.0], [1031100.0, 1721150.0], [1031100.0, 1721200.0], [1031050.0, 1721200.0], [1031050.0, 1721250.0], [1031000.0, 1721250.0], [1031000.0, 1721350.0], [1030950.0, 1721350.0], [1030950.0, 1721500.0], [1030850.0, 1721500.0], [1030850.0, 1721550.0], [1030800.0, 1721550.0], [1030800.0, 1721650.0], [1030750.0, 1721650.0], [1030750.0, 1721750.0], [1030700.0, 1721750.0], [1030700.0, 1721900.0], [1030600.0, 1721900.0], [1030600.0, 1721950.0], [1030650.0, 1721950.0], [1030650.0, 1722050.0], [1030700.0, 1722050.0], [1030700.0, 1722150.0], [1030750.0, 1722150.0], [1030750.0, 1722300.0], [1030700.0, 1722300.0]]]}, "properties": {"flooded": 1, "depth_thr_m": 0.3}}], "crs": {"type": "name", "properties": {"name": "EPSG:5179"}}}