{
"type": "FeatureCollection",
"name": "saengbiryang_myeon_5179",
"crs": { "type": "name", "properties": { "name": "urn:ogc:def:crs:EPSG::5179" } },
"features": [
{ "type": "Feature", "properties": { "BASE_DATE": "20250630", "ADM_CD": "38570390", "ADM_NM": "생비량면" }, "geometry": { "type": "Polygon", "coordinates": [ [ [ 1051832.368599998997524, 1710998.7941 ], [ 1051834.291799999773502, 1710993.5767 ], [ 1051843.991800000891089, 1710971.033900000620633 ], [ 1051855.1096000012476, 1710966.810099999886006 ], [ 1051881.456999999471009, 1710956.799900001846254 ], [ 1051900.5972, 1710940.891399999847636 ], [ 1051942.0244, 1710906.458699999377131 ], [ 1051942.83299999893643, 1710901.629899999592453 ], [ 1051943.519800000125542, 1710893.351099998923019 ], [ 1051942.756900000618771, 1710886.471400000387803 ], [ 1051937.691599999321625, 1710840.797700002323836 ], [ 1051963.0658, 1710765.246899999678135 ], [ 1051967.332800000440329, 1710738.9679 ], [ 1051958.377600000472739, 1710597.658100000582635 ], [ 1051994.279600000241771, 1710563.482699999352917 ], [ 1051995.80699999933131, 1710561.424199999775738 ], [ 1052031.172399999573827, 1710513.759500000625849 ], [ 1052064.929000000469387, 1710512.479699999094009 ], [ 1052098.93379999906756, 1710511.190400001592934 ], [ 1052114.100400000112131, 1710510.61530000041239 ], [ 1052183.670999998925254, 1710509.317099999636412 ], [ 1052278.924800001084805, 1710518.016099999891594 ], [ 1052282.678999998839572, 1710519.240200001513585 ], [ 1052366.441600000252947, 1710546.551699999719858 ], [ 1052375.810399999609217, 1710549.741399998776615 ], [ 1052411.80820000031963, 1710561.997300000861287 ], [ 1052502.845799999311566, 1710577.177700000349432 ], [ 1052604.714999998919666, 1710554.976299999514595 ], [ 1052735.845200000330806, 1710532.642300000414252 ], [ 1052783.806399999186397, 1710457.115499999606982 ], [ 1052820.835400001145899, 1710385.986300000688061 ], [ 1052822.763199999462813, 1710385.642100001452491 ], [ 1052834.6574, 1710383.518499998841435 ], [ 1052900.301799999549985, 1710371.797499999403954 ], [ 1052907.317, 1710365.449700000230223 ], [ 1052915.940899999113753, 1710358.755500000203028 ], [ 1052949.963000001385808, 1710332.345500000752509 ], [ 1052939.939799999352545, 1710190.959100001025945 ], [ 1052981.68320000031963, 1710118.580100000603124 ], [ 1052995.405000000493601, 1710061.311099999584258 ], [ 1053003.417000000132248, 1710049.620499999262393 ], [ 1053028.341200000140816, 1710018.719300000695512 ], [ 1053028.72059999848716, 1710018.249099999433383 ], [ 1053051.665799998445436, 1709999.503100001718849 ], [ 1053071.060599999269471, 1709975.7827 ], [ 1053071.293200000654906, 1709975.517100000753999 ], [ 1053084.93540000077337, 1709959.92750000115484 ], [ 1053116.771200000774115, 1709909.442099999636412 ], [ 1053122.447800001362339, 1709904.317900001071393 ], [ 1053131.465200001141056, 1709895.475400001043454 ], [ 1053154.712200000882149, 1709872.678500001085922 ], [ 1053175.325399999506772, 1709870.354299999773502 ], [ 1053178.463799998862669, 1709869.770899999886751 ], [ 1053181.280199999688193, 1709869.247499999590218 ], [ 1053210.89079999900423, 1709858.134299999568611 ], [ 1053221.169399999314919, 1709849.889100000727922 ], [ 1053229.130800000391901, 1709842.988299999153242 ], [ 1053245.646800000220537, 1709828.6719 ], [ 1053310.633400000631809, 1709730.802100001834333 ], [ 1053331.593000000575557, 1709717.710400000214577 ], [ 1053341.640000000130385, 1709711.435100001050159 ], [ 1053356.209199999691918, 1709707.941499999724329 ], [ 1053398.325399999739602, 1709699.279499999247491 ], [ 1053412.945600000908598, 1709697.968100000172853 ], [ 1053486.956799998879433, 1709690.7426999991294 ], [ 1053491.188600000459701, 1709687.4394 ], [ 1053522.656600000103936, 1709662.875100000295788 ], [ 1053523.1946, 1709614.992900000186637 ], [ 1053482.450000000651926, 1709532.970499999588355 ], [ 1053484.882800000254065, 1709496.500700000207871 ], [ 1053485.014999999431893, 1709492.792700001038611 ], [ 1053485.32799999951385, 1709484.024700001114979 ], [ 1053472.127000001259148, 1709436.390699999174103 ], [ 1053444.266800001496449, 1709421.382500001927838 ], [ 1053436.028, 1709399.744100001640618 ], [ 1053434.69639999885112, 1709395.999899999704212 ], [ 1053437.186399999540299, 1709346.062100001377985 ], [ 1053438.0186, 1709332.258300001733005 ], [ 1053418.76219999906607, 1709303.80449999962002 ], [ 1053414.875400000717491, 1709298.599899999331683 ], [ 1053412.279800000600517, 1709297.894900001352653 ], [ 1053382.132, 1709283.257700000191107 ], [ 1053367.812199999112636, 1709245.4071 ], [ 1053330.6586, 1709205.813500000396743 ], [ 1053321.413799999281764, 1709172.10789999878034 ], [ 1053326.635599999688566, 1709137.597900000168011 ], [ 1053306.943400000920519, 1709066.325900000985712 ], [ 1053303.446999998530373, 1709012.827099998714402 ], [ 1053258.121800000313669, 1708972.506899998057634 ], [ 1053238.933999999193475, 1708932.697300000116229 ], [ 1053208.886000000173226, 1708913.423900001915172 ], [ 1053181.228800000157207, 1708898.789300000295043 ], [ 1053178.483400000492111, 1708897.03609999967739 ], [ 1053174.594799999613315, 1708892.421700000297278 ], [ 1053133.008000001078472, 1708840.322300000116229 ], [ 1053128.1842, 1708834.95409999974072 ], [ 1053083.658200001344085, 1708830.774499997962266 ], [ 1053038.992, 1708825.639699999475852 ], [ 1053039.055399999255314, 1708794.614700000965968 ], [ 1053039.058599999872968, 1708793.057499998714775 ], [ 1053036.895199999213219, 1708792.483599999221042 ], [ 1052993.079200000502169, 1708780.859899998875335 ], [ 1052991.096199999563396, 1708781.004899999126792 ], [ 1052973.591799999820068, 1708754.321100000757724 ], [ 1052957.540600000414997, 1708739.106899999314919 ], [ 1052948.065799999050796, 1708730.1261 ], [ 1052937.396399999503046, 1708706.113299999153242 ], [ 1052903.93, 1708686.287300000200048 ], [ 1052877.342400000197813, 1708670.396099999314174 ], [ 1052806.369000000180677, 1708635.008300001733005 ], [ 1052804.777200000360608, 1708623.934899999760091 ], [ 1052803.424999998882413, 1708623.788500000257045 ], [ 1052795.007599999662489, 1708621.994700000155717 ], [ 1052791.888600000413135, 1708616.41609999909997 ], [ 1052790.979500000132248, 1708613.402199999429286 ], [ 1052781.876000000396743, 1708583.222500000149012 ], [ 1052775.982199999736622, 1708570.794899999862537 ], [ 1052773.021399999270216, 1708564.551699998788536 ], [ 1052755.73280000127852, 1708525.974500002106652 ], [ 1052754.053999999538064, 1708522.42090000025928 ], [ 1052748.753399999579415, 1708511.320699999574572 ], [ 1052739.77919999952428, 1708495.519699999364093 ], [ 1052738.835199999855831, 1708493.9119 ], [ 1052736.328800001181662, 1708489.560100000817329 ], [ 1052709.649400000227615, 1708448.214700000360608 ], [ 1052708.215200000442564, 1708442.147099998546764 ], [ 1052717.94260000041686, 1708430.7278 ], [ 1052719.3564, 1708429.067800000775605 ], [ 1052725.171799999196082, 1708422.241100000217557 ], [ 1052761.435600000200793, 1708417.7207 ], [ 1052802.754800000693649, 1708412.566299999598414 ], [ 1052821.449600000632927, 1708410.803300000261515 ], [ 1052836.668099999660626, 1708409.48670000070706 ], [ 1052849.863400000380352, 1708408.3453 ], [ 1052854.101000000955537, 1708407.248500000452623 ], [ 1052896.57, 1708396.2548999984283 ], [ 1052910.876199999125674, 1708387.768900000490248 ], [ 1052927.742299999576062, 1708376.6622 ], [ 1052921.486399999354035, 1708374.757699998561293 ], [ 1052931.140699999406934, 1708357.138300000457093 ], [ 1052933.593099999474362, 1708353.811699998565018 ], [ 1052935.3638, 1708349.117299999808893 ], [ 1052934.754900000756606, 1708347.220700000179932 ], [ 1052934.998200000962242, 1708342.377999999793246 ], [ 1052937.938800000119954, 1708338.641899998998269 ], [ 1052939.841200000140816, 1708336.201500001363456 ], [ 1052945.547499999636784, 1708333.762900000903755 ], [ 1052949.888000000966713, 1708331.375499999150634 ], [ 1052952.620000000344589, 1708325.650099999736995 ], [ 1052952.080199999734759, 1708321.559299999848008 ], [ 1052952.033100000349805, 1708320.896900000516325 ], [ 1052951.803299999330193, 1708317.680500001180917 ], [ 1052954.748500000219792, 1708310.6885 ], [ 1052959.219800000311807, 1708304.55650000134483 ], [ 1052963.090100000612438, 1708299.654899999732152 ], [ 1052965.791199999628589, 1708296.340900000184774 ], [ 1052968.430999999167398, 1708291.554699999745935 ], [ 1052971.150600001448765, 1708290.265300000552088 ], [ 1052973.6816, 1708287.094799999613315 ], [ 1052977.009899999480695, 1708287.4134 ], [ 1053000.522899999283254, 1708289.664300001226366 ], [ 1053013.573, 1708290.911800000118092 ], [ 1053034.565699999220669, 1708279.820300000719726 ], [ 1053051.211500000907108, 1708270.873700002208352 ], [ 1053064.3376, 1708267.402300000190735 ], [ 1053080.895399999804795, 1708262.577099998481572 ], [ 1053095.34559999848716, 1708258.6131 ], [ 1053137.477500001201406, 1708216.920900001423433 ], [ 1053215.2812, 1708182.803099998971447 ], [ 1053229.168600000441074, 1708151.047300000209361 ], [ 1053221.520100000780076, 1708113.697699999669567 ], [ 1053277.620799998519942, 1708044.774900000775233 ], [ 1053307.640999999595806, 1708029.795899999793619 ], [ 1053312.9884, 1708022.222500001545995 ], [ 1053336.850599999539554, 1707990.607499999459833 ], [ 1053338.168900000629947, 1707987.378299999516457 ], [ 1053353.469999998575076, 1707958.913899998413399 ], [ 1053364.138200000394136, 1707945.743300001136959 ], [ 1053368.672700000461191, 1707940.144799998495728 ], [ 1053415.867200000677258, 1707982.451699999626726 ], [ 1053429.759400000795722, 1707994.893899999558926 ], [ 1053445.562999999150634, 1707989.479100000113249 ], [ 1053454.483899999642745, 1707986.426699998322874 ], [ 1053474.283999999752268, 1707997.2929 ], [ 1053498.90680000022985, 1708010.798599999165162 ], [ 1053578.2074, 1707988.402899999171495 ], [ 1053578.88380000111647, 1707988.216299999738112 ], [ 1053583.353100000182167, 1707989.759500001324341 ], [ 1053642.302399999462068, 1708010.192500000819564 ], [ 1053712.472499999217689, 1707981.7889 ], [ 1053796.307799998903647, 1707962.438900000182912 ], [ 1053890.802000000141561, 1707899.91609999909997 ], [ 1053966.481699999421835, 1707944.17860000114888 ], [ 1053993.731100000673905, 1707952.519100000616163 ], [ 1053997.210099999327213, 1707953.09749999945052 ], [ 1054034.189900000346825, 1707959.246899999678135 ], [ 1054059.577399998903275, 1707963.468699998222291 ], [ 1054082.949400000739843, 1707966.513699998147786 ], [ 1054089.047200001077726, 1707967.308299999451265 ], [ 1054101.358299999730662, 1707978.640100000193343 ], [ 1054112.968999998411164, 1707989.327100000344217 ], [ 1054117.3979, 1707993.402899998240173 ], [ 1054118.792799999006093, 1707996.7939 ], [ 1054128.418300000717863, 1708020.203099999576807 ], [ 1054129.020099999615923, 1708021.666700000176206 ], [ 1054186.964499998837709, 1708072.269699999596924 ], [ 1054250.928599999751896, 1708076.521299999207258 ], [ 1054253.251000000629574, 1708076.675 ], [ 1054284.401600001379848, 1708111.377100000856444 ], [ 1054316.091999999480322, 1708113.713700000895187 ], [ 1054384.614999999525025, 1708108.649299999698997 ], [ 1054461.293899999698624, 1708075.659900000318885 ], [ 1054489.236399998888373, 1708056.573499999474734 ], [ 1054519.343199999071658, 1708058.858300001360476 ], [ 1054536.632100000977516, 1708072.937499999767169 ], [ 1054548.638500001048669, 1708113.315899998880923 ], [ 1054563.272000000579283, 1708100.254499999806285 ], [ 1054579.563199999276549, 1708089.993099999846891 ], [ 1054591.78620000067167, 1708084.117499999701977 ], [ 1054607.552599999820814, 1708078.559499999741092 ], [ 1054656.483300000661984, 1708090.509099998045713 ], [ 1054681.200700000626966, 1708099.488299997989088 ], [ 1054716.303599999286234, 1708112.6247 ], [ 1054716.405899998731911, 1708112.550100000808015 ], [ 1054722.333700000774115, 1708108.215500000864267 ], [ 1054724.403700000140816, 1708097.822299999883398 ], [ 1054721.955200000433251, 1708084.724500000709668 ], [ 1054706.224999999627471, 1708064.595700000179932 ], [ 1054694.5478, 1708054.528999999631196 ], [ 1054688.486600000411272, 1708018.026099999435246 ], [ 1054691.478900000220165, 1707999.106100000441074 ], [ 1054696.627100000157952, 1707966.55089999968186 ], [ 1054692.734700000379235, 1707923.417300001252443 ], [ 1054689.695199999026954, 1707889.725500001572073 ], [ 1054680.985599999548867, 1707864.491699997568503 ], [ 1054671.68279999983497, 1707837.538899999577552 ], [ 1054652.794800000963733, 1707780.229499999433756 ], [ 1054645.611899999668822, 1707771.688300000503659 ], [ 1054632.145100000547245, 1707754.511900000274181 ], [ 1054616.541100000729784, 1707737.840700000524521 ], [ 1054611.3691, 1707731.975099998293445 ], [ 1054590.898400001227856, 1707708.796300000278279 ], [ 1054577.720300000393763, 1707679.56830000015907 ], [ 1054577.0389, 1707651.475299998885021 ], [ 1054565.89979999884963, 1707626.346899999305606 ], [ 1054557.541700000641868, 1707609.863500001374632 ], [ 1054558.035899999085814, 1707602.064699999056756 ], [ 1054526.946300000650808, 1707534.190899999812245 ], [ 1054524.833800000604242, 1707529.578300000168383 ], [ 1054520.348599998978898, 1707521.341699999757111 ], [ 1054507.173899999586865, 1707497.147299999371171 ], [ 1054491.241600000998005, 1707492.329900002107024 ], [ 1054485.844800001010299, 1707490.698099999688566 ], [ 1054438.582999998703599, 1707490.245899999514222 ], [ 1054427.242200001142919, 1707487.636700000613928 ], [ 1054405.643199998885393, 1707486.542099999729544 ], [ 1054401.192499998956919, 1707486.905300001148134 ], [ 1054397.075700001092628, 1707486.812300002202392 ], [ 1054378.148799998685718, 1707481.663500000257045 ], [ 1054303.64369999920018, 1707465.589700000360608 ], [ 1054291.690400000661612, 1707462.04850000096485 ], [ 1054280.019, 1707458.667899999301881 ], [ 1054276.2038, 1707458.066600000485778 ], [ 1054252.779800000833347, 1707449.286699997726828 ], [ 1054239.3865, 1707440.175500000361353 ], [ 1054228.487000000430271, 1707431.737500000279397 ], [ 1054225.528999999864027, 1707429.447499998612329 ], [ 1054223.747700000880286, 1707423.683299998752773 ], [ 1054208.909799998626113, 1707399.6295 ], [ 1054202.948799999896437, 1707390.965700000524521 ], [ 1054195.611099999165162, 1707380.7715 ], [ 1054191.685199999017641, 1707375.680700000375509 ], [ 1054174.869100000243634, 1707359.724099999060854 ], [ 1054152.688500000629574, 1707348.195499998517334 ], [ 1054143.396799999522045, 1707344.57289999932982 ], [ 1054136.820800000801682, 1707341.025700000114739 ], [ 1054132.009999999543652, 1707334.634099998744205 ], [ 1054121.409799999324605, 1707327.583900000434369 ], [ 1054116.807999999495223, 1707322.671499998308718 ], [ 1054107.377100000623614, 1707317.201500000199303 ], [ 1054102.002700001234189, 1707312.243899999419227 ], [ 1054097.678299999563023, 1707310.392700000666082 ], [ 1054096.235600000247359, 1707308.331899999640882 ], [ 1054095.314899998949841, 1707306.477499999571592 ], [ 1054089.4866, 1707297.360099999699742 ], [ 1054089.413099999772385, 1707295.854300000239164 ], [ 1054089.1208, 1707287.23589999973774 ], [ 1054089.633199999108911, 1707276.730599998729303 ], [ 1054093.803399998694658, 1707278.053099998738617 ], [ 1054095.822100001620129, 1707271.046700001228601 ], [ 1054095.740500001236796, 1707259.680299999192357 ], [ 1054098.793399999151006, 1707252.364100000355393 ], [ 1054099.849000001093373, 1707247.49170000012964 ], [ 1054108.604, 1707234.768899999558926 ], [ 1054113.229000001214445, 1707218.850500000873581 ], [ 1054115.738799999468029, 1707209.580700000282377 ], [ 1054115.886599998688325, 1707202.535300001036376 ], [ 1054117.03389999922365, 1707193.128900001291186 ], [ 1054116.397999999113381, 1707187.794199999189004 ], [ 1054115.552799999015406, 1707185.360699999146163 ], [ 1054111.207399998791516, 1707172.852299999445677 ], [ 1054106.770399999106303, 1707159.765500000445172 ], [ 1054102.345399999525398, 1707151.896899999817833 ], [ 1054099.665799999143928, 1707145.141499999444932 ], [ 1054103.142900001257658, 1707143.682900001294911 ], [ 1054097.729799999156967, 1707135.956299999728799 ], [ 1054094.68419999955222, 1707133.352099998854101 ], [ 1054082.488300000317395, 1707126.714299999177456 ], [ 1054080.302200000500306, 1707120.5641 ], [ 1054079.115200000815094, 1707117.226299999514595 ], [ 1054078.59749999968335, 1707115.769899999257177 ], [ 1054078.861100000794977, 1707114.159900000551715 ], [ 1054079.920600000303239, 1707107.6897 ], [ 1054080.203000000445172, 1707103.514299999456853 ], [ 1054080.864100000122562, 1707093.743700000690296 ], [ 1054081.506600000662729, 1707088.290299999527633 ], [ 1054083.034500000998378, 1707079.625499998917803 ], [ 1054083.531399999046698, 1707073.7429 ], [ 1054083.971199999330565, 1707068.406500001437962 ], [ 1054085.9587, 1707058.179099998669699 ], [ 1054086.452900000382215, 1707051.708699999377131 ], [ 1054083.486099999630824, 1707044.562100001145154 ], [ 1054088.208200000692159, 1707034.70820000092499 ], [ 1054088.605600000824779, 1707033.878500001970679 ], [ 1054088.813000000780448, 1707033.443700000876561 ], [ 1054089.140700001269579, 1707032.414100001566112 ], [ 1054089.751400000881404, 1707030.4909 ], [ 1054090.693799998611212, 1707025.502999999560416 ], [ 1054090.926399999763817, 1707024.271899999119341 ], [ 1054090.620800000149757, 1707018.996099998941645 ], [ 1054097.630199998384342, 1707009.376700000604615 ], [ 1054101.7115, 1707007.886099998140708 ], [ 1054111.507100000977516, 1707002.6125 ], [ 1054116.816599999554455, 1707000.692700000246987 ], [ 1054124.619900000514463, 1706998.838700000429526 ], [ 1054137.84319999977015, 1706994.438699999125674 ], [ 1054164.0917, 1706985.708900000434369 ], [ 1054176.071800000965595, 1706983.792299999855459 ], [ 1054185.937699998961762, 1706978.04990000044927 ], [ 1054188.785899999551475, 1706976.393699998036027 ], [ 1054216.268199999583885, 1706956.578299998771399 ], [ 1054224.193, 1706950.864299999549985 ], [ 1054249.751799999736249, 1706934.8205 ], [ 1054256.743, 1706932.14750000089407 ], [ 1054265.546900000190362, 1706931.111499999649823 ], [ 1054274.144800000824034, 1706926.695300000719726 ], [ 1054286.580999999772757, 1706911.568100000964478 ], [ 1054285.793300000717863, 1706904.120700001250952 ], [ 1054286.578000000910833, 1706901.288500000489876 ], [ 1054288.709000000264496, 1706893.594499999424443 ], [ 1054292.283399999374524, 1706888.603299998678267 ], [ 1054296.4341, 1706886.513099998701364 ], [ 1054315.856799999251962, 1706873.419199999189004 ], [ 1054323.770100000547245, 1706865.522899999748915 ], [ 1054331.312699999427423, 1706859.852100000716746 ], [ 1054335.566599999787286, 1706856.532700000796467 ], [ 1054350.081499999389052, 1706850.67090000025928 ], [ 1054353.026999999536201, 1706848.660299998242408 ], [ 1054352.838599999202415, 1706842.511799999512732 ], [ 1054352.440699998987839, 1706829.518899999558926 ], [ 1054352.2621, 1706823.695200000191107 ], [ 1054351.666400000220165, 1706815.635899999644607 ], [ 1054351.365500000538304, 1706811.564699999056756 ], [ 1054349.372000000206754, 1706807.334900000831112 ], [ 1054340.734999999636784, 1706789.007899998221546 ], [ 1054341.065800000913441, 1706786.968699999153614 ], [ 1054344.349499998847023, 1706784.354299999773502 ], [ 1054363.003499999176711, 1706769.504300000611693 ], [ 1054363.001800000900403, 1706767.629899998195469 ], [ 1054363.00129999872297, 1706766.033500001765788 ], [ 1054364.700100000714883, 1706764.628900001058355 ], [ 1054374.278699998743832, 1706756.708699999842793 ], [ 1054413.093100000172853, 1706716.481100000906736 ], [ 1054414.636599999619648, 1706714.883099999278784 ], [ 1054422.183599998941645, 1706701.527100000530481 ], [ 1054428.856100000673905, 1706691.13670000154525 ], [ 1054432.859699999447912, 1706687.721699999645352 ], [ 1054435.895200000843033, 1706683.973900000564754 ], [ 1054437.764599999180064, 1706675.200300000375137 ], [ 1054439.182200000621378, 1706666.050899998983368 ], [ 1054443.58680000086315, 1706652.076300001470372 ], [ 1054445.5066, 1706642.332699999446049 ], [ 1054445.205799999646842, 1706631.910700001288205 ], [ 1054438.728099999250844, 1706628.423699998296797 ], [ 1054433.64200000022538, 1706596.36530000041239 ], [ 1054409.335899999365211, 1706584.5155 ], [ 1054394.66829999932088, 1706561.7507 ], [ 1054380.496399998664856, 1706548.406300000380725 ], [ 1054368.008000001311302, 1706538.9471 ], [ 1054363.156199999153614, 1706532.591499999864027 ], [ 1054361.472199999727309, 1706528.075500000268221 ], [ 1054348.576600000727922, 1706516.011099999304861 ], [ 1054326.691600000485778, 1706477.866900001186877 ], [ 1054291.054200001060963, 1706441.565500000724569 ], [ 1054277.616899999789894, 1706451.3969 ], [ 1054273.156699999468401, 1706455.546900000423193 ], [ 1054267.411400000331923, 1706451.899500000756234 ], [ 1054270.822899999562651, 1706450.017899999395013 ], [ 1054287.736100000794977, 1706438.229499998968095 ], [ 1054272.003000000491738, 1706420.982699999352917 ], [ 1054232.507100000977516, 1706377.686100000748411 ], [ 1054232.285899999085814, 1706370.2573000008706 ], [ 1054218.838100000750273, 1706353.137100000865757 ], [ 1054214.585900000995025, 1706345.186300000175834 ], [ 1054210.602199998917058, 1706343.151499999687076 ], [ 1054189.804400000721216, 1706315.777300000889227 ], [ 1054189.20369999948889, 1706312.752299998188391 ], [ 1054174.307700000237674, 1706292.894899999257177 ], [ 1054168.626599999610335, 1706287.815500001423061 ], [ 1054164.744900000747293, 1706287.24 ], [ 1054149.763500000350177, 1706279.155300001380965 ], [ 1054135.548999999416992, 1706271.919199999189004 ], [ 1054113.611900000367314, 1706268.471499999752268 ], [ 1054104.9834, 1706267.1601000004448 ], [ 1054102.542599999345839, 1706262.720699998782948 ], [ 1054068.943500000517815, 1706242.592900000279769 ], [ 1054062.749399999855086, 1706231.851500001037493 ], [ 1054046.612800000468269, 1706219.384900000179186 ], [ 1054040.176600000821054, 1706212.295700000831857 ], [ 1054037.373499998589978, 1706210.85469999932684 ], [ 1054035.181300000287592, 1706209.727900000289083 ], [ 1054032.635999999474734, 1706205.267699999269098 ], [ 1054025.138600001111627, 1706192.128499999642372 ], [ 1054023.322100000921637, 1706183.431899999501184 ], [ 1054013.770099999615923, 1706169.536699998890981 ], [ 1054010.606200001202524, 1706160.501700000371784 ], [ 1054008.504099998623133, 1706156.802100000437349 ], [ 1053995.072999999392778, 1706140.977 ], [ 1053989.487499999580905, 1706134.395300001837313 ], [ 1053984.855599999893457, 1706127.729900000616908 ], [ 1053982.067199999233708, 1706123.717299998970702 ], [ 1053978.338399999076501, 1706118.351700000232086 ], [ 1053974.073800001293421, 1706114.805099999066442 ], [ 1053971.914700000546873, 1706108.863299999386072 ], [ 1053966.519400000805035, 1706103.511300001526251 ], [ 1053962.2989, 1706091.123500001383945 ], [ 1053960.427999999374151, 1706086.605699999257922 ], [ 1053958.897400000598282, 1706081.7961 ], [ 1053959.410600001225248, 1706080.01729999971576 ], [ 1053960.854199999710545, 1706075.012900001136586 ], [ 1053958.843800000613555, 1706075.878299999050796 ], [ 1053951.657800000393763, 1706078.966499999398366 ], [ 1053946.025199999567121, 1706076.617900001583621 ], [ 1053930.852000000886619, 1706078.621899999212474 ], [ 1053918.578799999784678, 1706071.366299998480827 ], [ 1053901.841799999587238, 1706064.625900000799447 ], [ 1053881.184199999086559, 1706050.250700000906363 ], [ 1053798.6846, 1706016.848200000124052 ], [ 1053814.248200001427904, 1706004.358900000341237 ], [ 1053819.883200000505894, 1705996.989100000355393 ], [ 1053821.960899999365211, 1705994.271900000283495 ], [ 1053828.6011, 1705981.155300000216812 ], [ 1053842.147300000302494, 1705954.397299999371171 ], [ 1053866.833700001006946, 1705926.433300000615418 ], [ 1053903.381599999731407, 1705876.263299998827279 ], [ 1053909.878000000491738, 1705865.089900000486523 ], [ 1053925.310800000559539, 1705845.826500000664964 ], [ 1053927.420599998906255, 1705833.530700000468642 ], [ 1053929.590899999253452, 1705820.8749 ], [ 1053961.772300001000986, 1705781.192499999888241 ], [ 1053962.405399998649955, 1705780.411900001345202 ], [ 1054007.431900000199676, 1705736.996899999212474 ], [ 1054020.511499999091029, 1705724.385099999373779 ], [ 1054013.094800000311807, 1705701.69730000034906 ], [ 1053996.977800000924617, 1705652.403100001392886 ], [ 1053992.396799999289215, 1705638.3918999992311 ], [ 1053993.275600001215935, 1705637.568600000813603 ], [ 1053997.878200000384822, 1705633.256600000662729 ], [ 1054008.59260000125505, 1705623.218699999619275 ], [ 1054022.344499998725951, 1705601.6657 ], [ 1054024.421999999321997, 1705598.407699999865144 ], [ 1054045.109399999724701, 1705556.783099999651313 ], [ 1054057.020999999018386, 1705532.816099998774007 ], [ 1054076.939900000579655, 1705527.690099999774247 ], [ 1054121.970900000538677, 1705502.176700000884011 ], [ 1054171.964000000618398, 1705480.509099998511374 ], [ 1054175.484199998667464, 1705478.983299999730662 ], [ 1054176.2754, 1705477.070699998177588 ], [ 1054210.691599999321625, 1705393.852700000628829 ], [ 1054209.134400000795722, 1705374.176099999807775 ], [ 1054196.79340000054799, 1705277.912299998570234 ], [ 1054200.501500001177192, 1705271.377599999075755 ], [ 1054203.782299999147654, 1705265.596699999179691 ], [ 1054207.29839999973774, 1705265.558900000993162 ], [ 1054228.608899999875575, 1705265.329099999042228 ], [ 1054278.346799999475479, 1705283.952699999790639 ], [ 1054291.070400000317022, 1705283.61610000114888 ], [ 1054310.243599999463186, 1705269.197499999776483 ], [ 1054330.0432, 1705254.31629999820143 ], [ 1054330.4117, 1705254.306900000665337 ], [ 1054351.933200000785291, 1705253.757699999259785 ], [ 1054431.447099999757484, 1705216.768899998627603 ], [ 1054438.994099999312311, 1705213.258800000185147 ], [ 1054464.590899999719113, 1705196.841100001242012 ], [ 1054471.159499999135733, 1705198.238500000908971 ], [ 1054491.928300000727177, 1705202.660700000822544 ], [ 1054502.898999999277294, 1705204.996500001521781 ], [ 1054555.525899999774992, 1705227.730900001712143 ], [ 1054596.584800001000986, 1705242.831099999370053 ], [ 1054611.942199999466538, 1705240.700099998386577 ], [ 1054653.183799999766052, 1705234.979499998502433 ], [ 1054669.26259999955073, 1705235.41310000163503 ], [ 1054708.525400000624359, 1705236.471699999645352 ], [ 1054711.723099999129772, 1705236.261500000720844 ], [ 1054789.429399999324232, 1705231.148499999195337 ], [ 1054793.700100000249222, 1705230.867499999701977 ], [ 1054796.6066000002902, 1705230.676899998448789 ], [ 1054797.250799999339506, 1705228.783900000387803 ], [ 1054822.568199999397621, 1705152.950100000482053 ], [ 1054835.245800000848249, 1705133.945199999725446 ], [ 1054850.499099998967722, 1705111.078500001458451 ], [ 1054854.347000000532717, 1705103.529699999839067 ], [ 1054864.743800000753254, 1705083.0359 ], [ 1054883.3592, 1705046.341100000310689 ], [ 1054904.263600000645965, 1705027.577299998141825 ], [ 1054951.455400001490489, 1705024.632099997717887 ], [ 1054999.272300001000986, 1704993.8333 ], [ 1055056.257399999769405, 1704995.549900001147762 ], [ 1055061.721600000513718, 1704991.526300000725314 ], [ 1055107.520499999867752, 1704957.801100000506267 ], [ 1055148.4122, 1704878.270099999383092 ], [ 1055177.307399999815971, 1704876.813300000503659 ], [ 1055214.023299999069422, 1704870.886900000507012 ], [ 1055246.221400001319125, 1704874.018300001043826 ], [ 1055262.831899998476729, 1704857.5785 ], [ 1055288.230199999874458, 1704858.245500000892207 ], [ 1055335.827899999218062, 1704876.719300000462681 ], [ 1055382.985500000417233, 1704895.026499999687076 ], [ 1055383.819899999070913, 1704894.773700000718236 ], [ 1055388.204699998954311, 1704893.448899999028072 ], [ 1055475.905300000449643, 1704866.941299999132752 ], [ 1055510.822499999310821, 1704810.2237 ], [ 1055540.215499999700114, 1704746.261700001079589 ], [ 1055541.241100000916049, 1704744.032099998788908 ], [ 1055561.309500000439584, 1704656.106699998723343 ], [ 1055657.966300001135096, 1704643.44749999884516 ], [ 1055662.586900000926107, 1704642.841700000688434 ], [ 1055663.987900000298396, 1704640.838500001467764 ], [ 1055673.078900000313297, 1704627.838700001128018 ], [ 1055686.3262, 1704608.912699998356402 ], [ 1055690.242400000104681, 1704608.829700000584126 ], [ 1055711.902699999278411, 1704608.367699997499585 ], [ 1055731.201899999054149, 1704607.955499999690801 ], [ 1055741.800099999876693, 1704607.728700001258403 ], [ 1055777.821100000524893, 1704578.111499999882653 ], [ 1055779.761200000531971, 1704576.340500001329929 ], [ 1055818.006699998863041, 1704541.437899997690693 ], [ 1055827.200500000501052, 1704513.628499999642372 ], [ 1055833.652699999511242, 1704494.111499999649823 ], [ 1055840.869599999859929, 1704472.281500000972301 ], [ 1055865.048300000140443, 1704444.013499999186024 ], [ 1055882.023000000976026, 1704409.742300001904368 ], [ 1055909.324499999638647, 1704362.820900000631809 ], [ 1055909.693099999567494, 1704336.226500001037493 ], [ 1055909.826100000645965, 1704326.620499999262393 ], [ 1055910.0021, 1704313.835300001082942 ], [ 1055851.41569999884814, 1704245.435900000855327 ], [ 1055846.545700000831857, 1704224.023099998943508 ], [ 1055850.777700001141056, 1704205.832899999804795 ], [ 1055858.289100000169128, 1704173.544899999164045 ], [ 1055869.030200000386685, 1704127.316600000252947 ], [ 1055855.202499999431893, 1704127.823000000789762 ], [ 1055852.879500000737607, 1704128.019400000805035 ], [ 1055844.421699998900294, 1704128.734799999045208 ], [ 1055780.172500001033768, 1704134.169099998893216 ], [ 1055764.679100001463667, 1704135.479399998905137 ], [ 1055729.8217, 1704149.752600000239909 ], [ 1055664.552299999864772, 1704176.47880000108853 ], [ 1055648.79549999977462, 1704182.925599999260157 ], [ 1055637.497300000861287, 1704172.4298 ], [ 1055635.480299998773262, 1704170.554600001312792 ], [ 1055610.771099999547005, 1704147.583399999886751 ], [ 1055607.613099999725819, 1704144.647399999666959 ], [ 1055599.603100000880659, 1704137.200899999588728 ], [ 1055568.146100000478327, 1704144.0068 ], [ 1055551.771900000516325, 1704147.073999998159707 ], [ 1055551.127299999585375, 1704147.194800001103431 ], [ 1055550.162299999734387, 1704146.4102 ], [ 1055500.658099999651313, 1704106.162599998991936 ], [ 1055488.327700001420453, 1704098.296800000825897 ], [ 1055457.51410000026226, 1704078.6402 ], [ 1055449.767099999589846, 1704073.698400000110269 ], [ 1055405.282299999613315, 1704073.650599998887628 ], [ 1055373.635900000110269, 1704049.610599999781698 ], [ 1055328.391900000860915, 1704015.24180000112392 ], [ 1055321.588499999372289, 1704030.125399999320507 ], [ 1055286.868300000904128, 1704089.719599997857586 ], [ 1055274.226500001037493, 1704103.276600000448525 ], [ 1055245.403699999675155, 1704134.185000001452863 ], [ 1055202.59929999965243, 1704192.797400000505149 ], [ 1055119.641900000628084, 1704177.93540000077337 ], [ 1055095.741899999324232, 1704259.436799999093637 ], [ 1055038.1617, 1704274.246800001244992 ], [ 1054981.249500000383705, 1704271.790799999376759 ], [ 1054946.66569999884814, 1704285.80820000031963 ], [ 1054898.543899999465793, 1704324.815599998692051 ], [ 1054810.870900000445545, 1704360.8182 ], [ 1054788.921699999365956, 1704455.730000000679865 ], [ 1054780.799700000789016, 1704490.849999998696148 ], [ 1054774.630299999611452, 1704501.674599999096245 ], [ 1054766.018300000345334, 1704512.321200002450496 ], [ 1054763.481500000692904, 1704516.5622 ], [ 1054721.0021, 1704587.5824000001885 ], [ 1054677.145499998703599, 1704546.650300000328571 ], [ 1054667.8293, 1704547.049599999561906 ], [ 1054638.223899999633431, 1704548.31900000013411 ], [ 1054570.52790000080131, 1704551.221600000280887 ], [ 1054530.739299999317154, 1704552.9276 ], [ 1054490.96030000038445, 1704542.423399999039248 ], [ 1054440.124900001334026, 1704528.999600001610816 ], [ 1054364.164699998684227, 1704538.423200001707301 ], [ 1054296.089899999788031, 1704545.872400001389906 ], [ 1054201.612900001229718, 1704532.038600000552833 ], [ 1054182.678100000834092, 1704536.406600000336766 ], [ 1054109.805499999783933, 1704552.296599999070168 ], [ 1054034.987899999134243, 1704556.434000001987442 ], [ 1054004.402300000656396, 1704558.125600001076236 ], [ 1053988.5495, 1704559.002200000686571 ], [ 1053975.8414, 1704561.505399999208748 ], [ 1053962.997500000521541, 1704564.035399999236688 ], [ 1053955.126299999654293, 1704565.615599998738617 ], [ 1053943.847099999664351, 1704567.88039999967441 ], [ 1053916.47749999910593, 1704573.375399998389184 ], [ 1053885.671500000171363, 1704579.560399999376386 ], [ 1053844.523699999088421, 1704621.329500000923872 ], [ 1053824.072499999543652, 1704642.089400001335889 ], [ 1053797.857900001108646, 1704650.642199998954311 ], [ 1053751.780500001274049, 1704645.9607999981381 ], [ 1053722.934100001351908, 1704636.28800000064075 ], [ 1053686.991100000916049, 1704624.23560000048019 ], [ 1053641.520299999043345, 1704618.907199998851866 ], [ 1053641.064500000327826, 1704618.853800000390038 ], [ 1053621.574300001142547, 1704617.105799998855218 ], [ 1053618.181900000199676, 1704616.804199998965487 ], [ 1053585.8137, 1704626.8566 ], [ 1053539.235899999272078, 1704635.616200000280514 ], [ 1053422.821100000757724, 1704664.04460000153631 ], [ 1053412.564899999881163, 1704671.340200001839548 ], [ 1053405.998099999502301, 1704674.880000000586733 ], [ 1053396.327900000847876, 1704673.420999999390915 ], [ 1053392.11189999920316, 1704666.656600000103936 ], [ 1053390.214100001379848, 1704666.158600000664592 ], [ 1053387.149099999573082, 1704665.347200000658631 ], [ 1053383.115100001217797, 1704661.506200000876561 ], [ 1053374.472100000130013, 1704668.044600000139326 ], [ 1053369.778700000373647, 1704663.39699999964796 ], [ 1053358.257499999599531, 1704664.550199999473989 ], [ 1053328.584499998949468, 1704655.962200000183657 ], [ 1053323.266899999463931, 1704654.897799999685958 ], [ 1053311.831500000553206, 1704655.55259999842383 ], [ 1053302.792500000679865, 1704654.696799998870119 ], [ 1053294.505499999038875, 1704653.212200000882149 ], [ 1053293.294900000561029, 1704652.725799999199808 ], [ 1053289.988299999386072, 1704651.363199998624623 ], [ 1053285.129099998623133, 1704649.40000000060536 ], [ 1053282.69789999932982, 1704649.050200000638142 ], [ 1053277.824700000695884, 1704648.539399998495355 ], [ 1053274.065900000743568, 1704649.653200001223013 ], [ 1053269.433300000149757, 1704651.30100000044331 ], [ 1053267.446700001135468, 1704652.005799998762086 ], [ 1053265.099500000709668, 1704652.829199999338016 ], [ 1053263.3372999986168, 1704652.130799999460578 ], [ 1053261.146900000516325, 1704652.378599998075515 ], [ 1053236.080100000835955, 1704651.670799999730662 ], [ 1053230.185900000622496, 1704651.503200000617653 ], [ 1053225.753500000340864, 1704653.857399999862537 ], [ 1053224.901499999454245, 1704653.906599999871105 ], [ 1053217.070299999555573, 1704654.319200001424178 ], [ 1053215.137100000400096, 1704657.148399999365211 ], [ 1053209.307499999180436, 1704656.045199999352917 ], [ 1053197.638499999651685, 1704653.83699999935925 ], [ 1053195.515100000659004, 1704664.760800000280142 ], [ 1053186.10160000086762, 1704713.18889999948442 ], [ 1053167.987099999096245, 1704711.899200000800192 ], [ 1053164.457300000125542, 1704711.361600000644103 ], [ 1053158.0840999991633, 1704710.374 ], [ 1053145.217699999455363, 1704712.632000000216067 ], [ 1053143.842299998737872, 1704714.235399999655783 ], [ 1053134.668700000736862, 1704717.641400000546128 ], [ 1053087.242899999488145, 1704716.907200000248849 ], [ 1053038.9981, 1704685.748599999584258 ], [ 1053018.295499999308959, 1704670.93970000022091 ], [ 1052982.334899999201298, 1704645.216400000266731 ], [ 1052966.89909999887459, 1704644.966399998869747 ], [ 1052960.617499999469146, 1704642.497400001389906 ], [ 1052956.964699999429286, 1704646.518400000641122 ], [ 1052869.106499999528751, 1704660.774999999674037 ], [ 1052866.220900001237169, 1704663.089999998919666 ], [ 1052842.283100000349805, 1704686.828599999658763 ], [ 1052838.6527, 1704690.3502 ], [ 1052831.251700000138953, 1704701.0314 ], [ 1052820.631300000473857, 1704707.6018 ], [ 1052819.587799999630079, 1704708.873499999754131 ], [ 1052801.73429999849759, 1704730.635800000280142 ], [ 1052792.701100001344457, 1704732.529600000241771 ], [ 1052753.141499999212101, 1704760.530000000726432 ], [ 1052666.689100000774488, 1704737.69539999961853 ], [ 1052606.066700000315905, 1704718.26700000022538 ], [ 1052602.127999998861924, 1704716.465100000612438 ], [ 1052536.006700000492856, 1704686.21580000128597 ], [ 1052466.357900000642985, 1704694.515799998538569 ], [ 1052384.620899999514222, 1704659.992000000318512 ], [ 1052316.482899999246001, 1704660.833599999081343 ], [ 1052253.708700001239777, 1704634.500000001862645 ], [ 1052209.870799998752773, 1704628.409900001017377 ], [ 1052194.143499999307096, 1704626.225 ], [ 1052191.660499999532476, 1704627.71819999977015 ], [ 1052214.428100001299754, 1704553.369999999646097 ], [ 1052222.305000000633299, 1704523.838000000920147 ], [ 1052233.672500000102445, 1704481.218000000109896 ], [ 1052235.0965, 1704475.86659999913536 ], [ 1052183.083399999188259, 1704401.38990000099875 ], [ 1052175.825699998764321, 1704390.997400000691414 ], [ 1052107.186900000786409, 1704341.378000000258908 ], [ 1052075.166499999817461, 1704318.230200000340119 ], [ 1052052.690999999642372, 1704312.669600001070648 ], [ 1052036.499099998967722, 1704308.663899999577552 ], [ 1052011.544699999503791, 1704302.490200000815094 ], [ 1051929.703900001011789, 1704302.107999998843297 ], [ 1051926.291299998760223, 1704302.087799999397248 ], [ 1051869.386700000613928, 1704310.503200001083314 ], [ 1051854.247599999886006, 1704296.304399999789894 ], [ 1051838.307699999772012, 1704281.354800001718104 ], [ 1051837.106700000818819, 1704280.227600000798702 ], [ 1051705.255699999863282, 1704242.460999998729676 ], [ 1051701.903199998661876, 1704242.260399998864159 ], [ 1051640.595300000393763, 1704238.590799999888986 ], [ 1051602.978900000685826, 1704251.7352 ], [ 1051550.341700000455603, 1704242.392799999332055 ], [ 1051525.285300000105053, 1704270.393800001591444 ], [ 1051514.394300000276417, 1704282.5532 ], [ 1051475.5433, 1704325.958600000478327 ], [ 1051468.214099999517202, 1704334.147000000812113 ], [ 1051365.762500001350418, 1704354.930400000652298 ], [ 1051282.452500000596046, 1704346.373400000855327 ], [ 1051234.169700000667945, 1704320.275199999567121 ], [ 1051178.532500000903383, 1704336.217099999310449 ], [ 1051157.542899998836219, 1704342.231200000271201 ], [ 1051144.656299999216571, 1704344.301000001607463 ], [ 1051122.055500000715256, 1704352.501199999591336 ], [ 1051118.589300000341609, 1704355.026600000448525 ], [ 1051011.562399999238551, 1704354.66399999987334 ], [ 1050989.851500000106171, 1704354.5906 ], [ 1050891.978000000119209, 1704358.728199999546632 ], [ 1050782.123499998589978, 1704363.372599999187514 ], [ 1050767.114000000525266, 1704364.007099998183548 ], [ 1050753.7093, 1704294.687000002013519 ], [ 1050730.263500000117347, 1704208.191199999535456 ], [ 1050689.553300000494346, 1704159.559000000357628 ], [ 1050682.83229999919422, 1704122.782800000393763 ], [ 1050673.391300000716001, 1704081.513399998657405 ], [ 1050658.621900000376627, 1704031.603800000157207 ], [ 1050618.693299999460578, 1703938.140000002225861 ], [ 1050590.346299999626353, 1703862.705600001849234 ], [ 1050572.070899998536333, 1703787.048800001386553 ], [ 1050543.955700000282377, 1703753.040400000289083 ], [ 1050538.07899999874644, 1703742.376899999566376 ], [ 1050489.997700000880286, 1703655.132200000109151 ], [ 1050481.94990000128746, 1703646.5222 ], [ 1050431.638900000136346, 1703592.697600000537932 ], [ 1050406.159900001483038, 1703565.4392 ], [ 1050378.171900000423193, 1703524.060599998570979 ], [ 1050359.767399999080226, 1703496.617300000274554 ], [ 1050344.118299999041483, 1703473.282600001432002 ], [ 1050324.169300000416115, 1703443.536599999759346 ], [ 1050314.777900000102818, 1703433.038799998583272 ], [ 1050247.6569, 1703358.031600000569597 ], [ 1050216.598900000564754, 1703306.407199999783188 ], [ 1050180.869499999796972, 1703233.219200002029538 ], [ 1050148.126700000371784, 1703142.770600000396371 ], [ 1050090.505899999523535, 1703020.611999998334795 ], [ 1050075.018499999772757, 1702963.490599999204278 ], [ 1050075.186800000723451, 1702959.057700000703335 ], [ 1050078.554799999808893, 1702873.308900000527501 ], [ 1050078.988700000103563, 1702862.257999999215826 ], [ 1050082.245900001144037, 1702772.542599999345839 ], [ 1050082.412100000306964, 1702707.42740000016056 ], [ 1050096.49129999987781, 1702552.398800000781193 ], [ 1050122.446900000795722, 1702401.610999998869374 ], [ 1050153.934100001119077, 1702258.919400000944734 ], [ 1050172.854700000258163, 1702166.8328 ], [ 1050203.922899998957291, 1702127.067199998768046 ], [ 1050208.6939, 1702045.136999999638647 ], [ 1050206.693499998888001, 1702042.5565 ], [ 1050013.8232, 1701793.7574 ], [ 1050004.767900001257658, 1701782.076400000369176 ], [ 1050001.806799999671057, 1701778.922900000354275 ], [ 1049968.598500001011416, 1701743.55739999958314 ], [ 1049957.959599999478087, 1701731.629999999888241 ], [ 1049945.253100001020357, 1701717.385 ], [ 1049951.529500000644475, 1701646.9269999996759 ], [ 1049945.637100000167266, 1701634.435399998212233 ], [ 1049933.430099999299273, 1701608.557399997487664 ], [ 1049927.243400000967085, 1701600.078900000313297 ], [ 1049887.203299999237061, 1701545.207 ], [ 1049867.264700000640005, 1701522.03760000015609 ], [ 1049752.797899999888614, 1701504.4502 ], [ 1049679.807500000111759, 1701451.36339999968186 ], [ 1049676.10869999974966, 1701447.57420000154525 ], [ 1049625.791700000409037, 1701357.23399999900721 ], [ 1049576.363299999618903, 1701312.256999998586252 ], [ 1049575.940300000831485, 1701312.47939999983646 ], [ 1049522.059900000225753, 1701295.043799998704344 ], [ 1049476.371700000483543, 1701242.804400001652539 ], [ 1049402.585900000762194, 1701158.438200000207871 ], [ 1049346.209300000919029, 1701125.345799999311566 ], [ 1049297.244899999815971, 1701078.214400000404567 ], [ 1049266.956899999175221, 1701077.770400000503287 ], [ 1049264.12370000127703, 1701077.728800000622869 ], [ 1049222.045299999881536, 1701058.628599999239668 ], [ 1049142.386499999091029, 1701084.8818 ], [ 1049054.426100000273436, 1701165.785000000149012 ], [ 1049036.660500000696629, 1701179.520200000144541 ], [ 1048984.626899998867884, 1701219.749999999767169 ], [ 1048975.008899999549612, 1701227.186000000685453 ], [ 1048842.016900001093745, 1701296.801799999549985 ], [ 1048752.0869, 1701341.220799998613074 ], [ 1048727.595300000626594, 1701357.734400002053007 ], [ 1048704.69529999862425, 1701373.850199998589233 ], [ 1048682.050499998964369, 1701389.1106 ], [ 1048601.949699998833239, 1701495.109600000549108 ], [ 1048597.835900000762194, 1701492.750600001774728 ], [ 1048592.919600000139326, 1701489.931399998953566 ], [ 1048594.828999999444932, 1701496.342900000978261 ], [ 1048595.17, 1701497.487500000279397 ], [ 1048617.819799999007955, 1701577.886499997694045 ], [ 1048617.3326, 1701599.432899999432266 ], [ 1048617.560399998910725, 1701615.148299998836592 ], [ 1048616.491600001230836, 1701666.35749999829568 ], [ 1048604.469, 1701712.808899999829009 ], [ 1048606.839399999240413, 1701733.170300000347197 ], [ 1048597.39519999967888, 1701790.2669 ], [ 1048596.055199999595061, 1701826.923299999441952 ], [ 1048595.459999999497086, 1701866.17970000137575 ], [ 1048595.018, 1701895.328099999576807 ], [ 1048597.150200000964105, 1701940.094299999764189 ], [ 1048584.510399998864159, 1701993.263299999525771 ], [ 1048583.2226000004448, 1701998.6807 ], [ 1048571.954800000647083, 1702054.517900000326335 ], [ 1048537.409400000120513, 1702110.21049999888055 ], [ 1048525.441999998991378, 1702125.61030000098981 ], [ 1048525.120799999451265, 1702126.023700001183897 ], [ 1048524.774800000945106, 1702128.451300001703203 ], [ 1048521.635600000154227, 1702150.476799998432398 ], [ 1048509.953399999300018, 1702201.414500000420958 ], [ 1048501.106399999116547, 1702237.967499997699633 ], [ 1048492.712000000290573, 1702272.650499999057502 ], [ 1048495.311000000569038, 1702274.7697 ], [ 1048514.837400000425987, 1702290.690300001529977 ], [ 1048517.699799998663366, 1702293.02409999910742 ], [ 1048516.596000000368804, 1702296.250099998898804 ], [ 1048500.743200000491925, 1702342.580100000137463 ], [ 1048463.1232, 1702403.635500001255423 ], [ 1048454.88580000132788, 1702415.106499999761581 ], [ 1048431.247400000225753, 1702454.309900001622736 ], [ 1048392.17760000040289, 1702489.647899999516085 ], [ 1048359.943400001269765, 1702522.145699999528006 ], [ 1048312.3394, 1702555.441500000655651 ], [ 1048262.1648, 1702575.033699999563396 ], [ 1048207.103199999080971, 1702586.424499999731779 ], [ 1048163.139600001391955, 1702619.360299998428673 ], [ 1048178.621600001119077, 1702674.668099999194965 ], [ 1048178.680599999730475, 1702733.06029999977909 ], [ 1048175.739599999273196, 1702806.115499998442829 ], [ 1048155.073399999295361, 1702860.365900000324473 ], [ 1048148.141599998576567, 1702867.286500000394881 ], [ 1048135.534799999790266, 1702886.42689999868162 ], [ 1048129.482400000910275, 1702901.668299998389557 ], [ 1048103.8537999993423, 1702944.654899999499321 ], [ 1048061.230200001038611, 1702960.989800000796095 ], [ 1048003.098800000385381, 1702991.4159 ], [ 1047980.566599998506717, 1703017.694999998901039 ], [ 1047912.071800000383519, 1703050.636099999770522 ], [ 1047882.799199999193661, 1703091.468100000172853 ], [ 1047825.468200000701472, 1703131.0011 ], [ 1047785.638799999724142, 1703138.322099999757484 ], [ 1047755.285199999343604, 1703170.49269999936223 ], [ 1047681.549799999222159, 1703180.411100000375882 ], [ 1047643.672199998982251, 1703212.081900001503527 ], [ 1047589.479599999729544, 1703206.691099998541176 ], [ 1047546.072200000169687, 1703244.85869999974966 ], [ 1047534.477199998567812, 1703242.001299999188632 ], [ 1047510.782000000705011, 1703252.833500000182539 ], [ 1047482.901800001040101, 1703280.174900000682101 ], [ 1047440.195800000103191, 1703293.059699999634176 ], [ 1047423.3834, 1703289.826899999286979 ], [ 1047384.762200000113808, 1703276.248700000345707 ], [ 1047334.9988, 1703265.519300000974908 ], [ 1047307.408999999403022, 1703217.686699999030679 ], [ 1047295.796400001272559, 1703206.368500000564381 ], [ 1047247.903199999826029, 1703190.716900000814348 ], [ 1047220.9732, 1703185.198099998524413 ], [ 1047200.743000000249594, 1703166.595699998782948 ], [ 1047160.386599999153987, 1703153.171099999453872 ], [ 1047125.132600000477396, 1703137.154100001789629 ], [ 1047099.945600001257844, 1703119.514299998292699 ], [ 1047089.093400000128895, 1703107.547599998768419 ], [ 1047072.460999999893829, 1703090.008600000292063 ], [ 1047062.608000000240281, 1703071.210899997968227 ], [ 1047013.723800000618212, 1703036.380299999145791 ], [ 1046984.121199999004602, 1703022.558900000993162 ], [ 1046926.934999999590218, 1703013.776900000870228 ], [ 1046892.187600000295788, 1703006.694100001361221 ], [ 1046871.918200000771321, 1703021.384099999209866 ], [ 1046847.406000001356006, 1703036.739299998851493 ], [ 1046808.543400001013651, 1703048.467499998630956 ], [ 1046794.66000000119675, 1703090.008699999423698 ], [ 1046760.244400000432506, 1703124.438699999591336 ], [ 1046721.571599999559112, 1703150.84690000070259 ], [ 1046720.336199999786913, 1703151.6408 ], [ 1046711.944799998658709, 1703185.344100000103936 ], [ 1046709.84839999966789, 1703223.6227 ], [ 1046696.755400000838563, 1703282.979699998395517 ], [ 1046673.047599999583326, 1703308.837700000964105 ], [ 1046660.010400000144728, 1703331.209899998735636 ], [ 1046654.230400000582449, 1703359.089899999089539 ], [ 1046653.670800000894815, 1703361.701500000432134 ], [ 1046653.082400000886992, 1703363.556500000180677 ], [ 1046619.844599999720231, 1703391.1165 ], [ 1046618.232399998931214, 1703392.453299998771399 ], [ 1046618.335800000699237, 1703396.921700000297278 ], [ 1046619.447999999392778, 1703444.931500001111999 ], [ 1046614.355399998603389, 1703466.398099998943508 ], [ 1046582.92300000123214, 1703509.481899997685105 ], [ 1046577.82719999901019, 1703514.397299999371171 ], [ 1046567.888999999617226, 1703523.979900001548231 ], [ 1046557.975000000791624, 1703531.990900001488626 ], [ 1046532.64719999965746, 1703531.239899999462068 ], [ 1046503.198800001293421, 1703564.7564 ], [ 1046458.09020000079181, 1703597.381899999687448 ], [ 1046416.77919999929145, 1703610.2179000005126 ], [ 1046396.87260000128299, 1703635.812100000446662 ], [ 1046395.545599999837577, 1703637.517899998929352 ], [ 1046394.844599999836646, 1703638.4191 ], [ 1046344.618000000715256, 1703639.16150000016205 ], [ 1046310.202000000281259, 1703631.585300000850111 ], [ 1046307.257800000486895, 1703630.694499998353422 ], [ 1046299.844200000166893, 1703627.489299999782816 ], [ 1046296.520800001220778, 1703624.305700000142679 ], [ 1046282.017399999895133, 1703615.307899999665096 ], [ 1046276.529999999562278, 1703612.915300000458956 ], [ 1046261.1312, 1703606.201300000306219 ], [ 1046253.02480000059586, 1703601.58750000060536 ], [ 1046243.269600000814535, 1703596.035900000715628 ], [ 1046242.630999999586493, 1703597.646600000560284 ], [ 1046241.451000000699423, 1703602.506100000580773 ], [ 1046237.374800001271069, 1703605.4921000006143 ], [ 1046194.317600000766106, 1703609.745899998117238 ], [ 1046259.265800000517629, 1703698.493400000734255 ], [ 1046274.714999999850988, 1703719.603700000792742 ], [ 1046299.390800000517629, 1703753.321499998914078 ], [ 1046356.733800000394695, 1703833.771899999119341 ], [ 1046458.207000000518747, 1703949.157899999525398 ], [ 1046469.347399999271147, 1703962.54329999955371 ], [ 1046487.15759999922011, 1703983.942699999781325 ], [ 1046546.6682, 1704077.042299999855459 ], [ 1046594.192200000747107, 1704230.245900000445545 ], [ 1046635.540599999018013, 1704356.969100000103936 ], [ 1046652.221999998902902, 1704427.911699999589473 ], [ 1046651.889600000344217, 1704443.234299999428913 ], [ 1046650.036999998497777, 1704528.62529999949038 ], [ 1046649.147399999084882, 1704586.402500002179295 ], [ 1046634.993799999472685, 1704635.594699999084696 ], [ 1046622.952599999727681, 1704677.957100001396611 ], [ 1046617.257199999527074, 1704697.993700000457466 ], [ 1046626.472400001133792, 1704764.604900001548231 ], [ 1046654.20060000102967, 1704811.939899999182671 ], [ 1046656.314999999245629, 1704862.867299999576062 ], [ 1046683.715399999287911, 1704876.009099998744205 ], [ 1046686.169400001061149, 1704882.630699999863282 ], [ 1046695.382599999080412, 1704889.650200000265613 ], [ 1046732.91119999892544, 1704918.334500000346452 ], [ 1046744.670400000293739, 1704929.797899999888614 ], [ 1046758.077000000630505, 1704942.867299999808893 ], [ 1046780.591400000615977, 1704964.340699999826029 ], [ 1046788.462199999717996, 1704980.715500001329929 ], [ 1046797.935700000729412, 1704990.814900001045316 ], [ 1046798.311999999568798, 1704994.494300000602379 ], [ 1046786.3718, 1704991.3769 ], [ 1046762.860700000426732, 1704997.0757 ], [ 1046739.891100000590086, 1705002.151900000870228 ], [ 1046695.533799999742769, 1705015.815900000277907 ], [ 1046630.087800000561401, 1705052.800900000380352 ], [ 1046626.707000000867993, 1705055.90850000269711 ], [ 1046615.838700001244433, 1705063.019400001969188 ], [ 1046596.699100000900216, 1705075.5423 ], [ 1046614.6401, 1705116.726700000697747 ], [ 1046631.666900000418536, 1705150.8429000005126 ], [ 1046643.9263, 1705172.350099998526275 ], [ 1046660.475699999602512, 1705203.362099999096245 ], [ 1046649.843099999357946, 1705261.440300000132993 ], [ 1046655.930899999802932, 1705281.201300000306219 ], [ 1046661.052499999757856, 1705295.921499999240041 ], [ 1046662.003499999060296, 1705314.274099998641759 ], [ 1046654.536099999444559, 1705346.8455 ], [ 1046628.993500001030043, 1705389.826900000451133 ], [ 1046622.692899999441579, 1705417.52350000012666 ], [ 1046607.414699998917058, 1705468.866300000110641 ], [ 1046631.986500000115484, 1705503.290300001157448 ], [ 1046633.286100000957958, 1705505.724700000602752 ], [ 1046651.739699999801815, 1705521.840099999681115 ], [ 1046658.506099998718128, 1705527.74930000025779 ], [ 1046702.631500000949018, 1705554.756299999309704 ], [ 1046707.743099998682737, 1705587.917900000233203 ], [ 1046716.29810000048019, 1705613.153100001625717 ], [ 1046718.60850000102073, 1705625.162699999753386 ], [ 1046769.45929999940563, 1705696.8139 ], [ 1046770.099699999671429, 1705697.716299999272451 ], [ 1046792.367899998906069, 1705730.242699998663738 ], [ 1046790.3539, 1705734.883099999278784 ], [ 1046789.129100000136532, 1705744.214900000253692 ], [ 1046802.825699999812059, 1705770.4271 ], [ 1046819.846900000586174, 1705783.482100000604987 ], [ 1046831.87949999968987, 1705841.289500000188127 ], [ 1046831.678500001085922, 1705841.654300001449883 ], [ 1046827.356499999063089, 1705852.55089999944903 ], [ 1046822.47829999960959, 1705870.33610000135377 ], [ 1046816.532899999758229, 1705918.934299999848008 ], [ 1046813.3577, 1705978.767100001685321 ], [ 1046815.005700000561774, 1705992.013699999311939 ], [ 1046820.299399999668822, 1706034.568700001342222 ], [ 1046841.827000000281259, 1706099.864499998977408 ], [ 1046869.128899999661371, 1706128.371700000949204 ], [ 1046873.563099999679253, 1706130.339900000719354 ], [ 1046895.361299999058247, 1706140.016099999658763 ], [ 1046919.376000000862405, 1706157.847100000595674 ], [ 1046919.648400000529364, 1706158.049299999373034 ], [ 1046884.383800000301562, 1706262.238699999637902 ], [ 1046875.285600001225248, 1706275.019500000867993 ], [ 1046872.2484, 1706279.285900000715628 ], [ 1046858.907600000267848, 1706314.777299998793751 ], [ 1046855.909399999072775, 1706327.747500000521541 ], [ 1046855.744600000558421, 1706328.460699999239296 ], [ 1046849.811799999559298, 1706354.126700001070276 ], [ 1046849.778800000553019, 1706354.269700000761077 ], [ 1046849.761799999279901, 1706354.371099998243153 ], [ 1046849.434199999086559, 1706356.334499999880791 ], [ 1046844.029799999203533, 1706388.7105 ], [ 1046876.728000000584871, 1706409.968299998901784 ], [ 1046881.328399999416433, 1706412.959100001258776 ], [ 1046881.737400000565685, 1706423.311699999496341 ], [ 1046883.74540000106208, 1706474.127300000283867 ], [ 1046884.295199999120086, 1706488.040899999439716 ], [ 1046892.138200000161305, 1706519.5375 ], [ 1046913.7612, 1706556.893899999093264 ], [ 1046911.930400000652298, 1706575.407500000437722 ], [ 1046907.259400000795722, 1706622.6497 ], [ 1046911.967000000993721, 1706629.531900000292808 ], [ 1046923.801800000597723, 1706645.292700001969934 ], [ 1046936.477999999769963, 1706674.562499998603016 ], [ 1046948.307200000388548, 1706701.876700001070276 ], [ 1046968.62179999880027, 1706715.986700000241399 ], [ 1046978.526799999293871, 1706733.407500001136214 ], [ 1046982.960800000466406, 1706749.487699998775497 ], [ 1046995.369000000995584, 1706775.1001 ], [ 1047003.457800000905991, 1706792.527100001228973 ], [ 1047011.57219999958761, 1706809.224500000244007 ], [ 1047015.517800000263378, 1706814.45670000067912 ], [ 1047023.923799998941831, 1706825.603500000201166 ], [ 1047059.8956, 1706826.142100000521168 ], [ 1047089.031599999871105, 1706841.055500000249594 ], [ 1047097.417599999695085, 1706845.347900000400841 ], [ 1047116.054999999818392, 1706861.053500000620261 ], [ 1047122.1364, 1706866.178199999500066 ], [ 1047149.457000001566485, 1706889.20109999878332 ], [ 1047152.923999999184161, 1706896.2543 ], [ 1047156.048800000688061, 1706906.059900000225753 ], [ 1047169.419399999664165, 1706937.9685 ], [ 1047203.568999999086373, 1706988.662699998822063 ], [ 1047210.882799999322742, 1706999.519700000528246 ], [ 1047215.68879999872297, 1707001.294099999126047 ], [ 1047236.013799999374896, 1707008.797700001858175 ], [ 1047248.337000000989065, 1707026.064500000327826 ], [ 1047268.195399999152869, 1707062.3753 ], [ 1047279.326800000504591, 1707093.264699999243021 ], [ 1047287.876600000890903, 1707107.696899999864399 ], [ 1047301.987599999643862, 1707119.542099999496713 ], [ 1047310.912400000495836, 1707127.488500001374632 ], [ 1047332.637199999764562, 1707157.870699999853969 ], [ 1047357.289799999562092, 1707173.413200000766665 ], [ 1047361.567000000737607, 1707175.623500001151115 ], [ 1047376.773600000538863, 1707184.161100001074374 ], [ 1047383.209999999031425, 1707187.774700000882149 ], [ 1047398.083199999528006, 1707200.951299999840558 ], [ 1047410.752600000356324, 1707212.175300001865253 ], [ 1047420.7186, 1707221.004300000378862 ], [ 1047427.718599999090657, 1707227.205900000175461 ], [ 1047443.834599998546764, 1707230.0865000016056 ], [ 1047482.439000000827946, 1707221.074099999386817 ], [ 1047483.479800000786781, 1707221.127900000894442 ], [ 1047494.760800000862218, 1707230.441900000907481 ], [ 1047518.690600001020357, 1707250.198899999260902 ], [ 1047544.524400001158938, 1707251.998899999074638 ], [ 1047546.852600000682287, 1707251.863100000657141 ], [ 1047577.281600000220351, 1707254.400299999630079 ], [ 1047583.832799999043345, 1707254.946499999146909 ], [ 1047605.344600000185892, 1707286.344299999531358 ], [ 1047610.025000001420267, 1707293.175500000827014 ], [ 1047621.439600000856444, 1707310.030900000594556 ], [ 1047637.520200000144541, 1707319.849300000816584 ], [ 1047638.328599998960271, 1707320.342900001443923 ], [ 1047656.65720000048168, 1707337.265799999469891 ], [ 1047662.269800000707619, 1707352.063999999081716 ], [ 1047676.785000000731088, 1707390.335300000850111 ], [ 1047712.950099999434315, 1707422.6184 ], [ 1047745.711400001426227, 1707451.8629 ], [ 1047766.067000000970438, 1707497.555899999802932 ], [ 1047808.769499999471009, 1707526.751500000245869 ], [ 1047809.916400000569411, 1707527.535699999658391 ], [ 1047829.478200000827201, 1707525.4101 ], [ 1047850.747799999429844, 1707523.099099999526516 ], [ 1047882.860200000577606, 1707530.80629999935627 ], [ 1047886.279999999329448, 1707531.627100001089275 ], [ 1047896.294000000460073, 1707601.926500000990927 ], [ 1047900.409999999217689, 1707630.822100001620129 ], [ 1047899.944999999250285, 1707644.448500000173226 ], [ 1047899.117999998969026, 1707668.687899999786168 ], [ 1047897.654200000455603, 1707711.587099998956546 ], [ 1047897.250999999465421, 1707723.40529999951832 ], [ 1047915.827599999494851, 1707763.189799998886883 ], [ 1047930.472999999416061, 1707806.306700000539422 ], [ 1047942.361999999615364, 1707814.7448 ], [ 1047967.001199999358505, 1707834.776200000662357 ], [ 1047980.881400001235306, 1707845.4222 ], [ 1047989.070799999288283, 1707872.107200001366436 ], [ 1047990.519600001047365, 1707893.030300001380965 ], [ 1047992.2316, 1707908.651199999032542 ], [ 1047992.858200000366196, 1707914.425599999260157 ], [ 1047993.147599999210797, 1707917.091399999335408 ], [ 1047987.991600001347251, 1707932.00709999888204 ], [ 1047981.48619999946095, 1707950.826500000897795 ], [ 1047994.518500001169741, 1707980.016400001011789 ], [ 1048002.138000001199543, 1707997.082499998621643 ], [ 1048004.223999999812804, 1708025.787100000772625 ], [ 1048009.39299999922514, 1708096.912799998885021 ], [ 1047993.216199999093078, 1708130.743299999739975 ], [ 1048011.7437999995891, 1708172.914100000634789 ], [ 1048016.09639999922365, 1708224.045800000429153 ], [ 1048020.040200000512414, 1708247.787799998885021 ], [ 1048075.471999999252148, 1708312.4407 ], [ 1048078.993800000636838, 1708316.5483 ], [ 1048089.355600000708364, 1708339.90610000025481 ], [ 1048090.595599998603575, 1708353.285399998538196 ], [ 1048098.529100000159815, 1708386.303600000450388 ], [ 1048100.093199999188073, 1708392.812999999150634 ], [ 1048101.362399999401532, 1708395.473999999696389 ], [ 1048118.95459999947343, 1708432.356300000101328 ], [ 1048117.248299999046139, 1708474.171200000680983 ], [ 1048117.062199998646975, 1708478.7338 ], [ 1048118.741200000164099, 1708481.779600000474602 ], [ 1048139.341399999102578, 1708519.148399998433888 ], [ 1048133.267, 1708543.571900000330061 ], [ 1048131.017000000341795, 1708552.618599999696016 ], [ 1048127.771200001006946, 1708570.211700000800192 ], [ 1048138.452600000193343, 1708595.777599999448285 ], [ 1048144.151, 1708609.416700000409037 ], [ 1048151.766400000778958, 1708634.33049999945797 ], [ 1048154.818799999542534, 1708644.316500000888482 ], [ 1048163.595099998754449, 1708648.993299999507144 ], [ 1048222.234000000986271, 1708680.241699999896809 ], [ 1048242.525400000158697, 1708706.233100002864376 ], [ 1048242.197800000198185, 1708721.5966 ], [ 1048241.5082, 1708753.937699999427423 ], [ 1048271.834400000865571, 1708821.120300000533462 ], [ 1048277.438100000959821, 1708845.516899999696761 ], [ 1048284.6772, 1708877.03309999871999 ], [ 1048311.392799998982809, 1708882.919500001007691 ], [ 1048314.921600000583567, 1708883.69700000109151 ], [ 1048441.312199998879805, 1708911.545299998950213 ], [ 1048441.505400000372902, 1708911.648199998773634 ], [ 1048472.309600001317449, 1708928.05030000093393 ], [ 1048502.642599999555387, 1708945.171299998648465 ], [ 1048530.608400000608526, 1708932.677899999776855 ], [ 1048546.1082, 1708925.753499999875203 ], [ 1048549.775400000624359, 1708924.160700001521036 ], [ 1048557.280999999493361, 1708919.359099998837337 ], [ 1048561.113399999565445, 1708916.9070999994874 ], [ 1048569.839400000520982, 1708910.971899999538437 ], [ 1048625.698400001274422, 1708911.8321 ], [ 1048633.160799999255687, 1708911.429300002520904 ], [ 1048657.146999998949468, 1708910.134299998171628 ], [ 1048670.395999998785555, 1708892.522700000321493 ], [ 1048677.897800001082942, 1708883.680299998726696 ], [ 1048734.217999999411404, 1708849.731300000101328 ], [ 1048750.005799999460578, 1708847.376099999295548 ], [ 1048783.841200000140816, 1708819.898499998729676 ], [ 1048808.825599999167025, 1708785.511300000362098 ], [ 1048812.437400000402704, 1708780.540100001264364 ], [ 1048881.177799999481067, 1708797.99129999987781 ], [ 1048936.627599999308586, 1708777.200300000607967 ], [ 1048959.566599998623133, 1708768.599300000118092 ], [ 1048968.217200000304729, 1708766.975299999350682 ], [ 1049000.060199999017641, 1708734.441400000825524 ], [ 1049018.402200000360608, 1708713.909600001294166 ], [ 1049069.928000001236796, 1708665.346900000236928 ], [ 1049082.60799999977462, 1708614.958699997747317 ], [ 1049087.821200001053512, 1708590.657099999720231 ], [ 1049087.882600000360981, 1708587.4799 ], [ 1049089.506000000517815, 1708503.29790000198409 ], [ 1049105.521, 1708475.801300000399351 ], [ 1049109.646, 1708475.846899998839945 ], [ 1049143.125199998961762, 1708476.216900000348687 ], [ 1049199.688400001497939, 1708476.842199999140576 ], [ 1049209.632399999303743, 1708476.952099999412894 ], [ 1049269.49970000050962, 1708479.727900000289083 ], [ 1049299.952799999387935, 1708481.139900001697242 ], [ 1049322.892200000584126, 1708496.562100001377985 ], [ 1049342.79160000057891, 1708509.940500000491738 ], [ 1049376.410400000633672, 1708529.316899999510497 ], [ 1049400.996200000168756, 1708515.920199999818578 ], [ 1049423.0652, 1708503.894899999257177 ], [ 1049456.379199999151751, 1708494.355399999534711 ], [ 1049498.815999999642372, 1708491.484499998856336 ], [ 1049511.568199999397621, 1708490.621899999678135 ], [ 1049544.014199999626726, 1708481.54590000025928 ], [ 1049565.853600000729784, 1708463.840700000524521 ], [ 1049577.175999999279156, 1708454.661499998532236 ], [ 1049584.532999998657033, 1708452.521099999081343 ], [ 1049610.248800000641495, 1708445.0395 ], [ 1049641.071400000946596, 1708446.815300002228469 ], [ 1049652.159199999645352, 1708447.4541 ], [ 1049728.260599999688566, 1708395.181299999123439 ], [ 1049735.102400000905618, 1708392.86250000144355 ], [ 1049760.275799999013543, 1708384.330900001106784 ], [ 1049790.010800001211464, 1708374.253100000554696 ], [ 1049813.404399999184534, 1708379.10010000015609 ], [ 1049826.816799999214709, 1708381.878900001756847 ], [ 1049848.43620000127703, 1708389.531500000972301 ], [ 1049864.668799999402836, 1708417.708799998741597 ], [ 1049872.188699999824166, 1708430.762199998833239 ], [ 1049894.9153, 1708469.521400001831353 ], [ 1049886.405899999896064, 1708504.1658 ], [ 1049851.044900000328198, 1708556.80299999890849 ], [ 1049901.981300001265481, 1708610.47800000035204 ], [ 1049917.893899998860434, 1708644.060800001490861 ], [ 1049944.918100000126287, 1708700.014999999664724 ], [ 1049945.303600000450388, 1708765.11949999909848 ], [ 1049945.756999999284744, 1708841.667699999408796 ], [ 1049945.760799999814481, 1708842.304099999833852 ], [ 1049946.303600000916049, 1708842.769099998986349 ], [ 1049976.446600000374019, 1708868.58610000135377 ], [ 1049984.401600000448525, 1708927.663899999344721 ], [ 1049987.818599998950958, 1709001.005899999057874 ], [ 1049974.666000001132488, 1709032.997899999376386 ], [ 1049959.579999999841675, 1709081.748899999074638 ], [ 1049942.913399999495596, 1709139.351500001735985 ], [ 1049942.591799998655915, 1709140.462699999799952 ], [ 1049942.662999999476597, 1709142.220100000267848 ], [ 1049944.401600000914186, 1709185.212300000712276 ], [ 1049936.269599999533966, 1709197.381100001046434 ], [ 1049920.666799999773502, 1709220.729100000811741 ], [ 1049897.492399998707697, 1709257.95130000053905 ], [ 1049908.89560000016354, 1709307.481300000334159 ], [ 1049910.469600000185892, 1709308.292500000912696 ], [ 1049949.980000000447035, 1709328.656099999323487 ], [ 1050005.093199998838827, 1709312.26410000026226 ], [ 1050039.433599999174476, 1709332.861300001619384 ], [ 1050076.39659999939613, 1709387.517100000288337 ], [ 1050094.317999999271706, 1709410.9075 ], [ 1050116.112600000808015, 1709456.132299999706447 ], [ 1050150.351200001314282, 1709478.123299999628216 ], [ 1050172.852199998684227, 1709568.124199999729171 ], [ 1050173.138599999481812, 1709572.6217 ], [ 1050153.592199999606237, 1709633.758099999045953 ], [ 1050136.311200000112876, 1709682.350100000621751 ], [ 1050129.840200000908226, 1709690.277899999171495 ], [ 1050127.107399999396876, 1709702.557900000596419 ], [ 1050136.275199998868629, 1709729.347900000400841 ], [ 1050139.151799999177456, 1709735.309699999634176 ], [ 1050147.71559999906458, 1709738.8258 ], [ 1050152.492199999047443, 1709739.005699998699129 ], [ 1050157.690000001341105, 1709740.272900000447407 ], [ 1050179.656199999619275, 1709742.179100002162158 ], [ 1050227.911000000312924, 1709748.656900000525638 ], [ 1050277.190200000302866, 1709777.354900000151247 ], [ 1050288.406799999065697, 1709792.4043 ], [ 1050308.771799999056384, 1709819.728699999861419 ], [ 1050313.160199999343604, 1709825.360899998806417 ], [ 1050313.008600001223385, 1709826.60899999900721 ], [ 1050315.103400000371039, 1709833.319100000662729 ], [ 1050320.086800000630319, 1709846.377900000661612 ], [ 1050321.416999999200925, 1709849.308900000760332 ], [ 1050326.487400000682101, 1709856.036900001345202 ], [ 1050336.844800000544637, 1709870.54689999949187 ], [ 1050355.066999998874962, 1709884.628300000913441 ], [ 1050357.459800001466647, 1709889.562899999553338 ], [ 1050359.562400000169873, 1709894.069300000788644 ], [ 1050361.860200000461191, 1709899.37419999926351 ], [ 1050365.267199998954311, 1709906.431700001005083 ], [ 1050385.084199999226257, 1709925.074100001016632 ], [ 1050394.851399999111891, 1709934.262300000526011 ], [ 1050417.947000000160187, 1709958.177499999757856 ], [ 1050418.168000000528991, 1709968.195300000486895 ], [ 1050418.67119999974966, 1709991.022299999371171 ], [ 1050419.025000001303852, 1710001.953299999237061 ], [ 1050419.6454, 1710010.003300000214949 ], [ 1050429.261799999512732, 1710018.515799999702722 ], [ 1050431.553600000217557, 1710026.632300000172108 ], [ 1050437.048800000688061, 1710035.748299999162555 ], [ 1050442.449200000148267, 1710036.503699997672811 ], [ 1050451.374199999729171, 1710035.913500000257045 ], [ 1050454.013799998909235, 1710035.73890000092797 ], [ 1050458.009599999291822, 1710035.898499999195337 ], [ 1050460.290199999231845, 1710037.787299999501556 ], [ 1050457.780600000638515, 1710043.959500000113621 ], [ 1050457.720200000796467, 1710044.108100000536069 ], [ 1050456.238599998643622, 1710047.795899998396635 ], [ 1050462.40940000093542, 1710049.7753 ], [ 1050462.923200001008809, 1710049.940099998144433 ], [ 1050466.232800000812858, 1710049.386900000739843 ], [ 1050469.931800001300871, 1710044.768300001276657 ], [ 1050481.91880000103265, 1710048.469100000569597 ], [ 1050478.4372, 1710050.611699999775738 ], [ 1050466.465400000335649, 1710053.91249999939464 ], [ 1050465.961999999592081, 1710054.259700000518933 ], [ 1050459.261, 1710058.879300000378862 ], [ 1050479.068199999630451, 1710072.888900001300499 ], [ 1050480.122199998935685, 1710073.68970000022091 ], [ 1050491.791800000239164, 1710082.555299999658018 ], [ 1050515.648800000548363, 1710124.454100000672042 ], [ 1050534.754399999044836, 1710154.75029999925755 ], [ 1050559.911199999740347, 1710190.34239999903366 ], [ 1050579.185199999716133, 1710217.611299999523908 ], [ 1050593.107399999396876, 1710237.412900002673268 ], [ 1050617.009200000204146, 1710252.1253 ], [ 1050639.664600000251085, 1710265.0469 ], [ 1050688.843399999663234, 1710269.052100001834333 ], [ 1050709.026599999750033, 1710264.440500001423061 ], [ 1050718.82219999935478, 1710261.823299999348819 ], [ 1050725.426600000355393, 1710260.0589 ], [ 1050737.882, 1710248.0091 ], [ 1050752.74860000028275, 1710235.233099999837577 ], [ 1050808.152999999234453, 1710220.700800000457093 ], [ 1050828.240000000223517, 1710233.9132 ], [ 1050830.856999998679385, 1710236.74970000050962 ], [ 1050838.138399999588728, 1710245.0519 ], [ 1050837.245399999432266, 1710250.069499998586252 ], [ 1050826.83119999896735, 1710308.586699998471886 ], [ 1050791.572800000198185, 1710346.856299998937175 ], [ 1050745.348199999658391, 1710421.709900001995265 ], [ 1050681.636399999493733, 1710485.586599999573082 ], [ 1050673.084000000264496, 1710606.272299998439848 ], [ 1050666.275399999460205, 1710624.577900000615045 ], [ 1050653.310799999162555, 1710661.085899999365211 ], [ 1050668.0384, 1710670.777300000190735 ], [ 1050744.900999998673797, 1710721.356500000692904 ], [ 1050794.604000001214445, 1710774.2179000005126 ], [ 1050826.994000000180677, 1710830.441900000907481 ], [ 1050894.606399998767301, 1710850.5835 ], [ 1050960.971000000135973, 1710888.671699999365956 ], [ 1050999.292999998433515, 1710954.172299998812377 ], [ 1051005.630199999548495, 1710959.7837 ], [ 1051064.014000000664964, 1711015.639699998544529 ], [ 1051069.742799999890849, 1711008.787100001005456 ], [ 1051079.406999999191612, 1710998.437300000572577 ], [ 1051124.9082, 1711005.7174 ], [ 1051169.236400000983849, 1711007.7668999992311 ], [ 1051201.8158, 1711020.843299998901784 ], [ 1051200.47080000070855, 1711076.65770000172779 ], [ 1051215.3416, 1711091.096099999733269 ], [ 1051236.080199999036267, 1711111.231699998956174 ], [ 1051232.006100000115111, 1711116.457499999552965 ], [ 1051219.510200001532212, 1711132.485099999466911 ], [ 1051225.315999999409541, 1711169.873900001868606 ], [ 1051282.044400000711903, 1711227.447699998505414 ], [ 1051351.937199999112636, 1711286.747899999376386 ], [ 1051389.861600001342595, 1711310.6184 ], [ 1051392.208800000138581, 1711312.09569999948144 ], [ 1051417.764599999878556, 1711328.744899999117479 ], [ 1051419.242999999318272, 1711327.638900000834838 ], [ 1051420.936999999685213, 1711326.377299999818206 ], [ 1051433.641800001030788, 1711316.913500000722706 ], [ 1051465.216600000858307, 1711293.393699998501688 ], [ 1051496.792200000956655, 1711244.4679000005126 ], [ 1051512.668200001120567, 1711219.868100001243874 ], [ 1051551.775799999479204, 1711216.589299998246133 ], [ 1051599.564600000856444, 1711177.716099998913705 ], [ 1051608.327400000300258, 1711172.399499999126419 ], [ 1051621.700800000224262, 1711164.285099999047816 ], [ 1051680.399400000460446, 1711128.66969999903813 ], [ 1051689.022199998842552, 1711123.438100000377744 ], [ 1051725.946299999486655, 1711086.963000000221655 ], [ 1051736.73920000041835, 1711076.3011 ], [ 1051742.753200000384822, 1711070.360099998768419 ], [ 1051743.7602, 1711069.3653 ], [ 1051806.602399999508634, 1711028.057499999646097 ], [ 1051832.368599998997524, 1710998.7941 ] ] ] } }
]
}
